{"type":"FeatureCollection","features":[{"type":"Feature","id":3030,"properties":{"buildingId":1,"floorId":21,"roomNumber":"2-307","roomName":"2-307 Oktató","scope":"budapest/lagymanyos/deli/2/LD-2-307-01-13","roomCode":"LD-2-307-01-13","roomType":"educational","__tile":"17/72476/45847","__layer":"rooms","__zoom":17,"__mvtId":3030,"__building":"deli","__ringVerts":5,"id":3030,"catalogFloorId":21},"geometry":{"type":"Polygon","coordinates":[[[19.062619115,47.47273608],[19.062634538,47.472786843],[19.062594305,47.472792282],[19.062578882,47.472741519],[19.062619115,47.47273608]]]}},{"type":"Feature","id":2323,"properties":{"buildingId":1,"floorId":21,"roomNumber":"2-413","roomName":"2-413 Vezetői szoba","scope":"budapest/lagymanyos/deli/2/LD-2-413-02-33","roomCode":"LD-2-413-02-33","roomType":"administrative","__tile":"17/72476/45847","__layer":"rooms","__zoom":17,"__mvtId":2323,"__building":"deli","__ringVerts":5,"id":2323,"catalogFloorId":21},"geometry":{"type":"Polygon","coordinates":[[[19.062989384,47.472779452],[19.063006148,47.472834294],[19.062930376,47.472844719],[19.062914282,47.472789877],[19.062989384,47.472779452]]]}},{"type":"Feature","id":2451,"properties":{"buildingId":1,"floorId":21,"roomNumber":"2-310","roomName":"2-310 Oktató","scope":"budapest/lagymanyos/deli/2/LD-2-310-01-13","roomCode":"LD-2-310-01-13","roomType":"educational","__tile":"17/72476/45847","__layer":"rooms","__zoom":17,"__mvtId":2451,"__building":"deli","__ringVerts":5,"id":2451,"catalogFloorId":21},"geometry":{"type":"Polygon","coordinates":[[[19.062494338,47.472718649],[19.062509761,47.472769865],[19.062469528,47.472775304],[19.062454105,47.472724542],[19.062494338,47.472718649]]]}},{"type":"Feature","id":3178,"properties":{"buildingId":1,"floorId":21,"roomNumber":"2-312","roomName":"2-312 Oktató","scope":"budapest/lagymanyos/deli/2/LD-2-312-01-13","roomCode":"LD-2-312-01-13","roomType":"educational","__tile":"17/72476/45847","__layer":"rooms","__zoom":17,"__mvtId":3178,"__building":"deli","__ringVerts":5,"id":3178,"catalogFloorId":21},"geometry":{"type":"Polygon","coordinates":[[[19.062411238,47.47270749],[19.062426661,47.472758253],[19.062386428,47.472763692],[19.062370335,47.472712929],[19.062411238,47.47270749]]]}},{"type":"Feature","id":3315,"properties":{"buildingId":1,"floorId":21,"roomNumber":"2-311","roomName":"2-311 Iroda","scope":"budapest/lagymanyos/deli/2/LD-2-311-02-33","roomCode":"LD-2-311-02-33","roomType":"administrative","__tile":"17/72476/45847","__layer":"rooms","__zoom":17,"__mvtId":3315,"__building":"deli","__ringVerts":5,"id":3315,"catalogFloorId":21},"geometry":{"type":"Polygon","coordinates":[[[19.062452743,47.47271311],[19.062468166,47.472763872],[19.062427933,47.472769765],[19.06241251,47.472718549],[19.062452743,47.47271311]]]}},{"type":"Feature","id":2464,"properties":{"buildingId":1,"floorId":21,"roomNumber":"2-319","roomName":"2-319 Lépcsőház","scope":"budapest/lagymanyos/deli/2/LD-2-319-04-64","roomCode":"LD-2-319-04-64","roomType":"corridor","__tile":"17/72476/45847","__layer":"rooms","__zoom":17,"__mvtId":2464,"__building":"deli","__ringVerts":5,"id":2464,"catalogFloorId":21},"geometry":{"type":"Polygon","coordinates":[[[19.062880786,47.472703369],[19.062888162,47.472726485],[19.062815071,47.472736456],[19.062808366,47.472713341],[19.062880786,47.472703369]]]}},{"type":"Feature","id":3698,"properties":{"buildingId":1,"floorId":21,"roomNumber":"2-306","roomName":"2-306 Oktató","scope":"budapest/lagymanyos/deli/2/LD-2-306-01-13","roomCode":"LD-2-306-01-13","roomType":"educational","__tile":"17/72476/45847","__layer":"rooms","__zoom":17,"__mvtId":3698,"__building":"deli","__ringVerts":5,"id":3698,"catalogFloorId":21},"geometry":{"type":"Polygon","coordinates":[[[19.062660708,47.47274171],[19.062676131,47.472792472],[19.062635898,47.472798365],[19.062620475,47.472747149],[19.062660708,47.47274171]]]}},{"type":"Feature","id":2280,"properties":{"buildingId":1,"floorId":21,"roomNumber":"2-305","roomName":"2-305 Oktató","scope":"budapest/lagymanyos/deli/2/LD-2-305-01-13","roomCode":"LD-2-305-01-13","roomType":"educational","__tile":"17/72476/45847","__layer":"rooms","__zoom":17,"__mvtId":2280,"__building":"deli","__ringVerts":5,"id":2280,"catalogFloorId":21},"geometry":{"type":"Polygon","coordinates":[[[19.0627023,47.472747248],[19.062717723,47.472798464],[19.06267749,47.472803903],[19.062662067,47.472753141],[19.0627023,47.472747248]]]}},{"type":"Feature","id":3577,"properties":{"buildingId":1,"floorId":21,"roomNumber":"2-313","roomName":"2-313 Lépcsőház","scope":"budapest/lagymanyos/deli/2/LD-2-313-04-64","roomCode":"LD-2-313-04-64","roomType":"corridor","__tile":"17/72476/45847","__layer":"rooms","__zoom":17,"__mvtId":3577,"__building":"deli","__ringVerts":7,"id":3577,"catalogFloorId":21},"geometry":{"type":"Polygon","coordinates":[[[19.062483383,47.472651327],[19.062490089,47.472674442],[19.062416999,47.472684413],[19.062408282,47.472655406],[19.062424375,47.472653593],[19.062425716,47.472659032],[19.062483383,47.472651327]]]}},{"type":"Feature","id":3780,"properties":{"buildingId":1,"floorId":21,"roomNumber":"2-416","roomName":"2-416 WC","scope":"budapest/lagymanyos/deli/2/LD-2-416-05-71","roomCode":"LD-2-416-05-71","roomType":"social","__tile":"17/72476/45847","__layer":"rooms","__zoom":17,"__mvtId":3780,"__building":"deli","__ringVerts":5,"id":3780,"catalogFloorId":21},"geometry":{"type":"Polygon","coordinates":[[[19.062908263,47.472694173],[19.062912957,47.47271049],[19.062902898,47.47271185],[19.062897534,47.472695533],[19.062908263,47.472694173]]]}},{"type":"Feature","id":3569,"properties":{"buildingId":1,"floorId":21,"roomNumber":"2-409","roomName":"2-409 Vezetői szoba","scope":"budapest/lagymanyos/deli/2/LD-2-409-02-33","roomCode":"LD-2-409-02-33","roomType":"administrative","__tile":"17/72476/45847","__layer":"rooms","__zoom":17,"__mvtId":3569,"__building":"deli","__ringVerts":6,"id":3569,"catalogFloorId":21},"geometry":{"type":"Polygon","coordinates":[[[19.063044724,47.4726327],[19.063052771,47.472660348],[19.062987057,47.472668959],[19.062976328,47.472668959],[19.062968952,47.472643125],[19.063044724,47.4726327]]]}},{"type":"Feature","id":3271,"properties":{"buildingId":1,"floorId":21,"roomNumber":"2-212","roomName":"2-212 Tárgyaló és szeminárium","scope":"budapest/lagymanyos/deli/2/LD-2-212-01-12","roomCode":"LD-2-212-01-12","roomType":"educational","__tile":"17/72476/45847","__layer":"rooms","__zoom":17,"__mvtId":3271,"__building":"deli","__ringVerts":5,"id":3271,"catalogFloorId":21},"geometry":{"type":"Polygon","coordinates":[[[19.062318712,47.472687221],[19.062335476,47.472742063],[19.062259704,47.472752488],[19.06224361,47.472697646],[19.062318712,47.472687221]]]}},{"type":"Feature","id":3471,"properties":{"buildingId":1,"floorId":21,"roomNumber":"2-211","roomName":"2-211 Oktatói","scope":"budapest/lagymanyos/deli/2/LD-2-211-01-13","roomCode":"LD-2-211-01-13","roomType":"educational","__tile":"17/72476/45847","__layer":"rooms","__zoom":17,"__mvtId":3471,"__building":"deli","__ringVerts":5,"id":3471,"catalogFloorId":21},"geometry":{"type":"Polygon","coordinates":[[[19.062334692,47.472656328],[19.062342739,47.472683523],[19.062267637,47.472693947],[19.06225959,47.472666753],[19.062334692,47.472656328]]]}},{"type":"Feature","id":2980,"properties":{"buildingId":1,"floorId":21,"roomNumber":"2-417","roomName":"2-417 WC","scope":"budapest/lagymanyos/deli/2/LD-2-417-05-71","roomCode":"LD-2-417-05-71","roomType":"social","__tile":"17/72476/45847","__layer":"rooms","__zoom":17,"__mvtId":2980,"__building":"deli","__ringVerts":5,"id":2980,"catalogFloorId":21},"geometry":{"type":"Polygon","coordinates":[[[19.062896671,47.472692476],[19.062901365,47.472708792],[19.062890636,47.472710152],[19.062885942,47.472694289],[19.062896671,47.472692476]]]}},{"type":"Feature","id":3832,"properties":{"buildingId":1,"floorId":21,"roomNumber":"2-315","roomName":"2-315 (PC4)","scope":"budapest/lagymanyos/deli/2/LD-2-315-01-14","roomCode":"LD-2-315-01-14","roomType":"educational","__tile":"17/72476/45847","__layer":"rooms","__zoom":17,"__mvtId":3832,"__building":"deli","__ringVerts":6,"id":3832,"catalogFloorId":21},"geometry":{"type":"Polygon","coordinates":[[[19.062645005,47.472631823],[19.062660428,47.472683039],[19.062556492,47.472697089],[19.062535705,47.472697089],[19.062521623,47.472649046],[19.062645005,47.472631823]]]}},{"type":"Feature","id":2729,"properties":{"buildingId":1,"floorId":21,"roomNumber":"2-201","roomName":"2-201 Közlekedő","scope":"budapest/lagymanyos/deli/2/LD-2-201-04-63","roomCode":"LD-2-201-04-63","roomType":"corridor","__tile":"17/72476/45847","__layer":"rooms","__zoom":17,"__mvtId":2729,"__building":"deli","__ringVerts":43,"id":2729,"catalogFloorId":21},"geometry":{"type":"Polygon","coordinates":[[[19.062369983,47.472560865],[19.062385406,47.472612081],[19.062372665,47.472613441],[19.062375348,47.472621599],[19.062401499,47.472617973],[19.062398817,47.472610721],[19.06241491,47.472608908],[19.062416922,47.472615707],[19.062443073,47.472612534],[19.062440391,47.472605282],[19.062456485,47.472603016],[19.062458496,47.472610268],[19.062484648,47.472606642],[19.062481965,47.47259939],[19.062498059,47.472597577],[19.06250007,47.472604376],[19.062524881,47.472601203],[19.062530916,47.472622052],[19.062506105,47.472625225],[19.062508117,47.472632477],[19.062492694,47.472634743],[19.062490683,47.472627491],[19.062480624,47.472628851],[19.062479954,47.472626585],[19.062389429,47.472641542],[19.062400829,47.472679614],[19.062367972,47.472679614],[19.062365289,47.472668736],[19.062354561,47.472670096],[19.062351208,47.472659671],[19.062361937,47.472658311],[19.062356572,47.472640635],[19.062345843,47.472641995],[19.062343161,47.47263157],[19.062353219,47.472630211],[19.062347855,47.472612534],[19.062337797,47.472613894],[19.062334444,47.47260347],[19.062345173,47.47260211],[19.062344502,47.472598937],[19.062333773,47.47260075],[19.062323715,47.47256721],[19.062369983,47.472560865]]]}},{"type":"Feature","id":2551,"properties":{"buildingId":1,"floorId":21,"roomNumber":"2-308","roomName":"2-308 Tanszékvezetői","scope":"budapest/lagymanyos/deli/2/LD-2-308-01-13","roomCode":"LD-2-308-01-13","roomType":"educational","__tile":"17/72476/45847","__layer":"rooms","__zoom":17,"__mvtId":2551,"__building":"deli","__ringVerts":5,"id":2551,"catalogFloorId":21},"geometry":{"type":"Polygon","coordinates":[[[19.062577523,47.472730179],[19.062592946,47.472781395],[19.062552713,47.472786834],[19.06253729,47.472735618],[19.062577523,47.472730179]]]}},{"type":"Feature","id":2650,"properties":{"buildingId":1,"floorId":21,"roomNumber":"2-314","roomName":"2-314 Oktató","scope":"budapest/lagymanyos/deli/2/LD-2-314-01-13","roomCode":"LD-2-314-01-13","roomType":"educational","__tile":"17/72476/45847","__layer":"rooms","__zoom":17,"__mvtId":2650,"__building":"deli","__ringVerts":5,"id":2650,"catalogFloorId":21},"geometry":{"type":"Polygon","coordinates":[[[19.062521834,47.472633646],[19.062535916,47.472681689],[19.062496353,47.472681689],[19.062483613,47.472639085],[19.062521834,47.472633646]]]}},{"type":"Feature","id":2762,"properties":{"buildingId":1,"floorId":21,"roomNumber":"2-412","roomName":"2-412 Iroda","scope":"budapest/lagymanyos/deli/2/LD-2-412-02-33","roomCode":"LD-2-412-02-33","roomType":"administrative","__tile":"17/72476/45847","__layer":"rooms","__zoom":17,"__mvtId":2762,"__building":"deli","__ringVerts":5,"id":2762,"catalogFloorId":21},"geometry":{"type":"Polygon","coordinates":[[[19.0630054,47.47274845],[19.063013447,47.472776097],[19.062938345,47.472786069],[19.062930298,47.472758874],[19.0630054,47.47274845]]]}},{"type":"Feature","id":3027,"properties":{"buildingId":1,"floorId":21,"roomNumber":"2-318","roomName":"2-318 Oktató","scope":"budapest/lagymanyos/deli/2/LD-2-318-01-13","roomCode":"LD-2-318-01-13","roomType":"educational","__tile":"17/72476/45847","__layer":"rooms","__zoom":17,"__mvtId":3027,"__building":"deli","__ringVerts":6,"id":3027,"catalogFloorId":21},"geometry":{"type":"Polygon","coordinates":[[[19.062807619,47.472666939],[19.06282103,47.472713169],[19.062815666,47.472719061],[19.06278415,47.472723594],[19.062768727,47.472672378],[19.062807619,47.472666939]]]}},{"type":"Feature","id":3755,"properties":{"buildingId":1,"floorId":21,"roomNumber":"2-316","roomName":"2-316 Iroda","scope":"budapest/lagymanyos/deli/2/LD-2-316-02-33","roomCode":"LD-2-316-02-33","roomType":"administrative","__tile":"17/72476/45847","__layer":"rooms","__zoom":17,"__mvtId":3755,"__building":"deli","__ringVerts":5,"id":3755,"catalogFloorId":21},"geometry":{"type":"Polygon","coordinates":[[[19.062724578,47.472654356],[19.062740001,47.472705572],[19.062658193,47.47271645],[19.06264277,47.472665687],[19.062724578,47.472654356]]]}},{"type":"Feature","id":2525,"properties":{"buildingId":1,"floorId":21,"roomNumber":"2-302","roomName":"2-302 Oktató","scope":"budapest/lagymanyos/deli/2/LD-2-302-01-13","roomCode":"LD-2-302-01-13","roomType":"educational","__tile":"17/72476/45847","__layer":"rooms","__zoom":17,"__mvtId":2525,"__building":"deli","__ringVerts":5,"id":2525,"catalogFloorId":21},"geometry":{"type":"Polygon","coordinates":[[[19.062827078,47.472764408],[19.062842501,47.472815624],[19.062802268,47.472821063],[19.062786845,47.4727703],[19.062827078,47.472764408]]]}},{"type":"Feature","id":2709,"properties":{"buildingId":1,"floorId":21,"roomNumber":"2-304","roomName":"2-304 Oktató","scope":"budapest/lagymanyos/deli/2/LD-2-304-01-13","roomCode":"LD-2-304-01-13","roomType":"educational","__tile":"17/72476/45847","__layer":"rooms","__zoom":17,"__mvtId":2709,"__building":"deli","__ringVerts":5,"id":2709,"catalogFloorId":21},"geometry":{"type":"Polygon","coordinates":[[[19.062743893,47.47275324],[19.062759316,47.472804003],[19.062719083,47.472809442],[19.06270366,47.472758679],[19.062743893,47.47275324]]]}},{"type":"Feature","id":3075,"properties":{"buildingId":1,"floorId":21,"roomNumber":"2-303","roomName":"2-303 Oktató","scope":"budapest/lagymanyos/deli/2/LD-2-303-01-13","roomCode":"LD-2-303-01-13","roomType":"educational","__tile":"17/72476/45847","__layer":"rooms","__zoom":17,"__mvtId":3075,"__building":"deli","__ringVerts":5,"id":3075,"catalogFloorId":21},"geometry":{"type":"Polygon","coordinates":[[[19.062785485,47.47275887],[19.062800908,47.472809632],[19.062760675,47.472815525],[19.062745252,47.472764309],[19.062785485,47.47275887]]]}},{"type":"Feature","id":3310,"properties":{"buildingId":1,"floorId":21,"roomNumber":"2-317","roomName":"2-317 IK Tudományos és nemzetközi kapcsolatok","scope":"budapest/lagymanyos/deli/2/LD-2-317-02-33","roomCode":"LD-2-317-02-33","roomType":"administrative","__tile":"17/72476/45847","__layer":"rooms","__zoom":17,"__mvtId":3310,"__building":"deli","__ringVerts":5,"id":3310,"catalogFloorId":21},"geometry":{"type":"Polygon","coordinates":[[[19.062770337,47.472665383],[19.06278576,47.472716146],[19.062745527,47.472721585],[19.062730104,47.472670822],[19.062770337,47.472665383]]]}},{"type":"Feature","id":3719,"properties":{"buildingId":1,"floorId":21,"roomNumber":"2-414","roomName":"2-414 Előtér","scope":"budapest/lagymanyos/deli/2/LD-2-414-04-63","roomCode":"LD-2-414-04-63","roomType":"corridor","__tile":"17/72476/45847","__layer":"rooms","__zoom":17,"__mvtId":3719,"__building":"deli","__ringVerts":5,"id":3719,"catalogFloorId":21},"geometry":{"type":"Polygon","coordinates":[[[19.062910035,47.472677042],[19.062913388,47.472688373],[19.062864437,47.472694718],[19.062861085,47.47268384],[19.062910035,47.472677042]]]}},{"type":"Feature","id":3684,"properties":{"buildingId":1,"floorId":21,"roomNumber":"2-410","roomName":"2-410 Előadók (gazdasági)","scope":"budapest/lagymanyos/deli/2/LD-2-410-02-33","roomCode":"LD-2-410-02-33","roomType":"administrative","__tile":"17/72476/45847","__layer":"rooms","__zoom":17,"__mvtId":3684,"__building":"deli","__ringVerts":5,"id":3684,"catalogFloorId":21},"geometry":{"type":"Polygon","coordinates":[[[19.063030786,47.472664108],[19.063038833,47.472691755],[19.062963731,47.472701727],[19.062955684,47.472674532],[19.063030786,47.472664108]]]}},{"type":"Feature","id":2979,"properties":{"buildingId":1,"floorId":21,"roomNumber":"2-411","roomName":"2-411 Vezetői szoba","scope":"budapest/lagymanyos/deli/2/LD-2-411-02-33","roomCode":"LD-2-411-02-33","roomType":"administrative","__tile":"17/72476/45847","__layer":"rooms","__zoom":17,"__mvtId":2979,"__building":"deli","__ringVerts":5,"id":2979,"catalogFloorId":21},"geometry":{"type":"Polygon","coordinates":[[[19.063014846,47.47269515],[19.06303161,47.472750445],[19.062955838,47.47276087],[19.062939074,47.472705575],[19.063014846,47.47269515]]]}},{"type":"Feature","id":3423,"properties":{"buildingId":1,"floorId":21,"roomNumber":"2-401","roomName":"2-401 Közlekedő","scope":"budapest/lagymanyos/deli/2/LD-2-401-04-63","roomCode":"LD-2-401-04-63","roomType":"corridor","__tile":"17/72476/45847","__layer":"rooms","__zoom":17,"__mvtId":3423,"__building":"deli","__ringVerts":113,"id":3423,"catalogFloorId":21},"geometry":{"type":"Polygon","coordinates":[[[19.062975777,47.472573561],[19.062985836,47.4726071],[19.062975107,47.47260846],[19.062975777,47.47261118],[19.062986506,47.47260982],[19.062989859,47.472620244],[19.06297913,47.472621604],[19.062984494,47.47263928],[19.062995223,47.472637921],[19.062997905,47.472648345],[19.062987847,47.472649705],[19.062993212,47.472667381],[19.06300327,47.472666021],[19.063006623,47.472676446],[19.062995894,47.472677806],[19.063001258,47.472695482],[19.063011987,47.472694122],[19.06301534,47.472704547],[19.063004611,47.472705907],[19.063009975,47.472723583],[19.063020034,47.472722223],[19.063023386,47.472732648],[19.063013328,47.472734007],[19.063018693,47.472751684],[19.063028751,47.472750324],[19.063032104,47.472760748],[19.063021375,47.472762108],[19.063022716,47.472767547],[19.062990529,47.472767547],[19.062990529,47.47276664],[19.062983153,47.472767547],[19.06297913,47.472767547],[19.062977118,47.472757576],[19.062987177,47.472756216],[19.062981812,47.47273854],[19.062971754,47.472739899],[19.062968401,47.472729475],[19.06297913,47.472728115],[19.062958343,47.472659223],[19.06294225,47.472661489],[19.062944261,47.472667381],[19.062928839,47.472669647],[19.062926156,47.472661489],[19.062866477,47.472669647],[19.062867148,47.472671914],[19.062857089,47.472673273],[19.062859101,47.472680525],[19.062843008,47.472682338],[19.062840996,47.47267554],[19.062814845,47.472679165],[19.062817527,47.472685964],[19.062801434,47.47268823],[19.062799422,47.472680978],[19.06277327,47.472684604],[19.062775282,47.472691856],[19.062759859,47.472694122],[19.062757848,47.47268687],[19.062731696,47.472690496],[19.062734378,47.472697748],[19.062718285,47.472699561],[19.062716273,47.472692763],[19.062690122,47.472696388],[19.062692134,47.472703187],[19.062676711,47.472705453],[19.062674699,47.472698201],[19.062648548,47.472701827],[19.062650559,47.472709079],[19.062635137,47.472711345],[19.062633125,47.472704094],[19.062606973,47.472707719],[19.062608985,47.472714518],[19.062593562,47.472716784],[19.062585516,47.472688683],[19.062583504,47.472681885],[19.062598927,47.472679619],[19.062600939,47.47268687],[19.06262709,47.472683245],[19.062625078,47.472675993],[19.062640501,47.472673727],[19.062642513,47.472680978],[19.062668664,47.472677352],[19.062666653,47.472670101],[19.062682075,47.472668288],[19.062684087,47.472675086],[19.062710239,47.47267146],[19.062708227,47.472664662],[19.06272365,47.472662396],[19.062725661,47.472669647],[19.062751813,47.472666021],[19.062749801,47.47265877],[19.062765224,47.472656503],[19.062767235,47.472663755],[19.062793387,47.472660129],[19.062791375,47.472653331],[19.062806798,47.472651065],[19.06280881,47.472658316],[19.062834961,47.472654691],[19.06283295,47.472647439],[19.062848372,47.472645172],[19.062850384,47.472652424],[19.062876535,47.472648798],[19.062874524,47.472641547],[19.062889947,47.472639734],[19.062891958,47.472646532],[19.06291811,47.472642906],[19.062916098,47.472636108],[19.062931521,47.472633842],[19.062933532,47.472641093],[19.062959684,47.472637467],[19.062957002,47.472629309],[19.062944932,47.472631122],[19.062929509,47.472579906],[19.062975777,47.472573561]]]}},{"type":"Feature","id":2845,"properties":{"buildingId":1,"floorId":21,"roomNumber":"2-418","roomName":"2-418 Vezetői szoba","scope":"budapest/lagymanyos/deli/2/LD-2-418-02-33","roomCode":"LD-2-418-02-33","roomType":"administrative","__tile":"17/72476/45847","__layer":"rooms","__zoom":17,"__mvtId":2845,"__building":"deli","__ringVerts":6,"id":2845,"catalogFloorId":21},"geometry":{"type":"Polygon","coordinates":[[[19.062908244,47.472646323],[19.06291562,47.472672158],[19.062840518,47.472682583],[19.062834483,47.47266128],[19.062839848,47.472655388],[19.062908244,47.472646323]]]}},{"type":"Feature","id":3242,"properties":{"buildingId":1,"floorId":21,"roomNumber":"2-309","roomName":"2-309 Oktató","scope":"budapest/lagymanyos/deli/2/LD-2-309-01-13","roomCode":"LD-2-309-01-13","roomType":"educational","__tile":"17/72476/45847","__layer":"rooms","__zoom":17,"__mvtId":3242,"__building":"deli","__ringVerts":5,"id":3242,"catalogFloorId":21},"geometry":{"type":"Polygon","coordinates":[[[19.06253593,47.472724641],[19.062551353,47.472775404],[19.06251112,47.472780843],[19.062495697,47.47273008],[19.06253593,47.472724641]]]}},{"type":"Feature","id":2234,"properties":{"buildingId":1,"floorId":21,"roomNumber":"2-301","roomName":"2-301 Oktató","scope":"budapest/lagymanyos/deli/2/LD-2-301-01-13","roomCode":"LD-2-301-01-13","roomType":"educational","__tile":"17/72476/45847","__layer":"rooms","__zoom":17,"__mvtId":2234,"__building":"deli","__ringVerts":5,"id":2234,"catalogFloorId":21},"geometry":{"type":"Polygon","coordinates":[[[19.06286867,47.4727704],[19.062884093,47.472821163],[19.06284386,47.472826602],[19.062828437,47.472775839],[19.06286867,47.4727704]]]}},{"type":"Feature","id":3864,"properties":{"buildingId":1,"floorId":21,"roomNumber":"2-402","roomName":"2-402 (Multimédiás labor)","scope":"budapest/lagymanyos/deli/2/LD-2-402-01-14","roomCode":"LD-2-402-01-14","roomType":"educational","__tile":"17/72476/45848","__layer":"rooms","__zoom":17,"__mvtId":3864,"__building":"deli","__ringVerts":5,"id":3864,"catalogFloorId":21},"geometry":{"type":"Polygon","coordinates":[[[19.063099333,47.472414097],[19.063116097,47.472469396],[19.063040325,47.472479821],[19.063024231,47.472424069],[19.063099333,47.472414097]]]}},{"type":"Feature","id":3025,"properties":{"buildingId":1,"floorId":21,"roomNumber":"2-621","roomName":"2-621 Lépcsőház","scope":"budapest/lagymanyos/deli/2/LD-2-621-04-64","roomCode":"LD-2-621-04-64","roomType":"corridor","__tile":"17/72476/45848","__layer":"rooms","__zoom":17,"__mvtId":3025,"__building":"deli","__ringVerts":7,"id":3025,"catalogFloorId":21},"geometry":{"type":"Polygon","coordinates":[[[19.063079839,47.472024075],[19.063088556,47.472053084],[19.063072463,47.47205535],[19.063071122,47.472049911],[19.063014125,47.472057617],[19.063006749,47.4720345],[19.063079839,47.472024075]]]}},{"type":"Feature","id":2459,"properties":{"buildingId":1,"floorId":21,"roomNumber":"2-516","roomName":"2-516 WC","scope":"budapest/lagymanyos/deli/2/LD-2-516-05-71","roomCode":"LD-2-516-05-71","roomType":"social","__tile":"17/72476/45848","__layer":"rooms","__zoom":17,"__mvtId":2459,"__building":"deli","__ringVerts":5,"id":2459,"catalogFloorId":21},"geometry":{"type":"Polygon","coordinates":[[[19.063097996,47.472063901],[19.06310269,47.472079765],[19.063092631,47.472081578],[19.063087267,47.472065261],[19.063097996,47.472063901]]]}},{"type":"Feature","id":2539,"properties":{"buildingId":1,"floorId":21,"roomNumber":"2-511","roomName":"2-511 Tanszékvezetői","scope":"budapest/lagymanyos/deli/2/LD-2-511-01-13","roomCode":"LD-2-511-01-13","roomType":"educational","__tile":"17/72476/45848","__layer":"rooms","__zoom":17,"__mvtId":2539,"__building":"deli","__ringVerts":5,"id":2539,"catalogFloorId":21},"geometry":{"type":"Polygon","coordinates":[[[19.063225274,47.472017618],[19.063233991,47.472044814],[19.063158219,47.472055239],[19.063150172,47.472028043],[19.063225274,47.472017618]]]}},{"type":"Feature","id":2868,"properties":{"buildingId":1,"floorId":21,"roomNumber":"2-407","roomName":"2-407 Tanszékvezetői","scope":"budapest/lagymanyos/deli/2/LD-2-407-01-13","roomCode":"LD-2-407-01-13","roomType":"educational","__tile":"17/72476/45848","__layer":"rooms","__zoom":17,"__mvtId":2868,"__building":"deli","__ringVerts":5,"id":2868,"catalogFloorId":21},"geometry":{"type":"Polygon","coordinates":[[[19.063056145,47.472579784],[19.063064192,47.472607433],[19.06298909,47.472617405],[19.062981043,47.472590209],[19.063056145,47.472579784]]]}},{"type":"Feature","id":3115,"properties":{"buildingId":1,"floorId":21,"roomNumber":"2-505","roomName":"2-505 Oktató","scope":"budapest/lagymanyos/deli/2/LD-2-505-01-13","roomCode":"LD-2-505-01-13","roomType":"educational","__tile":"17/72476/45848","__layer":"rooms","__zoom":17,"__mvtId":3115,"__building":"deli","__ringVerts":5,"id":3115,"catalogFloorId":21},"geometry":{"type":"Polygon","coordinates":[[[19.063174872,47.472186276],[19.063182919,47.472213472],[19.063107147,47.472223897],[19.0630991,47.472196701],[19.063174872,47.472186276]]]}},{"type":"Feature","id":3296,"properties":{"buildingId":1,"floorId":21,"roomNumber":"2-506","roomName":"2-506 Oktató","scope":"budapest/lagymanyos/deli/2/LD-2-506-01-13","roomCode":"LD-2-506-01-13","roomType":"educational","__tile":"17/72476/45848","__layer":"rooms","__zoom":17,"__mvtId":3296,"__building":"deli","__ringVerts":5,"id":3296,"catalogFloorId":21},"geometry":{"type":"Polygon","coordinates":[[[19.063183076,47.472158164],[19.063191123,47.47218536],[19.063116021,47.472195785],[19.063107974,47.472168589],[19.063183076,47.472158164]]]}},{"type":"Feature","id":3748,"properties":{"buildingId":1,"floorId":21,"roomNumber":"2-504","roomName":"2-504 Oktató","scope":"budapest/lagymanyos/deli/2/LD-2-504-01-13","roomCode":"LD-2-504-01-13","roomType":"educational","__tile":"17/72476/45848","__layer":"rooms","__zoom":17,"__mvtId":3748,"__building":"deli","__ringVerts":5,"id":3748,"catalogFloorId":21},"geometry":{"type":"Polygon","coordinates":[[[19.063166152,47.472214393],[19.063174199,47.472241589],[19.063099097,47.472252014],[19.06309105,47.472224818],[19.063166152,47.472214393]]]}},{"type":"Feature","id":3734,"properties":{"buildingId":1,"floorId":21,"roomNumber":"2-508","roomName":"2-508 Tanszékvezető","scope":"budapest/lagymanyos/deli/2/LD-2-508-01-13","roomCode":"LD-2-508-01-13","roomType":"educational","__tile":"17/72476/45848","__layer":"rooms","__zoom":17,"__mvtId":3734,"__building":"deli","__ringVerts":5,"id":3734,"catalogFloorId":21},"geometry":{"type":"Polygon","coordinates":[[[19.063199866,47.472101935],[19.063208583,47.472129131],[19.063132811,47.472139556],[19.063124764,47.47211236],[19.063199866,47.472101935]]]}},{"type":"Feature","id":3747,"properties":{"buildingId":1,"floorId":21,"roomNumber":"2-404","roomName":"2-404 Oktató","scope":"budapest/lagymanyos/deli/2/LD-2-404-01-13","roomCode":"LD-2-404-01-13","roomType":"educational","__tile":"17/72476/45848","__layer":"rooms","__zoom":17,"__mvtId":3747,"__building":"deli","__ringVerts":5,"id":3747,"catalogFloorId":21},"geometry":{"type":"Polygon","coordinates":[[[19.063081658,47.472495713],[19.063089705,47.472522909],[19.063014603,47.472532881],[19.063005886,47.472505685],[19.063081658,47.472495713]]]}},{"type":"Feature","id":3842,"properties":{"buildingId":1,"floorId":21,"roomNumber":"2-712","roomName":"2-712","scope":"budapest/lagymanyos/deli/2/LD-2-712-01-12","roomCode":"LD-2-712-01-12","roomType":"educational","__tile":"17/72476/45848","__layer":"rooms","__zoom":17,"__mvtId":3842,"__building":"deli","__ringVerts":6,"id":3842,"catalogFloorId":21},"geometry":{"type":"Polygon","coordinates":[[[19.062629167,47.472027763],[19.062661354,47.472132921],[19.062655989,47.472138813],[19.062586922,47.472148332],[19.062554065,47.472038188],[19.062629167,47.472027763]]]}},{"type":"Feature","id":3017,"properties":{"buildingId":1,"floorId":21,"roomNumber":"2-104","roomName":"2-104 Férfi WC csoport","scope":"budapest/lagymanyos/deli/2/LD-2-104-05-71","roomCode":"LD-2-104-05-71","roomType":"social","__tile":"17/72476/45848","__layer":"rooms","__zoom":17,"__mvtId":3017,"__building":"deli","__ringVerts":7,"id":3017,"catalogFloorId":21},"geometry":{"type":"Polygon","coordinates":[[[19.062605626,47.472228426],[19.062611661,47.472249276],[19.062540583,47.472258795],[19.062531865,47.472231599],[19.062559358,47.472228879],[19.06256137,47.472234319],[19.062605626,47.472228426]]]}},{"type":"Feature","id":3357,"properties":{"buildingId":1,"floorId":21,"roomNumber":"2-714","roomName":"2-714 WC","scope":"budapest/lagymanyos/deli/2/LD-2-714-05-71","roomCode":"LD-2-714-05-71","roomType":"social","__tile":"17/72476/45848","__layer":"rooms","__zoom":17,"__mvtId":3357,"__building":"deli","__ringVerts":5,"id":3357,"catalogFloorId":21},"geometry":{"type":"Polygon","coordinates":[[[19.062602463,47.4719957],[19.062607827,47.472012018],[19.062597098,47.472013377],[19.062592404,47.47199706],[19.062602463,47.4719957]]]}},{"type":"Feature","id":2383,"properties":{"buildingId":1,"floorId":21,"roomNumber":"2-612","roomName":"2-612 Oktató","scope":"budapest/lagymanyos/deli/2/LD-2-612-01-13","roomCode":"LD-2-612-01-13","roomType":"educational","__tile":"17/72476/45848","__layer":"rooms","__zoom":17,"__mvtId":2383,"__building":"deli","__ringVerts":5,"id":2383,"catalogFloorId":21},"geometry":{"type":"Polygon","coordinates":[[[19.062657611,47.471888469],[19.062673034,47.471939688],[19.062632801,47.471945127],[19.062617378,47.471893908],[19.062657611,47.471888469]]]}},{"type":"Feature","id":3119,"properties":{"buildingId":1,"floorId":21,"roomNumber":"2-610","roomName":"2-610 Oktató","scope":"budapest/lagymanyos/deli/2/LD-2-610-01-13","roomCode":"LD-2-610-01-13","roomType":"educational","__tile":"17/72476/45848","__layer":"rooms","__zoom":17,"__mvtId":3119,"__building":"deli","__ringVerts":5,"id":3119,"catalogFloorId":21},"geometry":{"type":"Polygon","coordinates":[[[19.062740796,47.471899999],[19.062756219,47.471950765],[19.062715986,47.471956657],[19.062700563,47.471905439],[19.062740796,47.471899999]]]}},{"type":"Feature","id":3408,"properties":{"buildingId":1,"floorId":21,"roomNumber":"2-703","roomName":"2-703 Oktató","scope":"budapest/lagymanyos/deli/2/LD-2-703-01-13","roomCode":"LD-2-703-01-13","roomType":"educational","__tile":"17/72476/45848","__layer":"rooms","__zoom":17,"__mvtId":3408,"__building":"deli","__ringVerts":5,"id":3408,"catalogFloorId":21},"geometry":{"type":"Polygon","coordinates":[[[19.062554706,47.471925269],[19.062562753,47.471952918],[19.062487651,47.47196289],[19.062479604,47.471935694],[19.062554706,47.471925269]]]}},{"type":"Feature","id":3697,"properties":{"buildingId":1,"floorId":21,"roomNumber":"2-715","roomName":"2-715 WC","scope":"budapest/lagymanyos/deli/2/LD-2-715-05-71","roomCode":"LD-2-715-05-71","roomType":"social","__tile":"17/72476/45848","__layer":"rooms","__zoom":17,"__mvtId":3697,"__building":"deli","__ringVerts":5,"id":3697,"catalogFloorId":21},"geometry":{"type":"Polygon","coordinates":[[[19.062614457,47.471997306],[19.062619151,47.472013624],[19.062609092,47.472014983],[19.062603728,47.471998666],[19.062614457,47.471997306]]]}},{"type":"Feature","id":3587,"properties":{"buildingId":1,"floorId":21,"roomNumber":"2-613","roomName":"2-613 Lépcsőház","scope":"budapest/lagymanyos/deli/2/LD-2-613-04-64","roomCode":"LD-2-613-04-64","roomType":"corridor","__tile":"17/72476/45848","__layer":"rooms","__zoom":17,"__mvtId":3587,"__building":"deli","__ringVerts":7,"id":3587,"catalogFloorId":21},"geometry":{"type":"Polygon","coordinates":[[[19.06268334,47.471966535],[19.062690046,47.471989652],[19.062633049,47.471997357],[19.062635061,47.47200325],[19.062618967,47.472005516],[19.06261025,47.471976507],[19.06268334,47.471966535]]]}},{"type":"Feature","id":2229,"properties":{"buildingId":1,"floorId":21,"roomNumber":"2-103","roomName":"2-103 Férfi WC előtér, WC","scope":"budapest/lagymanyos/deli/2/LD-2-103-05-71","roomCode":"LD-2-103-05-71","roomType":"social","__tile":"17/72476/45848","__layer":"rooms","__zoom":17,"__mvtId":2229,"__building":"deli","__ringVerts":8,"id":2229,"catalogFloorId":21},"geometry":{"type":"Polygon","coordinates":[[[19.062581668,47.472248078],[19.062586361,47.472264395],[19.062595749,47.472268475],[19.062590385,47.47227482],[19.062582338,47.472271194],[19.062512601,47.472280713],[19.062505895,47.472258503],[19.062581668,47.472248078]]]}},{"type":"Feature","id":2843,"properties":{"buildingId":1,"floorId":21,"roomNumber":"2-109","roomName":"2-109 Közlekedő","scope":"budapest/lagymanyos/deli/2/LD-2-109-04-63","roomCode":"LD-2-109-04-63","roomType":"corridor","__tile":"17/72476/45848","__layer":"rooms","__zoom":17,"__mvtId":2843,"__building":"deli","__ringVerts":53,"id":2843,"catalogFloorId":21},"geometry":{"type":"Polygon","coordinates":[[[19.063008879,47.472267263],[19.063014243,47.472284487],[19.063024302,47.472282674],[19.063027654,47.472293099],[19.063017596,47.472294912],[19.06302229,47.47231259],[19.063033019,47.472310777],[19.063036372,47.472321655],[19.063025643,47.472323015],[19.063028325,47.47233208],[19.063115497,47.472320295],[19.063123543,47.472347492],[19.063036372,47.472359276],[19.063039054,47.472368795],[19.063049783,47.472366982],[19.063053135,47.47237786],[19.063042406,47.47237922],[19.063047771,47.472396898],[19.0630585,47.472395085],[19.063061853,47.472405963],[19.063051124,47.472407323],[19.063056488,47.472425],[19.063067217,47.472423187],[19.063069899,47.472434066],[19.063059841,47.472435425],[19.063064535,47.472453103],[19.063075264,47.472451743],[19.063078616,47.472462168],[19.063067887,47.472463528],[19.063073252,47.472480299],[19.063041736,47.472484378],[19.063037042,47.472467607],[19.063026313,47.472468967],[19.063023631,47.472458542],[19.063033689,47.472457182],[19.06302296,47.472420468],[19.063012232,47.472421827],[19.063009549,47.472412762],[19.063019608,47.472411402],[19.063007538,47.472370608],[19.062914331,47.4723833],[19.062910978,47.472373328],[19.062904273,47.472374234],[19.062898238,47.472353384],[19.062904943,47.472352477],[19.062901591,47.472342052],[19.062995468,47.472329361],[19.062982727,47.472288567],[19.062972669,47.472289926],[19.062969987,47.472281314],[19.062980045,47.472279501],[19.062978033,47.472271796],[19.063008879,47.472267263]]]}},{"type":"Feature","id":3220,"properties":{"buildingId":1,"floorId":21,"roomNumber":"2-116","roomName":"2-116 Lépcsőház","scope":"budapest/lagymanyos/deli/2/LD-2-116-04-64","roomCode":"LD-2-116-04-64","roomType":"corridor","__tile":"17/72476/45848","__layer":"rooms","__zoom":17,"__mvtId":3220,"__building":"deli","__ringVerts":6,"id":3220,"catalogFloorId":21},"geometry":{"type":"Polygon","coordinates":[[[19.062971919,47.472398307],[19.062979295,47.47242369],[19.062963872,47.472425503],[19.062898158,47.472432755],[19.062890782,47.472409639],[19.062971919,47.472398307]]]}},{"type":"Feature","id":3314,"properties":{"buildingId":1,"floorId":21,"roomNumber":"2-420","roomName":"2-420 Oktató","scope":"budapest/lagymanyos/deli/2/LD-2-420-01-13","roomCode":"LD-2-420-01-13","roomType":"educational","__tile":"17/72476/45848","__layer":"rooms","__zoom":17,"__mvtId":3314,"__building":"deli","__ringVerts":5,"id":3314,"catalogFloorId":21},"geometry":{"type":"Polygon","coordinates":[[[19.062917571,47.472590113],[19.062926288,47.47261731],[19.062850516,47.472627735],[19.062842469,47.472600539],[19.062917571,47.472590113]]]}},{"type":"Feature","id":3685,"properties":{"buildingId":1,"floorId":21,"roomNumber":"2-421","roomName":"2-421 Oktató","scope":"budapest/lagymanyos/deli/2/LD-2-421-01-13","roomCode":"LD-2-421-01-13","roomType":"educational","__tile":"17/72476/45848","__layer":"rooms","__zoom":17,"__mvtId":3685,"__building":"deli","__ringVerts":5,"id":3685,"catalogFloorId":21},"geometry":{"type":"Polygon","coordinates":[[[19.062926167,47.472561999],[19.062934214,47.472589196],[19.062859112,47.472599621],[19.062851065,47.472572425],[19.062926167,47.472561999]]]}},{"type":"Feature","id":2411,"properties":{"buildingId":1,"floorId":21,"roomNumber":"2-107","roomName":"2-107 (PC2)","scope":"budapest/lagymanyos/deli/2/LD-2-107-01-14","roomCode":"LD-2-107-01-14","roomType":"educational","__tile":"17/72476/45848","__layer":"rooms","__zoom":17,"__mvtId":2411,"__building":"deli","__ringVerts":5,"id":2411,"catalogFloorId":21},"geometry":{"type":"Polygon","coordinates":[[[19.062784685,47.472272719],[19.062800108,47.472323938],[19.062635152,47.472346602],[19.062619729,47.472295382],[19.062784685,47.472272719]]]}},{"type":"Feature","id":2666,"properties":{"buildingId":1,"floorId":21,"roomNumber":"2-129","roomName":"2-129 Mosdó-zuhany","scope":"budapest/lagymanyos/deli/2/LD-2-129-05-71","roomCode":"LD-2-129-05-71","roomType":"social","__tile":"17/72476/45848","__layer":"rooms","__zoom":17,"__mvtId":2666,"__building":"deli","__ringVerts":5,"id":2666,"catalogFloorId":21},"geometry":{"type":"Polygon","coordinates":[[[19.062553892,47.472405183],[19.062559927,47.472426034],[19.062533105,47.47242966],[19.062526399,47.47240881],[19.062553892,47.472405183]]]}},{"type":"Feature","id":2696,"properties":{"buildingId":1,"floorId":21,"roomNumber":"2-424","roomName":"2-424 Titkárság, közös iroda","scope":"budapest/lagymanyos/deli/2/LD-2-424-02-33","roomCode":"LD-2-424-02-33","roomType":"administrative","__tile":"17/72476/45848","__layer":"rooms","__zoom":17,"__mvtId":2696,"__building":"deli","__ringVerts":5,"id":2696,"catalogFloorId":21},"geometry":{"type":"Polygon","coordinates":[[[19.062951491,47.47247806],[19.062959538,47.472504803],[19.062884436,47.472515228],[19.062876389,47.472488485],[19.062951491,47.47247806]]]}},{"type":"Feature","id":3869,"properties":{"buildingId":1,"floorId":21,"roomNumber":"2-710","roomName":"2-710 ( PC10)","scope":"budapest/lagymanyos/deli/2/LD-2-710-01-14","roomCode":"LD-2-710-01-14","roomType":"educational","__tile":"17/72476/45848","__layer":"rooms","__zoom":17,"__mvtId":3869,"__building":"deli","__ringVerts":5,"id":3869,"catalogFloorId":21},"geometry":{"type":"Polygon","coordinates":[[[19.062455929,47.472186757],[19.062489456,47.472297354],[19.062413684,47.472307779],[19.062380827,47.472197182],[19.062455929,47.472186757]]]}},{"type":"Feature","id":2364,"properties":{"buildingId":1,"floorId":21,"roomNumber":"2-128","roomName":"2-128 Női WC csoport","scope":"budapest/lagymanyos/deli/2/LD-2-128-05-71","roomCode":"LD-2-128-05-71","roomType":"social","__tile":"17/72476/45848","__layer":"rooms","__zoom":17,"__mvtId":2364,"__building":"deli","__ringVerts":7,"id":2364,"catalogFloorId":21},"geometry":{"type":"Polygon","coordinates":[[[19.062521894,47.472392213],[19.062528599,47.472413063],[19.062511165,47.472415783],[19.062513176,47.472420769],[19.062486354,47.472424395],[19.062478308,47.472398105],[19.062521894,47.472392213]]]}},{"type":"Feature","id":3066,"properties":{"buildingId":1,"floorId":21,"roomNumber":"2-127","roomName":"2-127 Női WC előtér","scope":"budapest/lagymanyos/deli/2/LD-2-127-04-63","roomCode":"LD-2-127-04-63","roomType":"corridor","__tile":"17/72476/45848","__layer":"rooms","__zoom":17,"__mvtId":3066,"__building":"deli","__ringVerts":8,"id":3066,"catalogFloorId":21},"geometry":{"type":"Polygon","coordinates":[[[19.06254716,47.472371465],[19.062556548,47.472375091],[19.062549843,47.47238189],[19.062554537,47.472397755],[19.062479435,47.47240818],[19.062472729,47.472386423],[19.062541796,47.472376451],[19.06254716,47.472371465]]]}},{"type":"Feature","id":2272,"properties":{"buildingId":1,"floorId":21,"roomNumber":"2-707","roomName":"2-707 Oktató","scope":"budapest/lagymanyos/deli/2/LD-2-707-01-13","roomCode":"LD-2-707-01-13","roomType":"educational","__tile":"17/72476/45848","__layer":"rooms","__zoom":17,"__mvtId":2272,"__building":"deli","__ringVerts":5,"id":2272,"catalogFloorId":21},"geometry":{"type":"Polygon","coordinates":[[[19.062521123,47.472037829],[19.06252917,47.472065025],[19.062453398,47.47207545],[19.062445351,47.472048254],[19.062521123,47.472037829]]]}},{"type":"Feature","id":2255,"properties":{"buildingId":1,"floorId":21,"roomNumber":"2-126","roomName":"2-126 Lépcsőház","scope":"budapest/lagymanyos/deli/2/LD-2-126-04-64","roomCode":"LD-2-126-04-64","roomType":"corridor","__tile":"17/72476/45848","__layer":"rooms","__zoom":17,"__mvtId":2255,"__building":"deli","__ringVerts":5,"id":2255,"catalogFloorId":21},"geometry":{"type":"Polygon","coordinates":[[[19.062568898,47.472344569],[19.062575604,47.472368139],[19.062495808,47.472380831],[19.062488432,47.472355901],[19.062568898,47.472344569]]]}},{"type":"Feature","id":2603,"properties":{"buildingId":1,"floorId":21,"roomNumber":"2-713","roomName":"2-713 Előtér","scope":"budapest/lagymanyos/deli/2/LD-2-713-04-63","roomCode":"LD-2-713-04-63","roomType":"corridor","__tile":"17/72476/45848","__layer":"rooms","__zoom":17,"__mvtId":2603,"__building":"deli","__ringVerts":5,"id":2603,"catalogFloorId":21},"geometry":{"type":"Polygon","coordinates":[[[19.062632609,47.472012741],[19.062635962,47.472023619],[19.062587682,47.472030418],[19.062584329,47.47201954],[19.062632609,47.472012741]]]}},{"type":"Feature","id":2573,"properties":{"buildingId":1,"floorId":21,"roomNumber":"2-706","roomName":"2-706 Oktató","scope":"budapest/lagymanyos/deli/2/LD-2-706-01-13","roomCode":"LD-2-706-01-13","roomType":"educational","__tile":"17/72476/45848","__layer":"rooms","__zoom":17,"__mvtId":2573,"__building":"deli","__ringVerts":5,"id":2573,"catalogFloorId":21},"geometry":{"type":"Polygon","coordinates":[[[19.062529191,47.472009711],[19.062537908,47.472036907],[19.062462136,47.472047332],[19.062454089,47.472020136],[19.062529191,47.472009711]]]}},{"type":"Feature","id":2738,"properties":{"buildingId":1,"floorId":21,"roomNumber":"2-615","roomName":"2-615 Robotika labor","scope":"budapest/lagymanyos/deli/2/LD-2-615-01-14","roomCode":"LD-2-615-01-14","roomType":"educational","__tile":"17/72476/45848","__layer":"rooms","__zoom":17,"__mvtId":2738,"__building":"deli","__ringVerts":5,"id":2738,"catalogFloorId":21},"geometry":{"type":"Polygon","coordinates":[[[19.062755944,47.4719934],[19.062771367,47.472044619],[19.062731134,47.472050058],[19.062715711,47.471999293],[19.062755944,47.4719934]]]}},{"type":"Feature","id":3168,"properties":{"buildingId":1,"floorId":21,"roomNumber":"2-705","roomName":"2-705 Oktató","scope":"budapest/lagymanyos/deli/2/LD-2-705-01-13","roomCode":"LD-2-705-01-13","roomType":"educational","__tile":"17/72476/45848","__layer":"rooms","__zoom":17,"__mvtId":3168,"__building":"deli","__ringVerts":5,"id":3168,"catalogFloorId":21},"geometry":{"type":"Polygon","coordinates":[[[19.062537914,47.471981595],[19.062545961,47.47200879],[19.062470859,47.472019216],[19.062462142,47.47199202],[19.062537914,47.471981595]]]}},{"type":"Feature","id":3459,"properties":{"buildingId":1,"floorId":21,"roomNumber":"2-616","roomName":"2-616 Oktató","scope":"budapest/lagymanyos/deli/2/LD-2-616-01-13","roomCode":"LD-2-616-01-13","roomType":"educational","__tile":"17/72476/45848","__layer":"rooms","__zoom":17,"__mvtId":3459,"__building":"deli","__ringVerts":5,"id":3459,"catalogFloorId":21},"geometry":{"type":"Polygon","coordinates":[[[19.062834963,47.47199971],[19.062850386,47.472050929],[19.062768578,47.47206226],[19.062753155,47.472011041],[19.062834963,47.47199971]]]}},{"type":"Feature","id":3582,"properties":{"buildingId":1,"floorId":21,"roomNumber":"2-708","roomName":"2-708 Oktató","scope":"budapest/lagymanyos/deli/2/LD-2-708-01-13","roomCode":"LD-2-708-01-13","roomType":"educational","__tile":"17/72476/45848","__layer":"rooms","__zoom":17,"__mvtId":3582,"__building":"deli","__ringVerts":5,"id":3582,"catalogFloorId":21},"geometry":{"type":"Polygon","coordinates":[[[19.0625124,47.472065945],[19.062520447,47.472093141],[19.062445345,47.472103566],[19.062437298,47.47207637],[19.0625124,47.472065945]]]}},{"type":"Feature","id":3865,"properties":{"buildingId":1,"floorId":21,"roomNumber":"2-709","roomName":"2-709 (PC9)","scope":"budapest/lagymanyos/deli/2/LD-2-709-01-14","roomCode":"LD-2-709-01-14","roomType":"educational","__tile":"17/72476/45848","__layer":"rooms","__zoom":17,"__mvtId":3865,"__building":"deli","__ringVerts":5,"id":3865,"catalogFloorId":21},"geometry":{"type":"Polygon","coordinates":[[[19.062488638,47.472099693],[19.062514119,47.472183094],[19.062438347,47.472193519],[19.062413537,47.472110118],[19.062488638,47.472099693]]]}},{"type":"Feature","id":3746,"properties":{"buildingId":1,"floorId":21,"roomNumber":"2-701","roomName":"2-701 Közlekedő","scope":"budapest/lagymanyos/deli/2/LD-2-701-04-63","roomCode":"LD-2-701-04-63","roomType":"corridor","__tile":"17/72476/45848","__layer":"rooms","__zoom":17,"__mvtId":3746,"__building":"deli","__ringVerts":114,"id":3746,"catalogFloorId":21},"geometry":{"type":"Polygon","coordinates":[[[19.062560063,47.471872309],[19.062563415,47.471882734],[19.062552686,47.471884094],[19.062558051,47.471901771],[19.06256878,47.471900412],[19.062572132,47.471910837],[19.062561404,47.471912196],[19.062566768,47.471929874],[19.062577497,47.471928514],[19.062580179,47.471938939],[19.062570121,47.471940299],[19.062590237,47.472008742],[19.062682103,47.471998317],[19.062692161,47.471994691],[19.06269015,47.471987892],[19.062705572,47.471985625],[19.062707584,47.471992878],[19.062733736,47.471989251],[19.062731724,47.471981999],[19.062747147,47.471980186],[19.062749158,47.471986985],[19.06277531,47.471983359],[19.062773298,47.47197656],[19.062788721,47.471974294],[19.062790733,47.471981546],[19.062816884,47.47197792],[19.062814872,47.471970668],[19.062830295,47.471968401],[19.062832307,47.471975654],[19.062858458,47.471972027],[19.062856447,47.471964775],[19.062871869,47.471962962],[19.062873881,47.471969761],[19.062900033,47.471966588],[19.062898021,47.471959336],[19.062913444,47.47195707],[19.062915455,47.471964322],[19.062941607,47.471960696],[19.062939595,47.471953444],[19.062955018,47.471951631],[19.062957029,47.471958429],[19.06298184,47.471955257],[19.062987875,47.471976107],[19.062963064,47.47197928],[19.062965747,47.471986532],[19.062949653,47.471988798],[19.062947642,47.471981546],[19.06292149,47.471985172],[19.062924172,47.471992424],[19.062908079,47.471994237],[19.062906068,47.471987438],[19.062879916,47.471991065],[19.062882598,47.471997864],[19.062866505,47.47200013],[19.062864493,47.471992878],[19.062838342,47.471996504],[19.062841024,47.472003756],[19.062824931,47.472006022],[19.062822919,47.47199877],[19.062796767,47.472002396],[19.06279945,47.472009648],[19.062783356,47.472011461],[19.062781345,47.472004662],[19.062755193,47.472007835],[19.062757875,47.472015088],[19.062741782,47.472017354],[19.062739771,47.472010102],[19.062713619,47.472013728],[19.062715631,47.47202098],[19.062700208,47.472022793],[19.062698196,47.472015994],[19.062672045,47.47201962],[19.062674056,47.472026419],[19.062658634,47.472028685],[19.062656622,47.472021433],[19.062630471,47.472025059],[19.062632482,47.472032312],[19.062617059,47.472034578],[19.062615048,47.472027326],[19.062588896,47.472030952],[19.062591579,47.472039111],[19.062603648,47.472037298],[19.062619071,47.472088063],[19.062572803,47.472094409],[19.062562745,47.47206132],[19.062573474,47.472059961],[19.062572803,47.472056788],[19.062562074,47.472058601],[19.062558721,47.472048176],[19.06256945,47.472046363],[19.062564086,47.472028685],[19.062554028,47.472030499],[19.062550675,47.472020073],[19.062561404,47.47201826],[19.062556039,47.472000583],[19.06254531,47.472002396],[19.062541958,47.471991971],[19.062552686,47.471990158],[19.062547322,47.471972481],[19.062536593,47.471974294],[19.062533911,47.471963869],[19.062543969,47.471962056],[19.062538605,47.471944378],[19.062528547,47.471946191],[19.062525194,47.471935313],[19.062535923,47.471933953],[19.062530558,47.471916276],[19.062519829,47.471918089],[19.062516477,47.471907211],[19.062527205,47.471905851],[19.062521841,47.471888173],[19.062511112,47.471889986],[19.06250843,47.471879108],[19.062560063,47.471872309]]]}},{"type":"Feature","id":3163,"properties":{"buildingId":1,"floorId":21,"roomNumber":"2-101","roomName":"2-101 Közlekedő","scope":"budapest/lagymanyos/deli/2/LD-2-101-04-63","roomCode":"LD-2-101-04-63","roomType":"corridor","__tile":"17/72476/45848","__layer":"rooms","__zoom":17,"__mvtId":3163,"__building":"deli","__ringVerts":89,"id":3163,"catalogFloorId":21},"geometry":{"type":"Polygon","coordinates":[[[19.062465848,47.47210236],[19.062469872,47.472117771],[19.0624806,47.472115958],[19.062483953,47.472126837],[19.062473224,47.472128197],[19.062483953,47.472164911],[19.062494682,47.472163551],[19.062497364,47.472172164],[19.062487306,47.472173523],[19.062499376,47.472214771],[19.062592583,47.472201626],[19.062595935,47.472211598],[19.062602641,47.472210691],[19.062608676,47.472231995],[19.06260197,47.472232901],[19.062605323,47.472242873],[19.062511446,47.472256018],[19.062524186,47.472296812],[19.062534245,47.472295452],[19.062536927,47.472304064],[19.062526868,47.472305424],[19.062537597,47.472342592],[19.062548326,47.472341232],[19.062551679,47.472351657],[19.06254095,47.472353017],[19.062546314,47.472370695],[19.062556373,47.472368881],[19.062559726,47.47237976],[19.062548997,47.47238112],[19.062554361,47.472398797],[19.06256509,47.472397437],[19.062568443,47.472407862],[19.062557714,47.472409222],[19.062563078,47.4724269],[19.062573807,47.47242554],[19.062576489,47.472435965],[19.062566431,47.472437325],[19.062571125,47.472454095],[19.06254028,47.472458175],[19.062534915,47.472441404],[19.062524857,47.472443217],[19.062521504,47.472432339],[19.062532233,47.472430979],[19.062526868,47.472413302],[19.06251614,47.472415115],[19.062512787,47.472404236],[19.062523516,47.472402876],[19.062518151,47.472385199],[19.062508093,47.472387012],[19.06250474,47.472376134],[19.062514799,47.472374774],[19.062509434,47.472357097],[19.062499376,47.472358456],[19.062496023,47.472348031],[19.062506752,47.472346671],[19.062501387,47.472328994],[19.062490659,47.472330354],[19.062487976,47.472319929],[19.062498035,47.472318569],[19.06249267,47.472300891],[19.062482612,47.472302251],[19.062479259,47.472291826],[19.062489988,47.472290466],[19.062484624,47.472272789],[19.062473895,47.472274149],[19.062470542,47.472263724],[19.062481271,47.472262364],[19.062478589,47.472253752],[19.06246786,47.472255112],[19.062459813,47.472227009],[19.062470542,47.472225649],[19.062467189,47.472216584],[19.062457131,47.472217944],[19.062453778,47.472207518],[19.062464507,47.472206159],[19.062459143,47.472188481],[19.062448414,47.472189841],[19.062445732,47.472179416],[19.06245579,47.472178056],[19.062450425,47.472160379],[19.062440367,47.472161738],[19.062437014,47.472151313],[19.062447743,47.472149953],[19.062442379,47.472132276],[19.06243165,47.472133636],[19.062428297,47.472123211],[19.062439026,47.472121851],[19.062434332,47.472106893],[19.062465848,47.47210236]]]}},{"type":"Feature","id":2707,"properties":{"buildingId":1,"floorId":21,"roomNumber":"2-604","roomName":"2-604 Oktató","scope":"budapest/lagymanyos/deli/2/LD-2-604-01-13","roomCode":"LD-2-604-01-13","roomType":"educational","__tile":"17/72476/45848","__layer":"rooms","__zoom":17,"__mvtId":2707,"__building":"deli","__ringVerts":5,"id":2707,"catalogFloorId":21},"geometry":{"type":"Polygon","coordinates":[[[19.062990755,47.471934229],[19.063005507,47.471985448],[19.062965274,47.471990887],[19.062949851,47.471939668],[19.062990755,47.471934229]]]}},{"type":"Feature","id":2847,"properties":{"buildingId":1,"floorId":21,"roomNumber":"2-510","roomName":"2-510 Titkárság IRT és  Algoritmusok és Alkalmazásaik Tanszékkel közös ","scope":"budapest/lagymanyos/deli/2/LD-2-510-02-33","roomCode":"LD-2-510-02-33","roomType":"administrative","__tile":"17/72476/45848","__layer":"rooms","__zoom":17,"__mvtId":2847,"__building":"deli","__ringVerts":5,"id":2847,"catalogFloorId":21},"geometry":{"type":"Polygon","coordinates":[[[19.063217189,47.472045704],[19.063225236,47.4720729],[19.063149464,47.472083325],[19.063141417,47.472056129],[19.063217189,47.472045704]]]}},{"type":"Feature","id":2969,"properties":{"buildingId":1,"floorId":21,"roomNumber":"2-518","roomName":"2-518 Oktató","scope":"budapest/lagymanyos/deli/2/LD-2-518-01-13","roomCode":"LD-2-518-01-13","roomType":"educational","__tile":"17/72476/45848","__layer":"rooms","__zoom":17,"__mvtId":2969,"__building":"deli","__ringVerts":5,"id":2969,"catalogFloorId":21},"geometry":{"type":"Polygon","coordinates":[[[19.063061561,47.472112173],[19.063069608,47.472139369],[19.062994506,47.472149794],[19.062986459,47.472122598],[19.063061561,47.472112173]]]}},{"type":"Feature","id":3166,"properties":{"buildingId":1,"floorId":21,"roomNumber":"2-519","roomName":"2-519 (zárt terem, nem osztható)","scope":"budapest/lagymanyos/deli/2/LD-2-519-01-13","roomCode":"LD-2-519-01-13","roomType":"educational","__tile":"17/72476/45848","__layer":"rooms","__zoom":17,"__mvtId":3166,"__building":"deli","__ringVerts":5,"id":3166,"catalogFloorId":21},"geometry":{"type":"Polygon","coordinates":[[[19.063045649,47.472143104],[19.063062413,47.472198402],[19.062986641,47.472208827],[19.062969877,47.472153529],[19.063045649,47.472143104]]]}},{"type":"Feature","id":3431,"properties":{"buildingId":1,"floorId":21,"roomNumber":"2-605","roomName":"2-605 Tanszékvezető","scope":"budapest/lagymanyos/deli/2/LD-2-605-01-13","roomCode":"LD-2-605-01-13","roomType":"educational","__tile":"17/72476/45848","__layer":"rooms","__zoom":17,"__mvtId":3431,"__building":"deli","__ringVerts":5,"id":3431,"catalogFloorId":21},"geometry":{"type":"Polygon","coordinates":[[[19.062948759,47.471928599],[19.062964182,47.471979365],[19.062923949,47.471985257],[19.062908526,47.471934039],[19.062948759,47.471928599]]]}},{"type":"Feature","id":3870,"properties":{"buildingId":1,"floorId":21,"roomNumber":"2-124","roomName":"2-124 (Microsoft Labor)","scope":"budapest/lagymanyos/deli/2/LD-2-124-01-14","roomCode":"LD-2-124-01-14","roomType":"educational","__tile":"17/72476/45848","__layer":"rooms","__zoom":17,"__mvtId":3870,"__building":"deli","__ringVerts":5,"id":3870,"catalogFloorId":21},"geometry":{"type":"Polygon","coordinates":[[[19.062758215,47.472360664],[19.062773638,47.472411883],[19.062608682,47.472434547],[19.062593259,47.472383327],[19.062758215,47.472360664]]]}},{"type":"Feature","id":3718,"properties":{"buildingId":1,"floorId":21,"roomNumber":"2-608","roomName":"2-608 Oktató","scope":"budapest/lagymanyos/deli/2/LD-2-608-01-13","roomCode":"LD-2-608-01-13","roomType":"educational","__tile":"17/72476/45848","__layer":"rooms","__zoom":17,"__mvtId":3718,"__building":"deli","__ringVerts":5,"id":3718,"catalogFloorId":21},"geometry":{"type":"Polygon","coordinates":[[[19.062823981,47.47191153],[19.062839404,47.471962296],[19.062799171,47.471967735],[19.062783748,47.471916969],[19.062823981,47.47191153]]]}},{"type":"Feature","id":2555,"properties":{"buildingId":1,"floorId":21,"roomNumber":"2-405","roomName":"2-405 Oktató","scope":"budapest/lagymanyos/deli/2/LD-2-405-01-13","roomCode":"LD-2-405-01-13","roomType":"educational","__tile":"17/72476/45848","__layer":"rooms","__zoom":17,"__mvtId":2555,"__building":"deli","__ringVerts":5,"id":2555,"catalogFloorId":21},"geometry":{"type":"Polygon","coordinates":[[[19.06307307,47.472523555],[19.063081117,47.472551204],[19.063006015,47.472561176],[19.062997968,47.47253398],[19.06307307,47.472523555]]]}},{"type":"Feature","id":2683,"properties":{"buildingId":1,"floorId":21,"roomNumber":"2-702","roomName":"2-702 Tárgyaló, szeminárium, szgép","scope":"budapest/lagymanyos/deli/2/LD-2-702-02-33","roomCode":"LD-2-702-02-33","roomType":"administrative","__tile":"17/72476/45848","__layer":"rooms","__zoom":17,"__mvtId":2683,"__building":"deli","__ringVerts":5,"id":2683,"catalogFloorId":21},"geometry":{"type":"Polygon","coordinates":[[[19.06256425,47.471872162],[19.062580343,47.47192746],[19.062505241,47.471937885],[19.062488477,47.471882587],[19.06256425,47.471872162]]]}},{"type":"Feature","id":2897,"properties":{"buildingId":1,"floorId":21,"roomNumber":"2-704","roomName":"2-704 Oktató","scope":"budapest/lagymanyos/deli/2/LD-2-704-01-13","roomCode":"LD-2-704-01-13","roomType":"educational","__tile":"17/72476/45848","__layer":"rooms","__zoom":17,"__mvtId":2897,"__building":"deli","__ringVerts":5,"id":2897,"catalogFloorId":21},"geometry":{"type":"Polygon","coordinates":[[[19.062546519,47.471953386],[19.062554566,47.471981035],[19.062478794,47.471991007],[19.062470747,47.471963811],[19.062546519,47.471953386]]]}},{"type":"Feature","id":3856,"properties":{"buildingId":1,"floorId":21,"roomNumber":"2-202","roomName":"2-202 (PC3)","scope":"budapest/lagymanyos/deli/2/LD-2-202-01-14","roomCode":"LD-2-202-01-14","roomType":"educational","__tile":"17/72476/45848","__layer":"rooms","__zoom":17,"__mvtId":3856,"__building":"deli","__ringVerts":5,"id":3856,"catalogFloorId":21},"geometry":{"type":"Polygon","coordinates":[[[19.062413622,47.472328207],[19.062446479,47.472438804],[19.062371377,47.47244923],[19.06233785,47.472338632],[19.062413622,47.472328207]]]}},{"type":"Feature","id":2259,"properties":{"buildingId":1,"floorId":21,"roomNumber":"2-102","roomName":"2-102 Közlekedő","scope":"budapest/lagymanyos/deli/2/LD-2-102-04-63","roomCode":"LD-2-102-04-63","roomType":"corridor","__tile":"17/72476/45848","__layer":"rooms","__zoom":17,"__mvtId":2259,"__building":"deli","__ringVerts":7,"id":2259,"catalogFloorId":21},"geometry":{"type":"Polygon","coordinates":[[[19.062451028,47.472291263],[19.062459074,47.472319366],[19.062436946,47.472322539],[19.062387325,47.472314833],[19.062361174,47.472318459],[19.06235648,47.472304408],[19.062451028,47.472291263]]]}},{"type":"Feature","id":3259,"properties":{"buildingId":1,"floorId":21,"roomNumber":"2-213","roomName":"2-213 Előtér","scope":"budapest/lagymanyos/deli/2/LD-2-213-04-63","roomCode":"LD-2-213-04-63","roomType":"corridor","__tile":"17/72476/45848","__layer":"rooms","__zoom":17,"__mvtId":3259,"__building":"deli","__ringVerts":5,"id":3259,"catalogFloorId":21},"geometry":{"type":"Polygon","coordinates":[[[19.062451599,47.472614033],[19.062454952,47.472625365],[19.062406672,47.472631711],[19.062403319,47.472620832],[19.062451599,47.472614033]]]}},{"type":"Feature","id":3270,"properties":{"buildingId":1,"floorId":21,"roomNumber":"2-208","roomName":"2-208 Oktató","scope":"budapest/lagymanyos/deli/2/LD-2-208-01-13","roomCode":"LD-2-208-01-13","roomType":"educational","__tile":"17/72476/45848","__layer":"rooms","__zoom":17,"__mvtId":3270,"__building":"deli","__ringVerts":5,"id":3270,"catalogFloorId":21},"geometry":{"type":"Polygon","coordinates":[[[19.062360205,47.472571982],[19.062368252,47.472599179],[19.06229315,47.472609604],[19.062284433,47.472582408],[19.062360205,47.472571982]]]}},{"type":"Feature","id":3129,"properties":{"buildingId":1,"floorId":21,"roomNumber":"2-205","roomName":"2-205 Oktató","scope":"budapest/lagymanyos/deli/2/LD-2-205-01-13","roomCode":"LD-2-205-01-13","roomType":"educational","__tile":"17/72476/45848","__layer":"rooms","__zoom":17,"__mvtId":3129,"__building":"deli","__ringVerts":5,"id":3129,"catalogFloorId":21},"geometry":{"type":"Polygon","coordinates":[[[19.062385591,47.47248764],[19.062393638,47.472514837],[19.062318536,47.472525262],[19.062309819,47.472498066],[19.062385591,47.47248764]]]}},{"type":"Feature","id":3206,"properties":{"buildingId":1,"floorId":21,"roomNumber":"2-207","roomName":"2-207 Oktató","scope":"budapest/lagymanyos/deli/2/LD-2-207-01-13","roomCode":"LD-2-207-01-13","roomType":"educational","__tile":"17/72476/45848","__layer":"rooms","__zoom":17,"__mvtId":3206,"__building":"deli","__ringVerts":5,"id":3206,"catalogFloorId":21},"geometry":{"type":"Polygon","coordinates":[[[19.062368406,47.47254387],[19.062377123,47.472571067],[19.062301351,47.472581492],[19.062293304,47.472554296],[19.062368406,47.47254387]]]}},{"type":"Feature","id":3158,"properties":{"buildingId":1,"floorId":21,"roomNumber":"2-209","roomName":"2-209 Oktató","scope":"budapest/lagymanyos/deli/2/LD-2-209-01-13","roomCode":"LD-2-209-01-13","roomType":"educational","__tile":"17/72476/45848","__layer":"rooms","__zoom":17,"__mvtId":3158,"__building":"deli","__ringVerts":5,"id":3158,"catalogFloorId":21},"geometry":{"type":"Polygon","coordinates":[[[19.062351609,47.472600096],[19.062359656,47.472627293],[19.062284554,47.472637718],[19.062276507,47.472610522],[19.062351609,47.472600096]]]}},{"type":"Feature","id":2562,"properties":{"buildingId":1,"floorId":21,"roomNumber":"2-619","roomName":"2-619 A Programozáselmélet és Szoftvertechnológiai Tanszék és PNYF-el közös Tanszéki Titkárság","scope":"budapest/lagymanyos/deli/2/LD-2-619-02-33","roomCode":"LD-2-619-02-33","roomType":"administrative","__tile":"17/72476/45848","__layer":"rooms","__zoom":17,"__mvtId":2562,"__building":"deli","__ringVerts":5,"id":2562,"catalogFloorId":21},"geometry":{"type":"Polygon","coordinates":[[[19.062963907,47.472021997],[19.06297933,47.472073216],[19.062939097,47.472078655],[19.062923674,47.47202789],[19.062963907,47.472021997]]]}},{"type":"Feature","id":3699,"properties":{"buildingId":1,"floorId":21,"roomNumber":"2-617","roomName":"2-617 Oktató","scope":"budapest/lagymanyos/deli/2/LD-2-617-01-13","roomCode":"LD-2-617-01-13","roomType":"educational","__tile":"17/72476/45848","__layer":"rooms","__zoom":17,"__mvtId":3699,"__building":"deli","__ringVerts":5,"id":3699,"catalogFloorId":21},"geometry":{"type":"Polygon","coordinates":[[[19.062880722,47.472010828],[19.062896145,47.472061594],[19.062855912,47.472067033],[19.062840489,47.472016267],[19.062880722,47.472010828]]]}},{"type":"Feature","id":3430,"properties":{"buildingId":1,"floorId":21,"roomNumber":"2-123","roomName":"2-123 tabulás és tanuláselméleti labor","scope":"budapest/lagymanyos/deli/2/LD-2-123-01-14","roomCode":"LD-2-123-01-14","roomType":"educational","__tile":"17/72476/45848","__layer":"rooms","__zoom":17,"__mvtId":3430,"__building":"deli","__ringVerts":5,"id":3430,"catalogFloorId":21},"geometry":{"type":"Polygon","coordinates":[[[19.062882194,47.472384251],[19.062896946,47.472433204],[19.062779599,47.472449068],[19.062764177,47.472398302],[19.062882194,47.472384251]]]}},{"type":"Feature","id":3708,"properties":{"buildingId":1,"floorId":21,"roomNumber":"2-125","roomName":"2-125 Operátor szoba, hallgatói rendszergazdák","scope":"budapest/lagymanyos/deli/2/LD-2-125-01-12","roomCode":"LD-2-125-01-12","roomType":"educational","__tile":"17/72476/45848","__layer":"rooms","__zoom":17,"__mvtId":3708,"__building":"deli","__ringVerts":6,"id":3708,"catalogFloorId":21},"geometry":{"type":"Polygon","coordinates":[[[19.062608539,47.472356528],[19.062623962,47.472407294],[19.062589093,47.47241228],[19.062570318,47.472367406],[19.062577024,47.472360607],[19.062608539,47.472356528]]]}},{"type":"Feature","id":2362,"properties":{"buildingId":1,"floorId":21,"roomNumber":"2-427","roomName":"2-427 Mosdó-zuhany","scope":"budapest/lagymanyos/deli/2/LD-2-427-05-71","roomCode":"LD-2-427-05-71","roomType":"social","__tile":"17/72476/45848","__layer":"rooms","__zoom":17,"__mvtId":2362,"__building":"deli","__ringVerts":6,"id":2362,"catalogFloorId":21},"geometry":{"type":"Polygon","coordinates":[[[19.062918072,47.472448454],[19.062925448,47.472474743],[19.062905331,47.472477463],[19.062897285,47.472473837],[19.062890579,47.47245208],[19.062918072,47.472448454]]]}},{"type":"Feature","id":2778,"properties":{"buildingId":1,"floorId":21,"roomNumber":"2-423","roomName":"2-423 Oktató","scope":"budapest/lagymanyos/deli/2/LD-2-423-01-13","roomCode":"LD-2-423-01-13","roomType":"educational","__tile":"17/72476/45848","__layer":"rooms","__zoom":17,"__mvtId":2778,"__building":"deli","__ringVerts":5,"id":2778,"catalogFloorId":21},"geometry":{"type":"Polygon","coordinates":[[[19.062942964,47.472505773],[19.062951681,47.47253297],[19.062875909,47.472543395],[19.062867862,47.472516199],[19.062942964,47.472505773]]]}},{"type":"Feature","id":3469,"properties":{"buildingId":1,"floorId":21,"roomNumber":"2-422","roomName":"2-422 Oktató","scope":"budapest/lagymanyos/deli/2/LD-2-422-01-13","roomCode":"LD-2-422-01-13","roomType":"educational","__tile":"17/72476/45848","__layer":"rooms","__zoom":17,"__mvtId":3469,"__building":"deli","__ringVerts":5,"id":3469,"catalogFloorId":21},"geometry":{"type":"Polygon","coordinates":[[[19.062934763,47.472533885],[19.06294281,47.472561082],[19.062867708,47.472571507],[19.062858991,47.472544311],[19.062934763,47.472533885]]]}},{"type":"Feature","id":2708,"properties":{"buildingId":1,"floorId":21,"roomNumber":"2-215","roomName":"2-215 WC","scope":"budapest/lagymanyos/deli/2/LD-2-215-05-71","roomCode":"LD-2-215-05-71","roomType":"social","__tile":"17/72476/45848","__layer":"rooms","__zoom":17,"__mvtId":2708,"__building":"deli","__ringVerts":5,"id":2708,"catalogFloorId":21},"geometry":{"type":"Polygon","coordinates":[[[19.06241273,47.472626063],[19.062418094,47.472642381],[19.062407365,47.472643741],[19.062402671,47.472627423],[19.06241273,47.472626063]]]}},{"type":"Feature","id":3191,"properties":{"buildingId":1,"floorId":21,"roomNumber":"2-425","roomName":"2-425 Női WC előtér","scope":"budapest/lagymanyos/deli/2/LD-2-425-05-71","roomCode":"LD-2-425-05-71","roomType":"social","__tile":"17/72476/45848","__layer":"rooms","__zoom":17,"__mvtId":3191,"__building":"deli","__ringVerts":8,"id":3191,"catalogFloorId":21},"geometry":{"type":"Polygon","coordinates":[[[19.062986577,47.472427639],[19.062993283,47.472449396],[19.062916169,47.472459821],[19.062911476,47.472443957],[19.062902088,47.472439424],[19.062907452,47.472433532],[19.062916169,47.472437158],[19.062986577,47.472427639]]]}},{"type":"Feature","id":3643,"properties":{"buildingId":1,"floorId":21,"roomNumber":"2-419","roomName":"2-419 Iroda","scope":"budapest/lagymanyos/deli/2/LD-2-419-02-33","roomCode":"LD-2-419-02-33","roomType":"administrative","__tile":"17/72476/45848","__layer":"rooms","__zoom":17,"__mvtId":3643,"__building":"deli","__ringVerts":5,"id":3643,"catalogFloorId":21},"geometry":{"type":"Polygon","coordinates":[[[19.062909377,47.472618229],[19.062917424,47.472645426],[19.062842322,47.472655851],[19.062833605,47.472628655],[19.062909377,47.472618229]]]}},{"type":"Feature","id":3204,"properties":{"buildingId":1,"floorId":21,"roomNumber":"2-216","roomName":"2-216 WC","scope":"budapest/lagymanyos/deli/2/LD-2-216-05-71","roomCode":"LD-2-216-05-71","roomType":"social","__tile":"17/72476/45848","__layer":"rooms","__zoom":17,"__mvtId":3204,"__building":"deli","__ringVerts":5,"id":3204,"catalogFloorId":21},"geometry":{"type":"Polygon","coordinates":[[[19.062424721,47.472627772],[19.062429415,47.472643636],[19.062419356,47.472645449],[19.062413992,47.472629131],[19.062424721,47.472627772]]]}},{"type":"Feature","id":3873,"properties":{"buildingId":1,"floorId":21,"roomNumber":"2-218","roomName":"2-218 Számítógép Szoba","scope":"budapest/lagymanyos/deli/2/LD-2-218-01-14","roomCode":"LD-2-218-01-14","roomType":"educational","__tile":"17/72476/45848","__layer":"rooms","__zoom":17,"__mvtId":3873,"__building":"deli","__ringVerts":5,"id":3873,"catalogFloorId":21},"geometry":{"type":"Polygon","coordinates":[[[19.062500139,47.472511058],[19.06252562,47.472594912],[19.062449848,47.472604884],[19.062425038,47.472521483],[19.062500139,47.472511058]]]}},{"type":"Feature","id":2441,"properties":{"buildingId":1,"floorId":21,"roomNumber":"2-609","roomName":"2-609 Oktató","scope":"budapest/lagymanyos/deli/2/LD-2-609-01-13","roomCode":"LD-2-609-01-13","roomType":"educational","__tile":"17/72476/45848","__layer":"rooms","__zoom":17,"__mvtId":2441,"__building":"deli","__ringVerts":5,"id":2441,"catalogFloorId":21},"geometry":{"type":"Polygon","coordinates":[[[19.062782389,47.471905538],[19.062797812,47.471956757],[19.062757579,47.471962196],[19.062742156,47.471911431],[19.062782389,47.471905538]]]}},{"type":"Feature","id":3580,"properties":{"buildingId":1,"floorId":21,"roomNumber":"2-503","roomName":"2-503 Oktató","scope":"budapest/lagymanyos/deli/2/LD-2-503-01-13","roomCode":"LD-2-503-01-13","roomType":"educational","__tile":"17/72476/45848","__layer":"rooms","__zoom":17,"__mvtId":3580,"__building":"deli","__ringVerts":5,"id":3580,"catalogFloorId":21},"geometry":{"type":"Polygon","coordinates":[[[19.063157546,47.472242505],[19.063166263,47.472269701],[19.063090491,47.472280126],[19.063082444,47.47225293],[19.063157546,47.472242505]]]}},{"type":"Feature","id":3850,"properties":{"buildingId":1,"floorId":21,"roomNumber":"2-502","roomName":"2-502","scope":"budapest/lagymanyos/deli/2/LD-2-502-01-12","roomCode":"LD-2-502-01-12","roomType":"educational","__tile":"17/72476/45848","__layer":"rooms","__zoom":17,"__mvtId":3850,"__building":"deli","__ringVerts":5,"id":3850,"catalogFloorId":21},"geometry":{"type":"Polygon","coordinates":[[[19.063126477,47.472279064],[19.063160004,47.472390568],[19.063084903,47.472400993],[19.063050704,47.47228949],[19.063126477,47.472279064]]]}},{"type":"Feature","id":2837,"properties":{"buildingId":1,"floorId":21,"roomNumber":"2-515","roomName":"2-515 WC","scope":"budapest/lagymanyos/deli/2/LD-2-515-05-71","roomCode":"LD-2-515-05-71","roomType":"social","__tile":"17/72476/45848","__layer":"rooms","__zoom":17,"__mvtId":2837,"__building":"deli","__ringVerts":5,"id":2837,"catalogFloorId":21},"geometry":{"type":"Polygon","coordinates":[[[19.063086005,47.472062192],[19.063091369,47.47207851],[19.06308064,47.472079869],[19.063075946,47.472063552],[19.063086005,47.472062192]]]}},{"type":"Feature","id":2741,"properties":{"buildingId":1,"floorId":21,"roomNumber":"2-620","roomName":"2-620 Oktató","scope":"budapest/lagymanyos/deli/2/LD-2-620-01-13","roomCode":"LD-2-620-01-13","roomType":"educational","__tile":"17/72476/45848","__layer":"rooms","__zoom":17,"__mvtId":2741,"__building":"deli","__ringVerts":6,"id":2741,"catalogFloorId":21},"geometry":{"type":"Polygon","coordinates":[[[19.06299743,47.472031329],[19.063005476,47.472034955],[19.063019558,47.472081188],[19.062981336,47.472086174],[19.062965914,47.472035408],[19.06299743,47.472031329]]]}},{"type":"Feature","id":3498,"properties":{"buildingId":1,"floorId":21,"roomNumber":"2-521","roomName":"2-521 Férfi WC előtér","scope":"budapest/lagymanyos/deli/2/LD-2-521-04-63","roomCode":"LD-2-521-04-63","roomType":"corridor","__tile":"17/72476/45848","__layer":"rooms","__zoom":17,"__mvtId":3498,"__building":"deli","__ringVerts":5,"id":3498,"catalogFloorId":21},"geometry":{"type":"Polygon","coordinates":[[[19.063006096,47.472311043],[19.063012801,47.4723328],[19.062961169,47.472340052],[19.062954463,47.472317842],[19.063006096,47.472311043]]]}},{"type":"Feature","id":3871,"properties":{"buildingId":1,"floorId":21,"roomNumber":"2-520","roomName":"2-520 (Mesterséges Intelligencia labor)","scope":"budapest/lagymanyos/deli/2/LD-2-520-01-14","roomCode":"LD-2-520-01-14","roomType":"educational","__tile":"17/72476/45848","__layer":"rooms","__zoom":17,"__mvtId":3871,"__building":"deli","__ringVerts":5,"id":3871,"catalogFloorId":21},"geometry":{"type":"Polygon","coordinates":[[[19.063021074,47.47220211],[19.063045884,47.472285058],[19.062970782,47.472295483],[19.062945972,47.472212535],[19.063021074,47.47220211]]]}},{"type":"Feature","id":2498,"properties":{"buildingId":1,"floorId":21,"roomNumber":"2-206","roomName":"2-206 Tanszékvezetői","scope":"budapest/lagymanyos/deli/2/LD-2-206-01-13","roomCode":"LD-2-206-01-13","roomType":"educational","__tile":"17/72476/45848","__layer":"rooms","__zoom":17,"__mvtId":2498,"__building":"deli","__ringVerts":5,"id":2498,"catalogFloorId":21},"geometry":{"type":"Polygon","coordinates":[[[19.062376995,47.472515754],[19.062385042,47.472542951],[19.06230994,47.472553376],[19.062301893,47.47252618],[19.062376995,47.472515754]]]}},{"type":"Feature","id":2777,"properties":{"buildingId":1,"floorId":21,"roomNumber":"2-210","roomName":"2-210 Oktató","scope":"budapest/lagymanyos/deli/2/LD-2-210-01-13","roomCode":"LD-2-210-01-13","roomType":"educational","__tile":"17/72476/45848","__layer":"rooms","__zoom":17,"__mvtId":2777,"__building":"deli","__ringVerts":5,"id":2777,"catalogFloorId":21},"geometry":{"type":"Polygon","coordinates":[[[19.062343393,47.472628325],[19.06235144,47.472655521],[19.062275668,47.472665947],[19.062267621,47.472638297],[19.062343393,47.472628325]]]}},{"type":"Feature","id":2947,"properties":{"buildingId":1,"floorId":21,"roomNumber":"2-105","roomName":"2-105 Közlekedő","scope":"budapest/lagymanyos/deli/2/LD-2-105-04-63","roomCode":"LD-2-105-04-63","roomType":"corridor","__tile":"17/72476/45848","__layer":"rooms","__zoom":17,"__mvtId":2947,"__building":"deli","__ringVerts":61,"id":2947,"catalogFloorId":21},"geometry":{"type":"Polygon","coordinates":[[[19.062894319,47.472350745],[19.062891637,47.472343493],[19.062865485,47.472347119],[19.062868167,47.472354371],[19.062852074,47.472356184],[19.062850062,47.472349385],[19.062823911,47.472353011],[19.062826593,47.47235981],[19.0628105,47.472362076],[19.062808488,47.472354824],[19.062782337,47.47235845],[19.062785019,47.472365703],[19.062768926,47.472367969],[19.062766914,47.472360717],[19.062740762,47.472364343],[19.062742774,47.472371595],[19.062727351,47.472373408],[19.06272534,47.472366609],[19.062699188,47.472369782],[19.0627012,47.472377034],[19.062685777,47.472379301],[19.062683765,47.472372048],[19.062657614,47.472375675],[19.062659625,47.472382927],[19.062644203,47.47238474],[19.062642191,47.472377941],[19.06261604,47.472381567],[19.062618051,47.472388366],[19.062602629,47.472390632],[19.0625919,47.472355731],[19.062607993,47.472353464],[19.062610005,47.472360717],[19.062636156,47.472357091],[19.062634145,47.472349838],[19.062649567,47.472347572],[19.062651579,47.472354824],[19.06267773,47.472351198],[19.062675719,47.472343946],[19.062691141,47.472342133],[19.062693153,47.472348932],[19.062719305,47.472345306],[19.062717293,47.472338507],[19.062732716,47.47233624],[19.062734727,47.472343493],[19.062760879,47.472339866],[19.062758867,47.472332614],[19.06277429,47.472330348],[19.062776302,47.4723376],[19.062802453,47.472333974],[19.062800441,47.472326722],[19.062815864,47.472324909],[19.062817876,47.472331708],[19.062844027,47.472328535],[19.062842016,47.472321282],[19.062857438,47.472319016],[19.06285945,47.472326268],[19.062885602,47.472322642],[19.06288359,47.47231539],[19.062899013,47.472313577],[19.062909741,47.472348478],[19.062894319,47.472350745]]]}},{"type":"Feature","id":2993,"properties":{"buildingId":1,"floorId":21,"roomNumber":"2-108","roomName":"2-108 (PC5)","scope":"budapest/lagymanyos/deli/2/LD-2-108-01-14","roomCode":"LD-2-108-01-14","roomType":"educational","__tile":"17/72476/45848","__layer":"rooms","__zoom":17,"__mvtId":2993,"__building":"deli","__ringVerts":5,"id":2993,"catalogFloorId":21},"geometry":{"type":"Polygon","coordinates":[[[19.062908656,47.472295429],[19.062923408,47.472344382],[19.062806061,47.472362513],[19.062790639,47.472311747],[19.062908656,47.472295429]]]}},{"type":"Feature","id":3396,"properties":{"buildingId":1,"floorId":21,"roomNumber":"2-523","roomName":"2-523 Mosdó-zuhany","scope":"budapest/lagymanyos/deli/2/LD-2-523-05-71","roomCode":"LD-2-523-05-71","roomType":"social","__tile":"17/72476/45848","__layer":"rooms","__zoom":17,"__mvtId":3396,"__building":"deli","__ringVerts":8,"id":3396,"catalogFloorId":21},"geometry":{"type":"Polygon","coordinates":[[[19.062959716,47.472300523],[19.062966422,47.47232228],[19.062949658,47.472324546],[19.062943623,47.472330439],[19.062934906,47.472326359],[19.062941611,47.47231956],[19.062936917,47.472303696],[19.062959716,47.472300523]]]}},{"type":"Feature","id":3016,"properties":{"buildingId":1,"floorId":21,"roomNumber":"2-601","roomName":"2-601 Oktató","scope":"budapest/lagymanyos/deli/2/LD-2-601-01-13","roomCode":"LD-2-601-01-13","roomType":"educational","__tile":"17/72476/45848","__layer":"rooms","__zoom":17,"__mvtId":3016,"__building":"deli","__ringVerts":5,"id":3016,"catalogFloorId":21},"geometry":{"type":"Polygon","coordinates":[[[19.063115397,47.471951298],[19.06313015,47.472002517],[19.063089916,47.472007956],[19.063075164,47.471957191],[19.063115397,47.471951298]]]}},{"type":"Feature","id":3702,"properties":{"buildingId":1,"floorId":21,"roomNumber":"2-509","roomName":"2-509 Oktató","scope":"budapest/lagymanyos/deli/2/LD-2-509-01-13","roomCode":"LD-2-509-01-13","roomType":"educational","__tile":"17/72476/45848","__layer":"rooms","__zoom":17,"__mvtId":3702,"__building":"deli","__ringVerts":5,"id":3702,"catalogFloorId":21},"geometry":{"type":"Polygon","coordinates":[[[19.063208529,47.472073657],[19.063216576,47.472100853],[19.063141474,47.472111278],[19.063133427,47.472084082],[19.063208529,47.472073657]]]}},{"type":"Feature","id":2350,"properties":{"buildingId":1,"floorId":21,"roomNumber":"2-408","roomName":"2-408 Oktató","scope":"budapest/lagymanyos/deli/2/LD-2-408-01-13","roomCode":"LD-2-408-01-13","roomType":"educational","__tile":"17/72476/45848","__layer":"rooms","__zoom":17,"__mvtId":2350,"__building":"deli","__ringVerts":5,"id":2350,"catalogFloorId":21},"geometry":{"type":"Polygon","coordinates":[[[19.063047577,47.472607879],[19.063056294,47.472635528],[19.062980522,47.4726455],[19.062972475,47.472618304],[19.063047577,47.472607879]]]}},{"type":"Feature","id":3014,"properties":{"buildingId":1,"floorId":21,"roomNumber":"2-403","roomName":"2-403 Oktató","scope":"budapest/lagymanyos/deli/2/LD-2-403-01-13","roomCode":"LD-2-403-01-13","roomType":"educational","__tile":"17/72476/45848","__layer":"rooms","__zoom":17,"__mvtId":3014,"__building":"deli","__ringVerts":5,"id":3014,"catalogFloorId":21},"geometry":{"type":"Polygon","coordinates":[[[19.063089852,47.472467599],[19.063098569,47.472494795],[19.063022797,47.472504767],[19.06301475,47.472477571],[19.063089852,47.472467599]]]}},{"type":"Feature","id":3098,"properties":{"buildingId":1,"floorId":21,"roomNumber":"2-406","roomName":"2-406 Oktató","scope":"budapest/lagymanyos/deli/2/LD-2-406-01-13","roomCode":"LD-2-406-01-13","roomType":"educational","__tile":"17/72476/45848","__layer":"rooms","__zoom":17,"__mvtId":3098,"__building":"deli","__ringVerts":5,"id":3098,"catalogFloorId":21},"geometry":{"type":"Polygon","coordinates":[[[19.063064876,47.47255167],[19.063072923,47.472579319],[19.062997151,47.472589291],[19.062989104,47.472562095],[19.063064876,47.47255167]]]}},{"type":"Feature","id":2621,"properties":{"buildingId":1,"floorId":21,"roomNumber":"2-426","roomName":"2-426 Női WC csoport","scope":"budapest/lagymanyos/deli/2/LD-2-426-05-71","roomCode":"LD-2-426-05-71","roomType":"social","__tile":"17/72476/45848","__layer":"rooms","__zoom":17,"__mvtId":2621,"__building":"deli","__ringVerts":5,"id":2621,"catalogFloorId":21},"geometry":{"type":"Polygon","coordinates":[[[19.062959434,47.472454162],[19.06296681,47.472480451],[19.062923224,47.472486797],[19.062915848,47.472460054],[19.062959434,47.472454162]]]}},{"type":"Feature","id":2302,"properties":{"buildingId":1,"floorId":21,"roomNumber":"2-204","roomName":"2-204 Oktató","scope":"budapest/lagymanyos/deli/2/LD-2-204-01-13","roomCode":"LD-2-204-01-13","roomType":"educational","__tile":"17/72476/45848","__layer":"rooms","__zoom":17,"__mvtId":2302,"__building":"deli","__ringVerts":5,"id":2302,"catalogFloorId":21},"geometry":{"type":"Polygon","coordinates":[[[19.062393786,47.472459527],[19.062402503,47.472486724],[19.062326731,47.472497149],[19.062318684,47.472469953],[19.062393786,47.472459527]]]}},{"type":"Feature","id":3159,"properties":{"buildingId":1,"floorId":21,"roomNumber":"2-203","roomName":"2-203 Oktató","scope":"budapest/lagymanyos/deli/2/LD-2-203-01-13","roomCode":"LD-2-203-01-13","roomType":"educational","__tile":"17/72476/45848","__layer":"rooms","__zoom":17,"__mvtId":3159,"__building":"deli","__ringVerts":5,"id":3159,"catalogFloorId":21},"geometry":{"type":"Polygon","coordinates":[[[19.062402382,47.472431413],[19.062410429,47.47245861],[19.062335327,47.472469035],[19.06232728,47.472441839],[19.062402382,47.472431413]]]}},{"type":"Feature","id":3652,"properties":{"buildingId":1,"floorId":21,"roomNumber":"2-219","roomName":"2-219 (Grafika labor)","scope":"budapest/lagymanyos/deli/2/LD-2-219-01-14","roomCode":"LD-2-219-01-14","roomType":"educational","__tile":"17/72476/45848","__layer":"rooms","__zoom":17,"__mvtId":3652,"__building":"deli","__ringVerts":5,"id":3652,"catalogFloorId":21},"geometry":{"type":"Polygon","coordinates":[[[19.062525594,47.472427298],[19.062550404,47.472510246],[19.062475302,47.472520672],[19.062450492,47.47243727],[19.062525594,47.472427298]]]}},{"type":"Feature","id":2769,"properties":{"buildingId":1,"floorId":21,"roomNumber":"2-513","roomName":"2-513 Előtér","scope":"budapest/lagymanyos/deli/2/LD-2-513-04-63","roomCode":"LD-2-513-04-63","roomType":"corridor","__tile":"17/72476/45848","__layer":"rooms","__zoom":17,"__mvtId":2769,"__building":"deli","__ringVerts":5,"id":2769,"catalogFloorId":21},"geometry":{"type":"Polygon","coordinates":[[[19.063091178,47.47207575],[19.06309386,47.472086628],[19.063045581,47.472093427],[19.063042228,47.472082549],[19.063091178,47.47207575]]]}},{"type":"Feature","id":3205,"properties":{"buildingId":1,"floorId":21,"roomNumber":"2-522","roomName":"2-522 Férfi WC csoport","scope":"budapest/lagymanyos/deli/2/LD-2-522-05-71","roomCode":"LD-2-522-05-71","roomType":"social","__tile":"17/72476/45848","__layer":"rooms","__zoom":17,"__mvtId":3205,"__building":"deli","__ringVerts":6,"id":3205,"catalogFloorId":21},"geometry":{"type":"Polygon","coordinates":[[[19.06301439,47.472279848],[19.063022436,47.472307044],[19.062950687,47.472317016],[19.062944652,47.472295259],[19.062950017,47.47228982],[19.06301439,47.472279848]]]}},{"type":"Feature","id":3316,"properties":{"buildingId":1,"floorId":21,"roomNumber":"2-512","roomName":"2-512 Tárgyaló és szeminárium","scope":"budapest/lagymanyos/deli/2/LD-2-512-01-12","roomCode":"LD-2-512-01-12","roomType":"educational","__tile":"17/72476/45848","__layer":"rooms","__zoom":17,"__mvtId":3316,"__building":"deli","__ringVerts":5,"id":3316,"catalogFloorId":21},"geometry":{"type":"Polygon","coordinates":[[[19.06323466,47.471964578],[19.063251424,47.472019423],[19.063175652,47.472029848],[19.063159558,47.471975003],[19.06323466,47.471964578]]]}},{"type":"Feature","id":3382,"properties":{"buildingId":1,"floorId":21,"roomNumber":"2-501","roomName":"2-501 Közlekedő","scope":"budapest/lagymanyos/deli/2/LD-2-501-04-63","roomCode":"LD-2-501-04-63","roomType":"corridor","__tile":"17/72476/45848","__layer":"rooms","__zoom":17,"__mvtId":3382,"__building":"deli","__ringVerts":86,"id":3382,"catalogFloorId":21},"geometry":{"type":"Polygon","coordinates":[[[19.063093306,47.471933322],[19.063095988,47.471943747],[19.06308593,47.471945107],[19.063091294,47.471962784],[19.063101352,47.471960971],[19.063104705,47.47197185],[19.063093976,47.471973209],[19.063099341,47.471990887],[19.06311007,47.471989074],[19.063113422,47.471999952],[19.063102693,47.472001312],[19.063108058,47.472018989],[19.063118787,47.472017629],[19.063121469,47.472028055],[19.063111411,47.472029414],[19.063116775,47.472047092],[19.063126833,47.472045732],[19.063130186,47.472056157],[19.063119457,47.472057517],[19.063124822,47.472075194],[19.063135551,47.472073834],[19.063138903,47.47208426],[19.063128174,47.472085619],[19.063133539,47.472103297],[19.063143597,47.472101937],[19.06314695,47.472112362],[19.063136221,47.472113722],[19.063141586,47.472131399],[19.063152314,47.472130039],[19.063155667,47.472140464],[19.063144938,47.472141824],[19.063150303,47.472159502],[19.063161032,47.472158142],[19.063163714,47.472168567],[19.063153655,47.472169927],[19.06315902,47.472187604],[19.063169078,47.472186244],[19.063172431,47.472196669],[19.063161702,47.472198029],[19.063163043,47.472200749],[19.063173101,47.472199389],[19.06318316,47.472232477],[19.063136892,47.472238823],[19.063122139,47.472188057],[19.063134209,47.472186244],[19.063131527,47.472178539],[19.063105376,47.472182165],[19.063108058,47.472188964],[19.063092635,47.47219123],[19.063089953,47.472183978],[19.063064472,47.472187604],[19.063066484,47.472194856],[19.063051061,47.472197123],[19.063048379,47.47218987],[19.063022227,47.472193496],[19.063024909,47.472200295],[19.063008816,47.472202562],[19.062998758,47.47216766],[19.063014181,47.472165394],[19.063016192,47.472172193],[19.063026921,47.4721731],[19.063117446,47.472158595],[19.063097329,47.472089699],[19.0630866,47.472091512],[19.063083247,47.472080633],[19.063093976,47.472079274],[19.063088612,47.472061596],[19.063077883,47.472062956],[19.063075201,47.472052531],[19.063085259,47.472051171],[19.063079895,47.472033494],[19.063069836,47.472034854],[19.063066484,47.472024428],[19.063077212,47.472023069],[19.063071848,47.472005391],[19.063061119,47.472006751],[19.063057766,47.471996326],[19.063068495,47.471994966],[19.063063131,47.471977289],[19.063053073,47.471979102],[19.06304972,47.471968223],[19.063060449,47.471966864],[19.063054414,47.471949186],[19.063044355,47.471950546],[19.063041003,47.471940121],[19.063093306,47.471933322]]]}},{"type":"Feature","id":3472,"properties":{"buildingId":1,"floorId":21,"roomNumber":"2-602","roomName":"2-602 Oktatói","scope":"budapest/lagymanyos/deli/2/LD-2-602-01-13","roomCode":"LD-2-602-01-13","roomType":"educational","__tile":"17/72476/45848","__layer":"rooms","__zoom":17,"__mvtId":3472,"__building":"deli","__ringVerts":5,"id":3472,"catalogFloorId":21},"geometry":{"type":"Polygon","coordinates":[[[19.06307394,47.471945759],[19.063088692,47.471996525],[19.063048459,47.472002417],[19.063033036,47.471951199],[19.06307394,47.471945759]]]}},{"type":"Feature","id":2252,"properties":{"buildingId":1,"floorId":21,"roomNumber":"2-603","roomName":"2-603 Oktató","scope":"budapest/lagymanyos/deli/2/LD-2-603-01-13","roomCode":"LD-2-603-01-13","roomType":"educational","__tile":"17/72476/45848","__layer":"rooms","__zoom":17,"__mvtId":2252,"__building":"deli","__ringVerts":5,"id":2252,"catalogFloorId":21},"geometry":{"type":"Polygon","coordinates":[[[19.063032347,47.47194013],[19.063047099,47.471990896],[19.063006866,47.471996335],[19.062991443,47.471945569],[19.063032347,47.47194013]]]}},{"type":"Feature","id":3049,"properties":{"buildingId":1,"floorId":21,"roomNumber":"2-517","roomName":"2-517 Oktató","scope":"budapest/lagymanyos/deli/2/LD-2-517-01-13","roomCode":"LD-2-517-01-13","roomType":"educational","__tile":"17/72476/45848","__layer":"rooms","__zoom":17,"__mvtId":3049,"__building":"deli","__ringVerts":6,"id":3049,"catalogFloorId":21},"geometry":{"type":"Polygon","coordinates":[[[19.063076424,47.47208262],[19.0630838,47.47210891],[19.063015403,47.472117975],[19.063007357,47.472114349],[19.063000651,47.472093045],[19.063076424,47.47208262]]]}},{"type":"Feature","id":3169,"properties":{"buildingId":1,"floorId":21,"roomNumber":"2-611","roomName":"2-611 Tanszékvezető","scope":"budapest/lagymanyos/deli/2/LD-2-611-01-13","roomCode":"LD-2-611-01-13","roomType":"educational","__tile":"17/72476/45848","__layer":"rooms","__zoom":17,"__mvtId":3169,"__building":"deli","__ringVerts":5,"id":3169,"catalogFloorId":21},"geometry":{"type":"Polygon","coordinates":[[[19.062699204,47.47189437],[19.062714627,47.471945136],[19.062674394,47.471950575],[19.062658971,47.471899809],[19.062699204,47.47189437]]]}},{"type":"Feature","id":3207,"properties":{"buildingId":1,"floorId":21,"roomNumber":"2-607","roomName":"2-607 Oktató","scope":"budapest/lagymanyos/deli/2/LD-2-607-01-13","roomCode":"LD-2-607-01-13","roomType":"educational","__tile":"17/72476/45848","__layer":"rooms","__zoom":17,"__mvtId":3207,"__building":"deli","__ringVerts":5,"id":3207,"catalogFloorId":21},"geometry":{"type":"Polygon","coordinates":[[[19.062865574,47.471917069],[19.062880997,47.471968288],[19.062840764,47.471973727],[19.062825341,47.471922508],[19.062865574,47.471917069]]]}},{"type":"Feature","id":3502,"properties":{"buildingId":1,"floorId":21,"roomNumber":"2-606","roomName":"2-606 Oktató","scope":"budapest/lagymanyos/deli/2/LD-2-606-01-13","roomCode":"LD-2-606-01-13","roomType":"educational","__tile":"17/72476/45848","__layer":"rooms","__zoom":17,"__mvtId":3502,"__building":"deli","__ringVerts":5,"id":3502,"catalogFloorId":21},"geometry":{"type":"Polygon","coordinates":[[[19.062907166,47.471922698],[19.062922589,47.471973917],[19.062882356,47.471979356],[19.062866933,47.471928591],[19.062907166,47.471922698]]]}},{"type":"Feature","id":3442,"properties":{"buildingId":1,"floorId":21,"roomNumber":"2-507","roomName":"2-507 Oktató","scope":"budapest/lagymanyos/deli/2/LD-2-507-01-13","roomCode":"LD-2-507-01-13","roomType":"educational","__tile":"17/72476/45848","__layer":"rooms","__zoom":17,"__mvtId":3442,"__building":"deli","__ringVerts":5,"id":3442,"catalogFloorId":21},"geometry":{"type":"Polygon","coordinates":[[[19.063191662,47.472130047],[19.063199709,47.472157243],[19.063124607,47.472167668],[19.06311589,47.472140472],[19.063191662,47.472130047]]]}},{"type":"Feature","id":3460,"properties":{"buildingId":1,"floorId":21,"roomNumber":"2-618","roomName":"2-618 Oktató","scope":"budapest/lagymanyos/deli/2/LD-2-618-01-13","roomCode":"LD-2-618-01-13","roomType":"educational","__tile":"17/72476/45848","__layer":"rooms","__zoom":17,"__mvtId":3460,"__building":"deli","__ringVerts":5,"id":3460,"catalogFloorId":21},"geometry":{"type":"Polygon","coordinates":[[[19.062922315,47.472016458],[19.062937738,47.472067224],[19.062897505,47.472073117],[19.062882082,47.472021898],[19.062922315,47.472016458]]]}}],"meta":{"building":"deli","floorId":21,"polygonCount":134}}