{"type":"FeatureCollection","features":[{"type":"Feature","id":3574,"properties":{"buildingId":1,"floorId":25,"roomNumber":"0-415","roomName":"0-415 WC- zuhany","scope":"budapest/lagymanyos/deli/0/LD-0-415-05-71","roomCode":"LD-0-415-05-71","roomType":"social","__tile":"17/72476/45847","__layer":"rooms","__zoom":17,"__mvtId":3574,"__building":"deli","__ringVerts":5,"id":3574,"catalogFloorId":25},"geometry":{"type":"Polygon","coordinates":[[[19.062896661,47.472692509],[19.062901355,47.472708825],[19.062890626,47.472710185],[19.062885932,47.472694322],[19.062896661,47.472692509]]]}},{"type":"Feature","id":3860,"properties":{"buildingId":1,"floorId":25,"roomNumber":"0-308","roomName":"0-308 Nagy Számítógépes laboratórium ","scope":"budapest/lagymanyos/deli/0/LD-0-308-01-14","roomCode":"LD-0-308-01-14","roomType":"educational","__tile":"17/72476/45847","__layer":"rooms","__zoom":17,"__mvtId":3860,"__building":"deli","__ringVerts":19,"id":3860,"catalogFloorId":25},"geometry":{"type":"Polygon","coordinates":[[[19.063084312,47.472667299],[19.063143321,47.472862192],[19.063063525,47.47287307],[19.063062184,47.472868991],[19.06305749,47.472869444],[19.063058831,47.472874429],[19.0629844,47.472884401],[19.062974342,47.472850861],[19.062986411,47.472849048],[19.062981047,47.472833185],[19.062969648,47.472834544],[19.062958248,47.472796019],[19.062827491,47.472814149],[19.062812068,47.472764292],[19.062819444,47.472762933],[19.062818103,47.47275976],[19.062812068,47.472760666],[19.062795975,47.472706731],[19.063084312,47.472667299]],[[19.063054137,47.47284089],[19.063048773,47.472841343],[19.063052126,47.472851768],[19.063056819,47.472851314],[19.063054137,47.47284089]],[[19.06304542,47.472812789],[19.063040056,47.472813242],[19.063043408,47.472823667],[19.063048773,47.472823213],[19.06304542,47.472812789]],[[19.063036703,47.472784688],[19.063032009,47.472785141],[19.063034691,47.472795566],[19.063040056,47.472795113],[19.063036703,47.472784688]],[[19.063028656,47.472756587],[19.063023292,47.472757041],[19.063026645,47.472767465],[19.063032009,47.472767012],[19.063028656,47.472756587]],[[19.062859677,47.472753868],[19.062844254,47.472756134],[19.062845596,47.47275976],[19.062861018,47.472757494],[19.062859677,47.472753868]],[[19.062901251,47.472747976],[19.062885829,47.472750242],[19.06288717,47.472753868],[19.062902592,47.472751602],[19.062901251,47.472747976]],[[19.062942826,47.472742537],[19.062927403,47.47274435],[19.062928744,47.472747976],[19.062944167,47.472746163],[19.062942826,47.472742537]],[[19.0629844,47.472736645],[19.062968977,47.472738911],[19.062970318,47.472742537],[19.062985741,47.472740271],[19.0629844,47.472736645]],[[19.06302128,47.472731659],[19.063010551,47.472733019],[19.063017927,47.472739364],[19.063023292,47.472738458],[19.06302128,47.472731659]]]}},{"type":"Feature","id":3458,"properties":{"buildingId":1,"floorId":25,"roomNumber":"0-417","roomName":"0-417 IK TH vezető","scope":"budapest/lagymanyos/deli/0/LD-0-417-02-33","roomCode":"LD-0-417-02-33","roomType":"administrative","__tile":"17/72476/45847","__layer":"rooms","__zoom":17,"__mvtId":3458,"__building":"deli","__ringVerts":5,"id":3458,"catalogFloorId":25},"geometry":{"type":"Polygon","coordinates":[[[19.063035465,47.472623324],[19.063054911,47.472687684],[19.062975786,47.472687684],[19.062960363,47.472633749],[19.063035465,47.472623324]]]}},{"type":"Feature","id":2731,"properties":{"buildingId":1,"floorId":25,"roomNumber":"0-214","roomName":"0-214 Lendület Dinoszaurusz Kutatócsoport","scope":"budapest/lagymanyos/deli/0/LD-0-214-02-33","roomCode":"LD-0-214-02-33","roomType":"administrative","__tile":"17/72476/45847","__layer":"rooms","__zoom":17,"__mvtId":2731,"__building":"deli","__ringVerts":5,"id":2731,"catalogFloorId":25},"geometry":{"type":"Polygon","coordinates":[[[19.062326096,47.472684443],[19.062334813,47.472711638],[19.062259041,47.472722062],[19.062250994,47.472694868],[19.062326096,47.472684443]]]}},{"type":"Feature","id":3847,"properties":{"buildingId":1,"floorId":25,"roomNumber":"0-805","roomName":"0-805 Fejér Lipót terem","scope":"budapest/lagymanyos/deli/0/LD-0-805-01-12","roomCode":"LD-0-805-01-12","roomType":"educational","__tile":"17/72476/45847","__layer":"rooms","__zoom":17,"__mvtId":3847,"__building":"deli","__ringVerts":5,"id":3847,"catalogFloorId":25},"geometry":{"type":"Polygon","coordinates":[[[19.062077656,47.47260497],[19.062092408,47.472654373],[19.061895266,47.472654373],[19.06188856,47.472630804],[19.062077656,47.47260497]]]}},{"type":"Feature","id":2644,"properties":{"buildingId":1,"floorId":25,"roomNumber":"0-801","roomName":"0-801 Előcsarnok","scope":"budapest/lagymanyos/deli/0/LD-0-801-04-63","roomCode":"LD-0-801-04-63","roomType":"corridor","__tile":"17/72476/45847","__layer":"rooms","__zoom":17,"__mvtId":2644,"__building":"deli","__ringVerts":15,"id":2644,"catalogFloorId":25},"geometry":{"type":"Polygon","coordinates":[[[19.062043408,47.472160676],[19.062061513,47.472220503],[19.062079618,47.472217784],[19.062082971,47.472228661],[19.062067548,47.472230474],[19.062072242,47.472244525],[19.062068889,47.472244978],[19.062071571,47.472255403],[19.061993787,47.472255403],[19.061989764,47.472253136],[19.061973671,47.47224951],[19.061975682,47.472232287],[19.062003175,47.4722341],[19.062011222,47.472165208],[19.062043408,47.472160676]],[[19.062024633,47.472235913],[19.062021951,47.472238633],[19.062025974,47.472240446],[19.062027985,47.472237726],[19.062024633,47.472235913]]]}},{"type":"Feature","id":2409,"properties":{"buildingId":1,"floorId":25,"roomNumber":"0-215","roomName":"0-215","scope":"budapest/lagymanyos/deli/0/LD-0-215-01-12","roomCode":"LD-0-215-01-12","roomType":"educational","__tile":"17/72476/45847","__layer":"rooms","__zoom":17,"__mvtId":2409,"__building":"deli","__ringVerts":5,"id":2409,"catalogFloorId":25},"geometry":{"type":"Polygon","coordinates":[[[19.062317834,47.472712519],[19.062325881,47.47273926],[19.062250779,47.472749684],[19.062242732,47.472722943],[19.062317834,47.472712519]]]}},{"type":"Feature","id":2609,"properties":{"buildingId":1,"floorId":25,"roomNumber":"0-201","roomName":"0-201 Közlekedő","scope":"budapest/lagymanyos/deli/0/LD-0-201-04-63","roomCode":"LD-0-201-04-63","roomType":"corridor","__tile":"17/72476/45847","__layer":"rooms","__zoom":17,"__mvtId":2609,"__building":"deli","__ringVerts":35,"id":2609,"catalogFloorId":25},"geometry":{"type":"Polygon","coordinates":[[[19.062383605,47.472539205],[19.062384276,47.472541471],[19.062391652,47.472540564],[19.062407075,47.47259178],[19.062394334,47.47259314],[19.062397016,47.472601298],[19.062423168,47.472597672],[19.062420486,47.472590421],[19.062436579,47.472588608],[19.062438591,47.472595406],[19.062464742,47.472592234],[19.06246206,47.472584982],[19.062478153,47.472582716],[19.062485529,47.47260855],[19.062441273,47.472614896],[19.062443955,47.472622601],[19.062428532,47.472624867],[19.062426521,47.472618975],[19.062411098,47.472621241],[19.062422497,47.472659313],[19.06238964,47.472659313],[19.062386958,47.472648435],[19.062376229,47.472649795],[19.062372877,47.47263937],[19.062383605,47.472638011],[19.062378241,47.472620334],[19.062367512,47.472621694],[19.06236483,47.47261127],[19.062374888,47.47260991],[19.062369524,47.472592234],[19.062359465,47.472593593],[19.062345384,47.47254691],[19.062358124,47.472545097],[19.062357454,47.472542831],[19.062383605,47.472539205]]]}},{"type":"Feature","id":3104,"properties":{"buildingId":1,"floorId":25,"roomNumber":"0-413","roomName":"0-413 Előtér","scope":"budapest/lagymanyos/deli/0/LD-0-413-04-63","roomCode":"LD-0-413-04-63","roomType":"corridor","__tile":"17/72476/45847","__layer":"rooms","__zoom":17,"__mvtId":3104,"__building":"deli","__ringVerts":5,"id":3104,"catalogFloorId":25},"geometry":{"type":"Polygon","coordinates":[[[19.062910035,47.472677042],[19.062913388,47.472688373],[19.062864437,47.472694718],[19.062861085,47.47268384],[19.062910035,47.472677042]]]}},{"type":"Feature","id":3034,"properties":{"buildingId":1,"floorId":25,"roomNumber":"0-315","roomName":"0-315 Lépcsőház","scope":"budapest/lagymanyos/deli/0/LD-0-315-04-64","roomCode":"LD-0-315-04-64","roomType":"corridor","__tile":"17/72476/45847","__layer":"rooms","__zoom":17,"__mvtId":3034,"__building":"deli","__ringVerts":5,"id":3034,"catalogFloorId":25},"geometry":{"type":"Polygon","coordinates":[[[19.06247566,47.472647601],[19.062482365,47.472670717],[19.062409275,47.472680688],[19.06240257,47.472657573],[19.06247566,47.472647601]]]}},{"type":"Feature","id":3818,"properties":{"buildingId":1,"floorId":25,"roomNumber":"0-312","roomName":"0-312 Gallai Tibor terem","scope":"budapest/lagymanyos/deli/0/LD-0-312-01-12","roomCode":"LD-0-312-01-12","roomType":"educational","__tile":"17/72476/45847","__layer":"rooms","__zoom":17,"__mvtId":3818,"__building":"deli","__ringVerts":6,"id":3818,"catalogFloorId":25},"geometry":{"type":"Polygon","coordinates":[[[19.06259627,47.472628321],[19.062611693,47.472679537],[19.062551343,47.472687695],[19.062488311,47.472687695],[19.062475571,47.47264509],[19.06259627,47.472628321]]]}},{"type":"Feature","id":2315,"properties":{"buildingId":1,"floorId":25,"roomNumber":"0-311","roomName":"0-311 Konig terem","scope":"budapest/lagymanyos/deli/0/LD-0-311-01-12","roomCode":"LD-0-311-01-12","roomType":"educational","__tile":"17/72476/45847","__layer":"rooms","__zoom":17,"__mvtId":2315,"__building":"deli","__ringVerts":6,"id":2315,"catalogFloorId":25},"geometry":{"type":"Polygon","coordinates":[[[19.062793891,47.472657301],[19.062807302,47.472703531],[19.062801938,47.472709423],[19.062687944,47.472725287],[19.062672521,47.472674071],[19.062793891,47.472657301]]]}},{"type":"Feature","id":2358,"properties":{"buildingId":1,"floorId":25,"roomNumber":"0-412","roomName":"0-412 Rényi Alfréd terem","scope":"budapest/lagymanyos/deli/0/LD-0-412-01-12","roomCode":"LD-0-412-01-12","roomType":"educational","__tile":"17/72476/45847","__layer":"rooms","__zoom":17,"__mvtId":2358,"__building":"deli","__ringVerts":6,"id":2358,"catalogFloorId":25},"geometry":{"type":"Polygon","coordinates":[[[19.062910991,47.472627549],[19.062923732,47.47267242],[19.062845947,47.47267242],[19.06283723,47.472642959],[19.062842595,47.472636614],[19.062910991,47.472627549]]]}},{"type":"Feature","id":2536,"properties":{"buildingId":1,"floorId":25,"roomNumber":"0-414","roomName":"0-414 Biztonsági szolgálat öltöző","scope":"budapest/lagymanyos/deli/0/LD-0-414-05-73","roomCode":"LD-0-414-05-73","roomType":"social","__tile":"17/72476/45847","__layer":"rooms","__zoom":17,"__mvtId":2536,"__building":"deli","__ringVerts":8,"id":2536,"catalogFloorId":25},"geometry":{"type":"Polygon","coordinates":[[[19.06286196,47.472665353],[19.062870677,47.472693454],[19.062841173,47.472697533],[19.062835808,47.472702972],[19.062826421,47.472698893],[19.062831785,47.472693454],[19.06282508,47.472670339],[19.06286196,47.472665353]]]}},{"type":"Feature","id":3095,"properties":{"buildingId":1,"floorId":25,"roomNumber":"0-304","roomName":"0-304 Üzemeltetés Főmérnökség","scope":"budapest/lagymanyos/deli/0/LD-0-304-02-33","roomCode":"LD-0-304-02-33","roomType":"administrative","__tile":"17/72476/45847","__layer":"rooms","__zoom":17,"__mvtId":3095,"__building":"deli","__ringVerts":5,"id":3095,"catalogFloorId":25},"geometry":{"type":"Polygon","coordinates":[[[19.062578901,47.472729983],[19.062603041,47.472779839],[19.06255342,47.472786638],[19.062537997,47.472735422],[19.062578901,47.472729983]]]}},{"type":"Feature","id":3514,"properties":{"buildingId":1,"floorId":25,"roomNumber":"0-416","roomName":"0-416 Előtér","scope":"budapest/lagymanyos/deli/0/LD-0-416-04-63","roomCode":"LD-0-416-04-63","roomType":"corridor","__tile":"17/72476/45847","__layer":"rooms","__zoom":17,"__mvtId":3514,"__building":"deli","__ringVerts":5,"id":3514,"catalogFloorId":25},"geometry":{"type":"Polygon","coordinates":[[[19.062908225,47.472694207],[19.062912919,47.472710524],[19.06290286,47.472711884],[19.062897496,47.472695567],[19.062908225,47.472694207]]]}},{"type":"Feature","id":2880,"properties":{"buildingId":1,"floorId":25,"roomNumber":"0-302","roomName":"0-302 Mikropaleontológiai laboratórium","scope":"budapest/lagymanyos/deli/0/LD-0-302-01-14","roomCode":"LD-0-302-01-14","roomType":"educational","__tile":"17/72476/45847","__layer":"rooms","__zoom":17,"__mvtId":2880,"__building":"deli","__ringVerts":5,"id":2880,"catalogFloorId":25},"geometry":{"type":"Polygon","coordinates":[[[19.062411152,47.472707481],[19.062426575,47.472758244],[19.062386342,47.472763683],[19.062370919,47.47271292],[19.062411152,47.472707481]]]}},{"type":"Feature","id":3222,"properties":{"buildingId":1,"floorId":25,"roomNumber":"0-401","roomName":"0-401 Közlekedő","scope":"budapest/lagymanyos/deli/0/LD-0-401-04-63","roomCode":"LD-0-401-04-63","roomType":"corridor","__tile":"17/72476/45847","__layer":"rooms","__zoom":17,"__mvtId":3222,"__building":"deli","__ringVerts":26,"id":3222,"catalogFloorId":25},"geometry":{"type":"Polygon","coordinates":[[[19.062954466,47.472532307],[19.062963183,47.47256222],[19.062973912,47.472560861],[19.062977264,47.472571285],[19.062966536,47.472572645],[19.0629719,47.472590321],[19.062981958,47.472588961],[19.062985311,47.472599386],[19.062974582,47.472600746],[19.062979947,47.472618422],[19.062990675,47.472617062],[19.062994028,47.472627487],[19.062983299,47.472628846],[19.06298464,47.472634285],[19.062952454,47.472634285],[19.062952454,47.472633379],[19.062945078,47.472634285],[19.062941055,47.472634285],[19.062939043,47.472624314],[19.062949101,47.472622954],[19.062943737,47.472605278],[19.062933679,47.472606638],[19.062930326,47.472596213],[19.062941055,47.472594854],[19.06292362,47.472536386],[19.062954466,47.472532307]]]}},{"type":"Feature","id":2534,"properties":{"buildingId":1,"floorId":25,"roomNumber":"0-213","roomName":"0-213 Ostracoda laboratórium","scope":"budapest/lagymanyos/deli/0/LD-0-213-01-14","roomCode":"LD-0-213-01-14","roomType":"educational","__tile":"17/72476/45847","__layer":"rooms","__zoom":17,"__mvtId":2534,"__building":"deli","__ringVerts":5,"id":2534,"catalogFloorId":25},"geometry":{"type":"Polygon","coordinates":[[[19.062334692,47.472656329],[19.062342739,47.472683524],[19.062267637,47.472693948],[19.06225959,47.472666754],[19.062334692,47.472656329]]]}},{"type":"Feature","id":2578,"properties":{"buildingId":1,"floorId":25,"roomNumber":"0-310","roomName":"0-310 Lépcsőház","scope":"budapest/lagymanyos/deli/0/LD-0-310-04-64","roomCode":"LD-0-310-04-64","roomType":"corridor","__tile":"17/72476/45847","__layer":"rooms","__zoom":17,"__mvtId":2578,"__building":"deli","__ringVerts":5,"id":2578,"catalogFloorId":25},"geometry":{"type":"Polygon","coordinates":[[[19.062880786,47.47270337],[19.062888162,47.472726486],[19.062815071,47.472736457],[19.062808366,47.472713342],[19.062880786,47.47270337]]]}},{"type":"Feature","id":3429,"properties":{"buildingId":1,"floorId":25,"roomNumber":"0-309","roomName":"0-309 Foyer","scope":"budapest/lagymanyos/deli/0/LD-0-309-04-63","roomCode":"LD-0-309-04-63","roomType":"corridor","__tile":"17/72476/45847","__layer":"rooms","__zoom":17,"__mvtId":3429,"__building":"deli","__ringVerts":75,"id":3429,"catalogFloorId":25},"geometry":{"type":"Polygon","coordinates":[[[19.062789952,47.472563254],[19.062788611,47.472558269],[19.062752401,47.472563254],[19.062562635,47.472563254],[19.06261695,47.472556002],[19.062614267,47.472548751],[19.062609573,47.472548751],[19.062595492,47.47250388],[19.062604209,47.47250252],[19.062601527,47.472494362],[19.06247144,47.472512491],[19.062470769,47.472510225],[19.062456017,47.472512491],[19.062450653,47.472493455],[19.062475463,47.472490283],[19.062472781,47.472483031],[19.062488874,47.472481218],[19.062490886,47.472488017],[19.062517037,47.472484391],[19.062515026,47.472477592],[19.062530448,47.472475326],[19.06253246,47.472482578],[19.062558611,47.472478952],[19.0625566,47.4724717],[19.062572023,47.472469434],[19.062574034,47.472476686],[19.062596833,47.472473513],[19.062580069,47.472434988],[19.062615608,47.472427283],[19.06265383,47.472425016],[19.062659865,47.472464901],[19.062683334,47.472461729],[19.062681323,47.472454477],[19.062696745,47.472452211],[19.062698757,47.472459463],[19.062724908,47.472455837],[19.062722897,47.472449038],[19.062738319,47.472446772],[19.062740331,47.472454024],[19.062766483,47.472450398],[19.062764471,47.472443146],[19.062779894,47.47244088],[19.062781905,47.472448132],[19.062808057,47.472444506],[19.062805375,47.472436347],[19.062820797,47.472434534],[19.06282348,47.472442239],[19.062849631,47.472438614],[19.062846949,47.472430908],[19.062863042,47.472428642],[19.062865054,47.472436347],[19.062883159,47.472434081],[19.062881147,47.472426829],[19.062912663,47.47242275],[19.062916016,47.472434988],[19.062928086,47.472433628],[19.062930768,47.472444052],[19.062919369,47.472445412],[19.062924062,47.472460369],[19.062892547,47.472464448],[19.062889864,47.47245493],[19.062873771,47.472457196],[19.062875783,47.472463088],[19.06286036,47.472464901],[19.062857678,47.472457196],[19.062663218,47.472486204],[19.0626659,47.472494362],[19.06267864,47.472492549],[19.062692722,47.47253742],[19.062686687,47.472538326],[19.062689369,47.472545578],[19.062810739,47.472529261],[19.062819456,47.472532887],[19.062828173,47.472563254],[19.062789952,47.472563254]],[[19.062657183,47.472542405],[19.062644442,47.472543765],[19.062647124,47.472551923],[19.062659194,47.472550563],[19.062657183,47.472542405]],[[19.062643101,47.472488923],[19.062626337,47.472491189],[19.062629019,47.472499348],[19.062645783,47.472497081],[19.062643101,47.472488923]],[[19.062631702,47.472461275],[19.062620973,47.472462635],[19.062622314,47.472465355],[19.062632372,47.472463995],[19.062631702,47.472461275]]]}},{"type":"Feature","id":2327,"properties":{"buildingId":1,"floorId":25,"roomNumber":"0-524","roomName":"0-524 Mosdó-zuhany","scope":"budapest/lagymanyos/deli/0/LD-0-524-05-71","roomCode":"LD-0-524-05-71","roomType":"social","__tile":"17/72476/45848","__layer":"rooms","__zoom":17,"__mvtId":2327,"__building":"deli","__ringVerts":7,"id":2327,"catalogFloorId":25},"geometry":{"type":"Polygon","coordinates":[[[19.063004056,47.472283767],[19.063006068,47.472291019],[19.063018138,47.472289659],[19.063020149,47.472296458],[19.062993327,47.472300085],[19.062989304,47.472287393],[19.063004056,47.472283767]]]}},{"type":"Feature","id":2716,"properties":{"buildingId":1,"floorId":25,"roomNumber":"0-525","roomName":"0-525 WC","scope":"budapest/lagymanyos/deli/0/LD-0-525-05-71","roomCode":"LD-0-525-05-71","roomType":"social","__tile":"17/72476/45848","__layer":"rooms","__zoom":17,"__mvtId":2716,"__building":"deli","__ringVerts":5,"id":2716,"catalogFloorId":25},"geometry":{"type":"Polygon","coordinates":[[[19.0630135,47.472294981],[19.063018864,47.472313565],[19.063008806,47.472314925],[19.063003441,47.472296341],[19.0630135,47.472294981]]]}},{"type":"Feature","id":3164,"properties":{"buildingId":1,"floorId":25,"roomNumber":"0-504","roomName":"0-504 Számítógépes laboratórium és PhD szoba","scope":"budapest/lagymanyos/deli/0/LD-0-504-01-14","roomCode":"LD-0-504-01-14","roomType":"educational","__tile":"17/72476/45848","__layer":"rooms","__zoom":17,"__mvtId":3164,"__building":"deli","__ringVerts":5,"id":3164,"catalogFloorId":25},"geometry":{"type":"Polygon","coordinates":[[[19.06318382,47.472132865],[19.063200584,47.472188163],[19.063125482,47.472198588],[19.063108718,47.47214329],[19.06318382,47.472132865]]]}},{"type":"Feature","id":3533,"properties":{"buildingId":1,"floorId":25,"roomNumber":"0-507","roomName":"0-507 Oktató","scope":"budapest/lagymanyos/deli/0/LD-0-507-01-13","roomCode":"LD-0-507-01-13","roomType":"educational","__tile":"17/72476/45848","__layer":"rooms","__zoom":17,"__mvtId":3533,"__building":"deli","__ringVerts":5,"id":3533,"catalogFloorId":25},"geometry":{"type":"Polygon","coordinates":[[[19.063199866,47.472101934],[19.063208583,47.47212913],[19.063132811,47.472139555],[19.063124764,47.472112359],[19.063199866,47.472101934]]]}},{"type":"Feature","id":3394,"properties":{"buildingId":1,"floorId":25,"roomNumber":"0-418","roomName":"0-418 IK TH","scope":"budapest/lagymanyos/deli/0/LD-0-418-02-33","roomCode":"LD-0-418-02-33","roomType":"administrative","__tile":"17/72476/45848","__layer":"rooms","__zoom":17,"__mvtId":3394,"__building":"deli","__ringVerts":5,"id":3394,"catalogFloorId":25},"geometry":{"type":"Polygon","coordinates":[[[19.063058645,47.472503891],[19.063092172,47.472615848],[19.06301707,47.47262582],[19.062983543,47.472514316],[19.063058645,47.472503891]]]}},{"type":"Feature","id":3413,"properties":{"buildingId":1,"floorId":25,"roomNumber":"0-505","roomName":"0-505 Oktató","scope":"budapest/lagymanyos/deli/0/LD-0-505-01-13","roomCode":"LD-0-505-01-13","roomType":"educational","__tile":"17/72476/45848","__layer":"rooms","__zoom":17,"__mvtId":3413,"__building":"deli","__ringVerts":5,"id":3413,"catalogFloorId":25},"geometry":{"type":"Polygon","coordinates":[[[19.063166152,47.472214392],[19.063174199,47.472241588],[19.063099097,47.472252013],[19.06309105,47.472224817],[19.063166152,47.472214392]]]}},{"type":"Feature","id":3417,"properties":{"buildingId":1,"floorId":25,"roomNumber":"0-509","roomName":"0-509 Tanszékvezető","scope":"budapest/lagymanyos/deli/0/LD-0-509-01-13","roomCode":"LD-0-509-01-13","roomType":"educational","__tile":"17/72476/45848","__layer":"rooms","__zoom":17,"__mvtId":3417,"__building":"deli","__ringVerts":5,"id":3417,"catalogFloorId":25},"geometry":{"type":"Polygon","coordinates":[[[19.063217936,47.472020407],[19.0632347,47.472075705],[19.063158928,47.47208613],[19.063142164,47.472030832],[19.063217936,47.472020407]]]}},{"type":"Feature","id":2463,"properties":{"buildingId":1,"floorId":25,"roomNumber":"0-514","roomName":"0-514 WC","scope":"budapest/lagymanyos/deli/0/LD-0-514-05-71","roomCode":"LD-0-514-05-71","roomType":"social","__tile":"17/72476/45848","__layer":"rooms","__zoom":17,"__mvtId":2463,"__building":"deli","__ringVerts":5,"id":2463,"catalogFloorId":25},"geometry":{"type":"Polygon","coordinates":[[[19.063086004,47.472062192],[19.063091368,47.47207851],[19.063080639,47.472079869],[19.063075945,47.472063552],[19.063086004,47.472062192]]]}},{"type":"Feature","id":3608,"properties":{"buildingId":1,"floorId":25,"roomNumber":"0-503","roomName":"0-503 Oktató","scope":"budapest/lagymanyos/deli/0/LD-0-503-01-13","roomCode":"LD-0-503-01-13","roomType":"educational","__tile":"17/72476/45848","__layer":"rooms","__zoom":17,"__mvtId":3608,"__building":"deli","__ringVerts":5,"id":3608,"catalogFloorId":25},"geometry":{"type":"Polygon","coordinates":[[[19.063157556,47.472242506],[19.063166273,47.472269702],[19.063090501,47.472280127],[19.063082454,47.472252931],[19.063157556,47.472242506]]]}},{"type":"Feature","id":2886,"properties":{"buildingId":1,"floorId":25,"roomNumber":"0-106","roomName":"0-106 Öltöző","scope":"budapest/lagymanyos/deli/0/LD-0-106-05-73","roomCode":"LD-0-106-05-73","roomType":"social","__tile":"17/72476/45848","__layer":"rooms","__zoom":17,"__mvtId":2886,"__building":"deli","__ringVerts":5,"id":2886,"catalogFloorId":25},"geometry":{"type":"Polygon","coordinates":[[[19.06261191,47.472200225],[19.062619956,47.472226968],[19.06257637,47.47223286],[19.062568324,47.472206117],[19.06261191,47.472200225]]]}},{"type":"Feature","id":3113,"properties":{"buildingId":1,"floorId":25,"roomNumber":"0-709","roomName":"0-709 WC","scope":"budapest/lagymanyos/deli/0/LD-0-709-05-71","roomCode":"LD-0-709-05-71","roomType":"social","__tile":"17/72476/45848","__layer":"rooms","__zoom":17,"__mvtId":3113,"__building":"deli","__ringVerts":5,"id":3113,"catalogFloorId":25},"geometry":{"type":"Polygon","coordinates":[[[19.062602462,47.4719957],[19.062607826,47.472012018],[19.062597097,47.472013377],[19.062592403,47.47199706],[19.062602462,47.4719957]]]}},{"type":"Feature","id":3397,"properties":{"buildingId":1,"floorId":25,"roomNumber":"0-107","roomName":"0-107 Mosdó-zuhany","scope":"budapest/lagymanyos/deli/0/LD-0-107-05-71","roomCode":"LD-0-107-05-71","roomType":"social","__tile":"17/72476/45848","__layer":"rooms","__zoom":17,"__mvtId":3397,"__building":"deli","__ringVerts":5,"id":3397,"catalogFloorId":25},"geometry":{"type":"Polygon","coordinates":[[[19.062573394,47.47219372],[19.062576076,47.472200972],[19.062545231,47.472205505],[19.062543219,47.472197799],[19.062573394,47.47219372]]]}},{"type":"Feature","id":3175,"properties":{"buildingId":1,"floorId":25,"roomNumber":"0-607","roomName":"0-607 Rtg. Diffrakció labor","scope":"budapest/lagymanyos/deli/0/LD-0-607-01-14","roomCode":"LD-0-607-01-14","roomType":"educational","__tile":"17/72476/45848","__layer":"rooms","__zoom":17,"__mvtId":3175,"__building":"deli","__ringVerts":5,"id":3175,"catalogFloorId":25},"geometry":{"type":"Polygon","coordinates":[[[19.062755939,47.471993398],[19.062771362,47.472044617],[19.062731129,47.472050056],[19.062715706,47.471999291],[19.062755939,47.471993398]]]}},{"type":"Feature","id":3289,"properties":{"buildingId":1,"floorId":25,"roomNumber":"0-704","roomName":"0-704 Mikroszkóp és doktorandusz, szakdolg.","scope":"budapest/lagymanyos/deli/0/LD-0-704-01-14","roomCode":"LD-0-704-01-14","roomType":"educational","__tile":"17/72476/45848","__layer":"rooms","__zoom":17,"__mvtId":3289,"__building":"deli","__ringVerts":5,"id":3289,"catalogFloorId":25},"geometry":{"type":"Polygon","coordinates":[[[19.062642507,47.472083803],[19.062650554,47.472110999],[19.062575452,47.472121424],[19.062566735,47.472094228],[19.062642507,47.472083803]]]}},{"type":"Feature","id":3521,"properties":{"buildingId":1,"floorId":25,"roomNumber":"0-105","roomName":"0-105 Férfi WC csoport","scope":"budapest/lagymanyos/deli/0/LD-0-105-05-71","roomCode":"LD-0-105-05-71","roomType":"social","__tile":"17/72476/45848","__layer":"rooms","__zoom":17,"__mvtId":3521,"__building":"deli","__ringVerts":5,"id":3521,"catalogFloorId":25},"geometry":{"type":"Polygon","coordinates":[[[19.062605262,47.472227353],[19.062611297,47.472248203],[19.062567711,47.472254096],[19.062561676,47.472233245],[19.062605262,47.472227353]]]}},{"type":"Feature","id":3644,"properties":{"buildingId":1,"floorId":25,"roomNumber":"0-708","roomName":"0-708 Előtér","scope":"budapest/lagymanyos/deli/0/LD-0-708-04-63","roomCode":"LD-0-708-04-63","roomType":"corridor","__tile":"17/72476/45848","__layer":"rooms","__zoom":17,"__mvtId":3644,"__building":"deli","__ringVerts":5,"id":3644,"catalogFloorId":25},"geometry":{"type":"Polygon","coordinates":[[[19.062632609,47.472012741],[19.062635962,47.472023619],[19.062587682,47.472030418],[19.062584329,47.47201954],[19.062632609,47.472012741]]]}},{"type":"Feature","id":3523,"properties":{"buildingId":1,"floorId":25,"roomNumber":"0-721","roomName":"0-721 Másoló","scope":"budapest/lagymanyos/deli/0/LD-0-721-01-14","roomCode":"LD-0-721-01-14","roomType":"educational","__tile":"17/72476/45848","__layer":"rooms","__zoom":17,"__mvtId":3523,"__building":"deli","__ringVerts":5,"id":3523,"catalogFloorId":25},"geometry":{"type":"Polygon","coordinates":[[[19.062495605,47.472122157],[19.062503652,47.472149353],[19.06242855,47.472159778],[19.062419833,47.472132582],[19.062495605,47.472122157]]]}},{"type":"Feature","id":2773,"properties":{"buildingId":1,"floorId":25,"roomNumber":"0-114","roomName":"0-114 Lépcsőház","scope":"budapest/lagymanyos/deli/0/LD-0-114-04-64","roomCode":"LD-0-114-04-64","roomType":"corridor","__tile":"17/72476/45848","__layer":"rooms","__zoom":17,"__mvtId":2773,"__building":"deli","__ringVerts":5,"id":2773,"catalogFloorId":25},"geometry":{"type":"Polygon","coordinates":[[[19.062975463,47.472400566],[19.062982839,47.472425496],[19.062901703,47.472435014],[19.062894326,47.472411898],[19.062975463,47.472400566]]]}},{"type":"Feature","id":2239,"properties":{"buildingId":1,"floorId":25,"roomNumber":"0-406","roomName":"0-406 Mosdó-zuhany GOLD FLAME BT","scope":"budapest/lagymanyos/deli/0/LD-0-406-05-71","roomCode":"LD-0-406-05-71","roomType":"social","__tile":"17/72476/45848","__layer":"rooms","__zoom":17,"__mvtId":2239,"__building":"deli","__ringVerts":7,"id":2239,"catalogFloorId":25},"geometry":{"type":"Polygon","coordinates":[[[19.062958591,47.47246789],[19.062960603,47.472475143],[19.062948533,47.472476503],[19.062951215,47.472484208],[19.062935792,47.472484208],[19.062931769,47.472471517],[19.062958591,47.47246789]]]}},{"type":"Feature","id":3786,"properties":{"buildingId":1,"floorId":25,"roomNumber":"0-408","roomName":"0-408 Tanterem","scope":"budapest/lagymanyos/deli/0/LD-0-408-01-12","roomCode":"LD-0-408-01-12","roomType":"educational","__tile":"17/72476/45848","__layer":"rooms","__zoom":17,"__mvtId":3786,"__building":"deli","__ringVerts":5,"id":3786,"catalogFloorId":25},"geometry":{"type":"Polygon","coordinates":[[[19.062951488,47.47247806],[19.062959535,47.472504803],[19.062884433,47.472515228],[19.062876386,47.472488485],[19.062951488,47.47247806]]]}},{"type":"Feature","id":3846,"properties":{"buildingId":1,"floorId":25,"roomNumber":"0-409","roomName":"0-409 (kizárólag tsz. használatra)","scope":"budapest/lagymanyos/deli/0/LD-0-409-01-12","roomCode":"LD-0-409-01-12","roomType":"educational","__tile":"17/72476/45848","__layer":"rooms","__zoom":17,"__mvtId":3846,"__building":"deli","__ringVerts":5,"id":3846,"catalogFloorId":25},"geometry":{"type":"Polygon","coordinates":[[[19.062942958,47.472505773],[19.062951675,47.47253297],[19.062875903,47.472543395],[19.062867856,47.472516199],[19.062942958,47.472505773]]]}},{"type":"Feature","id":2864,"properties":{"buildingId":1,"floorId":25,"roomNumber":"0-222","roomName":"0-222","scope":"budapest/lagymanyos/deli/0/LD-0-222-01-12","roomCode":"LD-0-222-01-12","roomType":"educational","__tile":"17/72476/45848","__layer":"rooms","__zoom":17,"__mvtId":2864,"__building":"deli","__ringVerts":5,"id":2864,"catalogFloorId":25},"geometry":{"type":"Polygon","coordinates":[[[19.062533446,47.472424482],[19.062549539,47.472479328],[19.062474437,47.472489753],[19.062457673,47.472434454],[19.062533446,47.472424482]]]}},{"type":"Feature","id":3074,"properties":{"buildingId":1,"floorId":25,"roomNumber":"0-407","roomName":"0-407 WC GOLD FLAME BT","scope":"budapest/lagymanyos/deli/0/LD-0-407-05-71","roomCode":"LD-0-407-05-71","roomType":"social","__tile":"17/72476/45848","__layer":"rooms","__zoom":17,"__mvtId":3074,"__building":"deli","__ringVerts":5,"id":3074,"catalogFloorId":25},"geometry":{"type":"Polygon","coordinates":[[[19.062964589,47.472457656],[19.062969953,47.472475787],[19.062959895,47.472477146],[19.06295453,47.472459016],[19.062964589,47.472457656]]]}},{"type":"Feature","id":3176,"properties":{"buildingId":1,"floorId":25,"roomNumber":"0-117","roomName":"0-117 Interaktív tanulótér","scope":"budapest/lagymanyos/deli/0/LD-0-117-04-63","roomCode":"LD-0-117-04-63","roomType":"corridor","__tile":"17/72476/45848","__layer":"rooms","__zoom":17,"__mvtId":3176,"__building":"deli","__ringVerts":14,"id":3176,"catalogFloorId":25},"geometry":{"type":"Polygon","coordinates":[[[19.06291961,47.472301928],[19.062933021,47.472357226],[19.062853226,47.472368558],[19.062823721,47.472372184],[19.062807628,47.472317339],[19.062837132,47.472313259],[19.062839144,47.472321418],[19.062851214,47.472320058],[19.062849202,47.4723119],[19.062878707,47.47230782],[19.062880718,47.472315979],[19.062892788,47.472314166],[19.062890777,47.472306007],[19.06291961,47.472301928]]]}},{"type":"Feature","id":3340,"properties":{"buildingId":1,"floorId":25,"roomNumber":"0-405","roomName":"0-405 Előtér GOLD FLAME BT","scope":"budapest/lagymanyos/deli/0/LD-0-405-04-63","roomCode":"LD-0-405-04-63","roomType":"corridor","__tile":"17/72476/45848","__layer":"rooms","__zoom":17,"__mvtId":3340,"__building":"deli","__ringVerts":5,"id":3340,"catalogFloorId":25},"geometry":{"type":"Polygon","coordinates":[[[19.062954249,47.472455522],[19.062957602,47.4724664],[19.062942179,47.472468214],[19.062938826,47.472455522],[19.062954249,47.472455522]]]}},{"type":"Feature","id":3474,"properties":{"buildingId":1,"floorId":25,"roomNumber":"0-104","roomName":"0-104 Férfi WC előtér","scope":"budapest/lagymanyos/deli/0/LD-0-104-04-63","roomCode":"LD-0-104-04-63","roomType":"corridor","__tile":"17/72476/45848","__layer":"rooms","__zoom":17,"__mvtId":3474,"__building":"deli","__ringVerts":5,"id":3474,"catalogFloorId":25},"geometry":{"type":"Polygon","coordinates":[[[19.062560684,47.472223765],[19.06256806,47.472250054],[19.062541909,47.47225368],[19.062533862,47.472227391],[19.062560684,47.472223765]]]}},{"type":"Feature","id":2939,"properties":{"buildingId":1,"floorId":25,"roomNumber":"0-109","roomName":"0-109 Előtér","scope":"budapest/lagymanyos/deli/0/LD-0-109-04-63","roomCode":"LD-0-109-04-63","roomType":"corridor","__tile":"17/72476/45848","__layer":"rooms","__zoom":17,"__mvtId":2939,"__building":"deli","__ringVerts":5,"id":2939,"catalogFloorId":25},"geometry":{"type":"Polygon","coordinates":[[[19.06257015,47.472202266],[19.062573503,47.472212691],[19.062542657,47.472217223],[19.062539975,47.472206345],[19.06257015,47.472202266]]]}},{"type":"Feature","id":2222,"properties":{"buildingId":1,"floorId":25,"roomNumber":"0-720","roomName":"0-720 Oktató","scope":"budapest/lagymanyos/deli/0/LD-0-720-01-13","roomCode":"LD-0-720-01-13","roomType":"educational","__tile":"17/72476/45848","__layer":"rooms","__zoom":17,"__mvtId":2222,"__building":"deli","__ringVerts":5,"id":2222,"catalogFloorId":25},"geometry":{"type":"Polygon","coordinates":[[[19.062503799,47.472094043],[19.062512516,47.472121239],[19.062436744,47.472131664],[19.062428697,47.472104468],[19.062503799,47.472094043]]]}},{"type":"Feature","id":2945,"properties":{"buildingId":1,"floorId":25,"roomNumber":"0-718","roomName":"0-718 Oktató","scope":"budapest/lagymanyos/deli/0/LD-0-718-01-13","roomCode":"LD-0-718-01-13","roomType":"educational","__tile":"17/72476/45848","__layer":"rooms","__zoom":17,"__mvtId":2945,"__building":"deli","__ringVerts":5,"id":2945,"catalogFloorId":25},"geometry":{"type":"Polygon","coordinates":[[[19.062516732,47.472071282],[19.062524778,47.472098477],[19.062493262,47.47210301],[19.062485216,47.472075814],[19.062516732,47.472071282]]]}},{"type":"Feature","id":3029,"properties":{"buildingId":1,"floorId":25,"roomNumber":"0-203","roomName":"0-203 Diáktanácsadó","scope":"budapest/lagymanyos/deli/0/LD-0-203-02-33","roomCode":"LD-0-203-02-33","roomType":"administrative","__tile":"17/72476/45848","__layer":"rooms","__zoom":17,"__mvtId":3029,"__building":"deli","__ringVerts":7,"id":3029,"catalogFloorId":25},"geometry":{"type":"Polygon","coordinates":[[[19.062258778,47.47235119],[19.062266154,47.472375213],[19.062258108,47.472376119],[19.062260119,47.472383372],[19.062227262,47.472387904],[19.062217874,47.472357082],[19.062258778,47.47235119]]]}},{"type":"Feature","id":3597,"properties":{"buildingId":1,"floorId":25,"roomNumber":"0-110","roomName":"0-110 Lépcsőház","scope":"budapest/lagymanyos/deli/0/LD-0-110-04-64","roomCode":"LD-0-110-04-64","roomType":"corridor","__tile":"17/72476/45848","__layer":"rooms","__zoom":17,"__mvtId":3597,"__building":"deli","__ringVerts":5,"id":3597,"catalogFloorId":25},"geometry":{"type":"Polygon","coordinates":[[[19.062569446,47.472345177],[19.062576152,47.472368747],[19.062495686,47.472379625],[19.06248898,47.472356509],[19.062569446,47.472345177]]]}},{"type":"Feature","id":3785,"properties":{"buildingId":1,"floorId":25,"roomNumber":"0-204","roomName":"0-204 Oktató","scope":"budapest/lagymanyos/deli/0/LD-0-204-01-13","roomCode":"LD-0-204-01-13","roomType":"educational","__tile":"17/72476/45848","__layer":"rooms","__zoom":17,"__mvtId":3785,"__building":"deli","__ringVerts":7,"id":3785,"catalogFloorId":25},"geometry":{"type":"Polygon","coordinates":[[[19.062311024,47.472337307],[19.062325106,47.472384447],[19.062280179,47.472395326],[19.062272802,47.472374475],[19.06228219,47.472373569],[19.062271461,47.472342747],[19.062311024,47.472337307]]]}},{"type":"Feature","id":3682,"properties":{"buildingId":1,"floorId":25,"roomNumber":"0-723","roomName":"0-723 Oktató","scope":"budapest/lagymanyos/deli/0/LD-0-723-01-13","roomCode":"LD-0-723-01-13","roomType":"educational","__tile":"17/72476/45848","__layer":"rooms","__zoom":17,"__mvtId":3682,"__building":"deli","__ringVerts":5,"id":3682,"catalogFloorId":25},"geometry":{"type":"Polygon","coordinates":[[[19.06249075,47.472155892],[19.062499467,47.472186261],[19.062467951,47.472190794],[19.062458563,47.472160425],[19.06249075,47.472155892]]]}},{"type":"Feature","id":2542,"properties":{"buildingId":1,"floorId":25,"roomNumber":"0-611","roomName":"0-611 Hűtő","scope":"budapest/lagymanyos/deli/0/LD-0-611-01-14","roomCode":"LD-0-611-01-14","roomType":"educational","__tile":"17/72476/45848","__layer":"rooms","__zoom":17,"__mvtId":2542,"__building":"deli","__ringVerts":5,"id":2542,"catalogFloorId":25},"geometry":{"type":"Polygon","coordinates":[[[19.062880698,47.472030867],[19.062888744,47.47205625],[19.062848511,47.472061689],[19.062840464,47.472036306],[19.062880698,47.472030867]]]}},{"type":"Feature","id":3081,"properties":{"buildingId":1,"floorId":25,"roomNumber":"0-610","roomName":"0-610 Fotó","scope":"budapest/lagymanyos/deli/0/LD-0-610-01-14","roomCode":"LD-0-610-01-14","roomType":"educational","__tile":"17/72476/45848","__layer":"rooms","__zoom":17,"__mvtId":3081,"__building":"deli","__ringVerts":5,"id":3081,"catalogFloorId":25},"geometry":{"type":"Polygon","coordinates":[[[19.062888638,47.472007897],[19.062895344,47.4720292],[19.06285511,47.47203464],[19.062848405,47.472013336],[19.062888638,47.472007897]]]}},{"type":"Feature","id":2231,"properties":{"buildingId":1,"floorId":25,"roomNumber":"0-706","roomName":"0-706 Doktorandusz szoba","scope":"budapest/lagymanyos/deli/0/LD-0-706-01-13","roomCode":"LD-0-706-01-13","roomType":"educational","__tile":"17/72476/45848","__layer":"rooms","__zoom":17,"__mvtId":2231,"__building":"deli","__ringVerts":6,"id":2231,"catalogFloorId":25},"geometry":{"type":"Polygon","coordinates":[[[19.062654508,47.472027626],[19.062661214,47.472048476],[19.062655179,47.472054368],[19.062586782,47.472063887],[19.062579406,47.472038051],[19.062654508,47.472027626]]]}},{"type":"Feature","id":2381,"properties":{"buildingId":1,"floorId":25,"roomNumber":"0-703","roomName":"0-703 Mérleg és hallg.számítógép szoba","scope":"budapest/lagymanyos/deli/0/LD-0-703-01-12","roomCode":"LD-0-703-01-12","roomType":"educational","__tile":"17/72476/45848","__layer":"rooms","__zoom":17,"__mvtId":2381,"__building":"deli","__ringVerts":5,"id":2381,"catalogFloorId":25},"geometry":{"type":"Polygon","coordinates":[[[19.06263391,47.472111918],[19.062641957,47.472139114],[19.062566855,47.472149539],[19.062558808,47.472122343],[19.06263391,47.472111918]]]}},{"type":"Feature","id":2906,"properties":{"buildingId":1,"floorId":25,"roomNumber":"0-715","roomName":"0-715 Oktató","scope":"budapest/lagymanyos/deli/0/LD-0-715-01-13","roomCode":"LD-0-715-01-13","roomType":"educational","__tile":"17/72476/45848","__layer":"rooms","__zoom":17,"__mvtId":2906,"__building":"deli","__ringVerts":5,"id":2906,"catalogFloorId":25},"geometry":{"type":"Polygon","coordinates":[[[19.062537916,47.471981585],[19.062545963,47.47200878],[19.062470861,47.472019206],[19.062462144,47.47199201],[19.062537916,47.471981585]]]}},{"type":"Feature","id":2964,"properties":{"buildingId":1,"floorId":25,"roomNumber":"0-717","roomName":"0-717 Oktató","scope":"budapest/lagymanyos/deli/0/LD-0-717-01-13","roomCode":"LD-0-717-01-13","roomType":"educational","__tile":"17/72476/45848","__layer":"rooms","__zoom":17,"__mvtId":2964,"__building":"deli","__ringVerts":5,"id":2964,"catalogFloorId":25},"geometry":{"type":"Polygon","coordinates":[[[19.062482666,47.472065461],[19.062490713,47.472092657],[19.062448468,47.472098549],[19.062440421,47.472071353],[19.062482666,47.472065461]]]}},{"type":"Feature","id":3072,"properties":{"buildingId":1,"floorId":25,"roomNumber":"0-702","roomName":"0-702 Fluidzárvány labor","scope":"budapest/lagymanyos/deli/0/LD-0-702-01-14","roomCode":"LD-0-702-01-14","roomType":"educational","__tile":"17/72476/45848","__layer":"rooms","__zoom":17,"__mvtId":3072,"__building":"deli","__ringVerts":5,"id":3072,"catalogFloorId":25},"geometry":{"type":"Polygon","coordinates":[[[19.062625716,47.472140032],[19.062633763,47.472167228],[19.062557991,47.472177653],[19.062549944,47.472150457],[19.062625716,47.472140032]]]}},{"type":"Feature","id":3266,"properties":{"buildingId":1,"floorId":25,"roomNumber":"0-609","roomName":"0-609 Rtg. pordiffrakció","scope":"budapest/lagymanyos/deli/0/LD-0-609-01-14","roomCode":"LD-0-609-01-14","roomType":"educational","__tile":"17/72476/45848","__layer":"rooms","__zoom":17,"__mvtId":3266,"__building":"deli","__ringVerts":5,"id":3266,"catalogFloorId":25},"geometry":{"type":"Polygon","coordinates":[[[19.062839124,47.472004929],[19.062854547,47.472056148],[19.062814314,47.472061587],[19.062798891,47.472010368],[19.062839124,47.472004929]]]}},{"type":"Feature","id":3375,"properties":{"buildingId":1,"floorId":25,"roomNumber":"0-612","roomName":"0-612 TEM labor","scope":"budapest/lagymanyos/deli/0/LD-0-612-01-14","roomCode":"LD-0-612-01-14","roomType":"educational","__tile":"17/72476/45848","__layer":"rooms","__zoom":17,"__mvtId":3375,"__building":"deli","__ringVerts":5,"id":3375,"catalogFloorId":25},"geometry":{"type":"Polygon","coordinates":[[[19.062922309,47.472016459],[19.062937732,47.472067225],[19.062897499,47.472073118],[19.062882076,47.472021899],[19.062922309,47.472016459]]]}},{"type":"Feature","id":3557,"properties":{"buildingId":1,"floorId":25,"roomNumber":"0-701","roomName":"0-701 Derivatográf labor","scope":"budapest/lagymanyos/deli/0/LD-0-701-01-14","roomCode":"LD-0-701-01-14","roomType":"educational","__tile":"17/72476/45848","__layer":"rooms","__zoom":17,"__mvtId":3557,"__building":"deli","__ringVerts":5,"id":3557,"catalogFloorId":25},"geometry":{"type":"Polygon","coordinates":[[[19.062616986,47.472168147],[19.062625033,47.472195343],[19.062549931,47.472205768],[19.062541884,47.472178572],[19.062616986,47.472168147]]]}},{"type":"Feature","id":3704,"properties":{"buildingId":1,"floorId":25,"roomNumber":"0-716","roomName":"0-716 Doktorandusz szoba","scope":"budapest/lagymanyos/deli/0/LD-0-716-01-13","roomCode":"LD-0-716-01-13","roomType":"educational","__tile":"17/72476/45848","__layer":"rooms","__zoom":17,"__mvtId":3704,"__building":"deli","__ringVerts":5,"id":3704,"catalogFloorId":25},"geometry":{"type":"Polygon","coordinates":[[[19.06252932,47.4720097],[19.062537367,47.472036896],[19.062462265,47.472047321],[19.062454218,47.472020125],[19.06252932,47.4720097]]]}},{"type":"Feature","id":3663,"properties":{"buildingId":1,"floorId":25,"roomNumber":"0-210","roomName":"0-210 Mikropaleontológiai laboratórium","scope":"budapest/lagymanyos/deli/0/LD-0-210-01-14","roomCode":"LD-0-210-01-14","roomType":"educational","__tile":"17/72476/45848","__layer":"rooms","__zoom":17,"__mvtId":3663,"__building":"deli","__ringVerts":5,"id":3663,"catalogFloorId":25},"geometry":{"type":"Polygon","coordinates":[[[19.062364351,47.47257718],[19.062372397,47.472604377],[19.062338199,47.472608909],[19.062330152,47.472581713],[19.062364351,47.47257718]]]}},{"type":"Feature","id":3730,"properties":{"buildingId":1,"floorId":25,"roomNumber":"0-616/1","roomName":"0-616/1 Előtér","scope":"budapest/lagymanyos/deli/0/LD-0-616-1-04-63","roomCode":"LD-0-616/1-04-63","roomType":"corridor","__tile":"17/72476/45848","__layer":"rooms","__zoom":17,"__mvtId":3730,"__building":"deli","__ringVerts":5,"id":3730,"catalogFloorId":25},"geometry":{"type":"Polygon","coordinates":[[[19.062634208,47.471919935],[19.062639573,47.471935799],[19.06262348,47.471937612],[19.062618786,47.471921748],[19.062634208,47.471919935]]]}},{"type":"Feature","id":3300,"properties":{"buildingId":1,"floorId":25,"roomNumber":"0-526","roomName":"0-526 Előtér","scope":"budapest/lagymanyos/deli/0/LD-0-526-04-63","roomCode":"LD-0-526-04-63","roomType":"corridor","__tile":"17/72476/45848","__layer":"rooms","__zoom":17,"__mvtId":3300,"__building":"deli","__ringVerts":5,"id":3300,"catalogFloorId":25},"geometry":{"type":"Polygon","coordinates":[[[19.063001166,47.472298848],[19.063004519,47.472309726],[19.062989766,47.472313352],[19.062985743,47.472300661],[19.063001166,47.472298848]]]}},{"type":"Feature","id":2300,"properties":{"buildingId":1,"floorId":25,"roomNumber":"0-522","roomName":"0-522 Látássérült hallgatók laboratóriuma","scope":"budapest/lagymanyos/deli/0/LD-0-522-01-14","roomCode":"LD-0-522-01-14","roomType":"educational","__tile":"17/72476/45848","__layer":"rooms","__zoom":17,"__mvtId":2300,"__building":"deli","__ringVerts":5,"id":2300,"catalogFloorId":25},"geometry":{"type":"Polygon","coordinates":[[[19.063019316,47.472252707],[19.063027363,47.47227945],[19.062952261,47.472289875],[19.062944214,47.472263132],[19.063019316,47.472252707]]]}},{"type":"Feature","id":2594,"properties":{"buildingId":1,"floorId":25,"roomNumber":"0-523","roomName":"0-523 Férfi öltöző","scope":"budapest/lagymanyos/deli/0/LD-0-523-05-73","roomCode":"LD-0-523-05-73","roomType":"social","__tile":"17/72476/45848","__layer":"rooms","__zoom":17,"__mvtId":2594,"__building":"deli","__ringVerts":6,"id":2594,"catalogFloorId":25},"geometry":{"type":"Polygon","coordinates":[[[19.062986201,47.472280334],[19.062994248,47.472306623],[19.062950662,47.472312516],[19.062944627,47.472291212],[19.062949991,47.47228532],[19.062986201,47.472280334]]]}},{"type":"Feature","id":2854,"properties":{"buildingId":1,"floorId":25,"roomNumber":"0-527","roomName":"0-527 Férfi WC csoport","scope":"budapest/lagymanyos/deli/0/LD-0-527-05-71","roomCode":"LD-0-527-05-71","roomType":"social","__tile":"17/72476/45848","__layer":"rooms","__zoom":17,"__mvtId":2854,"__building":"deli","__ringVerts":8,"id":2854,"catalogFloorId":25},"geometry":{"type":"Polygon","coordinates":[[[19.062982936,47.472300515],[19.062989642,47.472322725],[19.062952091,47.472327711],[19.062946726,47.47233315],[19.062937339,47.472329524],[19.062944044,47.472322725],[19.06293935,47.472306861],[19.062982936,47.472300515]]]}},{"type":"Feature","id":3212,"properties":{"buildingId":1,"floorId":25,"roomNumber":"0-725","roomName":"0-725 Oktató","scope":"budapest/lagymanyos/deli/0/LD-0-725-01-13","roomCode":"LD-0-725-01-13","roomType":"educational","__tile":"17/72476/45848","__layer":"rooms","__zoom":17,"__mvtId":3212,"__building":"deli","__ringVerts":5,"id":3212,"catalogFloorId":25},"geometry":{"type":"Polygon","coordinates":[[[19.062389577,47.472195862],[19.062400305,47.472225778],[19.062319169,47.472236656],[19.062311793,47.472206741],[19.062389577,47.472195862]]]}},{"type":"Feature","id":3332,"properties":{"buildingId":1,"floorId":25,"roomNumber":"0-714","roomName":"0-714 Oktató","scope":"budapest/lagymanyos/deli/0/LD-0-714-01-13","roomCode":"LD-0-714-01-13","roomType":"educational","__tile":"17/72476/45848","__layer":"rooms","__zoom":17,"__mvtId":3332,"__building":"deli","__ringVerts":5,"id":3332,"catalogFloorId":25},"geometry":{"type":"Polygon","coordinates":[[[19.062546512,47.47195338],[19.062554559,47.471981029],[19.062478787,47.471991001],[19.06247074,47.471963805],[19.062546512,47.47195338]]]}},{"type":"Feature","id":3526,"properties":{"buildingId":1,"floorId":25,"roomNumber":"0-528","roomName":"0-528 Férfi WC előtér","scope":"budapest/lagymanyos/deli/0/LD-0-528-04-63","roomCode":"LD-0-528-04-63","roomType":"corridor","__tile":"17/72476/45848","__layer":"rooms","__zoom":17,"__mvtId":3526,"__building":"deli","__ringVerts":5,"id":3526,"catalogFloorId":25},"geometry":{"type":"Polygon","coordinates":[[[19.063008239,47.472313697],[19.063014944,47.472335453],[19.062984769,47.472339533],[19.062978064,47.472317776],[19.063008239,47.472313697]]]}},{"type":"Feature","id":3488,"properties":{"buildingId":1,"floorId":25,"roomNumber":"0-713","roomName":"0-713 Oktató","scope":"budapest/lagymanyos/deli/0/LD-0-713-01-13","roomCode":"LD-0-713-01-13","roomType":"educational","__tile":"17/72476/45848","__layer":"rooms","__zoom":17,"__mvtId":3488,"__building":"deli","__ringVerts":5,"id":3488,"catalogFloorId":25},"geometry":{"type":"Polygon","coordinates":[[[19.062554706,47.471925265],[19.062562753,47.471952914],[19.062487651,47.471962886],[19.062479604,47.47193569],[19.062554706,47.471925265]]]}},{"type":"Feature","id":3815,"properties":{"buildingId":1,"floorId":25,"roomNumber":"0-205","roomName":"0-205 Oktató","scope":"budapest/lagymanyos/deli/0/LD-0-205-01-13","roomCode":"LD-0-205-01-13","roomType":"educational","__tile":"17/72476/45848","__layer":"rooms","__zoom":17,"__mvtId":3815,"__building":"deli","__ringVerts":5,"id":3815,"catalogFloorId":25},"geometry":{"type":"Polygon","coordinates":[[[19.062344987,47.472354213],[19.062355716,47.472393194],[19.062319506,47.472406339],[19.062305424,47.472359652],[19.062344987,47.472354213]]]}},{"type":"Feature","id":3710,"properties":{"buildingId":1,"floorId":25,"roomNumber":"0-719","roomName":"0-719 Oktató","scope":"budapest/lagymanyos/deli/0/LD-0-719-01-13","roomCode":"LD-0-719-01-13","roomType":"educational","__tile":"17/72476/45848","__layer":"rooms","__zoom":17,"__mvtId":3710,"__building":"deli","__ringVerts":5,"id":3710,"catalogFloorId":25},"geometry":{"type":"Polygon","coordinates":[[[19.062521124,47.472037814],[19.062529171,47.47206501],[19.062453399,47.472075435],[19.062445352,47.472048239],[19.062521124,47.472037814]]]}},{"type":"Feature","id":3757,"properties":{"buildingId":1,"floorId":25,"roomNumber":"0-512","roomName":"0-512 Közlekedő","scope":"budapest/lagymanyos/deli/0/LD-0-512-04-63 (1)","roomCode":"LD-0-512-04-63 (1)","roomType":"corridor","__tile":"17/72476/45848","__layer":"rooms","__zoom":17,"__mvtId":3757,"__building":"deli","__ringVerts":5,"id":3757,"catalogFloorId":25},"geometry":{"type":"Polygon","coordinates":[[[19.063091178,47.47207575],[19.06309386,47.472086628],[19.063045581,47.472093427],[19.063042228,47.472082549],[19.063091178,47.47207575]]]}},{"type":"Feature","id":2429,"properties":{"buildingId":1,"floorId":25,"roomNumber":"0-501","roomName":"0-501 Kozettani gyakorló","scope":"budapest/lagymanyos/deli/0/LD-0-501-01-14","roomCode":"LD-0-501-01-14","roomType":"educational","__tile":"17/72476/45848","__layer":"rooms","__zoom":17,"__mvtId":2429,"__building":"deli","__ringVerts":5,"id":2429,"catalogFloorId":25},"geometry":{"type":"Polygon","coordinates":[[[19.063125632,47.472304236],[19.063150442,47.472387638],[19.06307534,47.472398063],[19.06305053,47.472314662],[19.063125632,47.472304236]]]}},{"type":"Feature","id":2530,"properties":{"buildingId":1,"floorId":25,"roomNumber":"0-506","roomName":"0-506 Oktató","scope":"budapest/lagymanyos/deli/0/LD-0-506-01-14","roomCode":"LD-0-506-01-14","roomType":"educational","__tile":"17/72476/45848","__layer":"rooms","__zoom":17,"__mvtId":2530,"__building":"deli","__ringVerts":5,"id":2530,"catalogFloorId":25},"geometry":{"type":"Polygon","coordinates":[[[19.063174882,47.472186277],[19.063182929,47.472213473],[19.063107157,47.472223898],[19.06309911,47.472196702],[19.063174882,47.472186277]]]}},{"type":"Feature","id":3859,"properties":{"buildingId":1,"floorId":25,"roomNumber":"0-821","roomName":"0-821 Bolyai János terem","scope":"budapest/lagymanyos/deli/0/LD-0-821-01-12","roomCode":"LD-0-821-01-12","roomType":"educational","__tile":"17/72476/45848","__layer":"rooms","__zoom":17,"__mvtId":3859,"__building":"deli","__ringVerts":10,"id":3859,"catalogFloorId":25},"geometry":{"type":"Polygon","coordinates":[[[19.062340291,47.471763208],[19.062398629,47.471956752],[19.062210203,47.471982588],[19.062204839,47.471968536],[19.062168629,47.471926383],[19.062151865,47.471890122],[19.062146501,47.471853408],[19.062154548,47.471803549],[19.062150524,47.471789497],[19.062340291,47.471763208]]]}},{"type":"Feature","id":2374,"properties":{"buildingId":1,"floorId":25,"roomNumber":"0-824","roomName":"0-824 FérfiWC","scope":"budapest/lagymanyos/deli/0/LD-0-824-05-71","roomCode":"LD-0-824-05-71","roomType":"social","__tile":"17/72476/45848","__layer":"rooms","__zoom":17,"__mvtId":2374,"__building":"deli","__ringVerts":5,"id":2374,"catalogFloorId":25},"geometry":{"type":"Polygon","coordinates":[[[19.061834933,47.472419089],[19.06186779,47.472420902],[19.061865778,47.472433594],[19.061833592,47.472431781],[19.061834933,47.472419089]]]}},{"type":"Feature","id":3703,"properties":{"buildingId":1,"floorId":25,"roomNumber":"0-209","roomName":"0-209 Fotó","scope":"budapest/lagymanyos/deli/0/LD-0-209-01-14","roomCode":"LD-0-209-01-14","roomType":"educational","__tile":"17/72476/45848","__layer":"rooms","__zoom":17,"__mvtId":3703,"__building":"deli","__ringVerts":5,"id":3703,"catalogFloorId":25},"geometry":{"type":"Polygon","coordinates":[[[19.062328287,47.472571545],[19.062336334,47.472598741],[19.062296772,47.47260418],[19.062288054,47.472576984],[19.062328287,47.472571545]]]}},{"type":"Feature","id":3728,"properties":{"buildingId":1,"floorId":25,"roomNumber":"0-810","roomName":"0-810 Női WC előtér","scope":"budapest/lagymanyos/deli/0/LD-0-810-04-63","roomCode":"LD-0-810-04-63","roomType":"corridor","__tile":"17/72476/45848","__layer":"rooms","__zoom":17,"__mvtId":3728,"__building":"deli","__ringVerts":5,"id":3728,"catalogFloorId":25},"geometry":{"type":"Polygon","coordinates":[[[19.061795255,47.472310964],[19.061819394,47.472312324],[19.061817383,47.472326829],[19.061793913,47.472325469],[19.061795255,47.472310964]]]}},{"type":"Feature","id":2305,"properties":{"buildingId":1,"floorId":25,"roomNumber":"0-818","roomName":"0-818 Soó Rezso terem (k)","scope":"budapest/lagymanyos/deli/0/LD-0-818-01-12","roomCode":"LD-0-818-01-12","roomType":"educational","__tile":"17/72476/45848","__layer":"rooms","__zoom":17,"__mvtId":2305,"__building":"deli","__ringVerts":5,"id":2305,"catalogFloorId":25},"geometry":{"type":"Polygon","coordinates":[[[19.061947558,47.471842887],[19.062000531,47.471904984],[19.061908666,47.471940792],[19.061855692,47.471878695],[19.061947558,47.471842887]]]}},{"type":"Feature","id":2500,"properties":{"buildingId":1,"floorId":25,"roomNumber":"0-806","roomName":"0-806 Mozgáskorlátozott WC","scope":"budapest/lagymanyos/deli/0/LD-0-806-05-71","roomCode":"LD-0-806-05-71","roomType":"social","__tile":"17/72476/45848","__layer":"rooms","__zoom":17,"__mvtId":2500,"__building":"deli","__ringVerts":5,"id":2500,"catalogFloorId":25},"geometry":{"type":"Polygon","coordinates":[[[19.061808428,47.472410918],[19.061832568,47.472413638],[19.061829886,47.472434035],[19.061805746,47.472432675],[19.061808428,47.472410918]]]}},{"type":"Feature","id":2620,"properties":{"buildingId":1,"floorId":25,"roomNumber":"0-218","roomName":"0-218 WC","scope":"budapest/lagymanyos/deli/0/LD-0-218-05-71","roomCode":"LD-0-218-05-71","roomType":"social","__tile":"17/72476/45848","__layer":"rooms","__zoom":17,"__mvtId":2620,"__building":"deli","__ringVerts":5,"id":2620,"catalogFloorId":25},"geometry":{"type":"Polygon","coordinates":[[[19.062424726,47.472627756],[19.06242942,47.47264362],[19.062419361,47.472645433],[19.062413997,47.472629115],[19.062424726,47.472627756]]]}},{"type":"Feature","id":2648,"properties":{"buildingId":1,"floorId":25,"roomNumber":"0-726","roomName":"0-726 Mikroszkóp szoba","scope":"budapest/lagymanyos/deli/0/LD-0-726-01-14","roomCode":"LD-0-726-01-14","roomType":"educational","__tile":"17/72476/45848","__layer":"rooms","__zoom":17,"__mvtId":2648,"__building":"deli","__ringVerts":7,"id":2648,"catalogFloorId":25},"geometry":{"type":"Polygon","coordinates":[[[19.062303281,47.472191675],[19.062305292,47.472198928],[19.062313339,47.472197568],[19.062320715,47.472221591],[19.062279141,47.47222703],[19.062270423,47.472196208],[19.062303281,47.472191675]]]}},{"type":"Feature","id":2820,"properties":{"buildingId":1,"floorId":25,"roomNumber":"0-207","roomName":"0-207 Őslénytani preparáló laboratórium","scope":"budapest/lagymanyos/deli/0/LD-0-207-01-14","roomCode":"LD-0-207-01-14","roomType":"educational","__tile":"17/72476/45848","__layer":"rooms","__zoom":17,"__mvtId":2820,"__building":"deli","__ringVerts":5,"id":2820,"catalogFloorId":25},"geometry":{"type":"Polygon","coordinates":[[[19.062386487,47.472462145],[19.062403251,47.472517898],[19.062327479,47.472528323],[19.062310715,47.472473024],[19.062386487,47.472462145]]]}},{"type":"Feature","id":3043,"properties":{"buildingId":1,"floorId":25,"roomNumber":"0-216","roomName":"0-216 Előtér","scope":"budapest/lagymanyos/deli/0/LD-0-216-04-63","roomCode":"LD-0-216-04-63","roomType":"corridor","__tile":"17/72476/45848","__layer":"rooms","__zoom":17,"__mvtId":3043,"__building":"deli","__ringVerts":5,"id":3043,"catalogFloorId":25},"geometry":{"type":"Polygon","coordinates":[[[19.062451599,47.472614033],[19.062454952,47.472625365],[19.062406672,47.472631711],[19.062403319,47.472620832],[19.062451599,47.472614033]]]}},{"type":"Feature","id":2760,"properties":{"buildingId":1,"floorId":25,"roomNumber":"0-212","roomName":"0-212 Oktató","scope":"budapest/lagymanyos/deli/0/LD-0-212-01-13","roomCode":"LD-0-212-01-13","roomType":"educational","__tile":"17/72476/45848","__layer":"rooms","__zoom":17,"__mvtId":2760,"__building":"deli","__ringVerts":5,"id":2760,"catalogFloorId":25},"geometry":{"type":"Polygon","coordinates":[[[19.062343422,47.472628214],[19.062351469,47.472655411],[19.062275697,47.472665836],[19.06226765,47.47263864],[19.062343422,47.472628214]]]}},{"type":"Feature","id":2990,"properties":{"buildingId":1,"floorId":25,"roomNumber":"0-208","roomName":"0-208 Őslénytani kutatói laboratórium","scope":"budapest/lagymanyos/deli/0/LD-0-208-01-14","roomCode":"LD-0-208-01-14","roomType":"educational","__tile":"17/72476/45848","__layer":"rooms","__zoom":17,"__mvtId":2990,"__building":"deli","__ringVerts":5,"id":2990,"catalogFloorId":25},"geometry":{"type":"Polygon","coordinates":[[[19.062369295,47.472518373],[19.062386059,47.472574126],[19.062310957,47.472584551],[19.062294193,47.472529252],[19.062369295,47.472518373]]]}},{"type":"Feature","id":3208,"properties":{"buildingId":1,"floorId":25,"roomNumber":"0-722","roomName":"0-722 Doktorandusz és szakdolgozó szoba","scope":"budapest/lagymanyos/deli/0/LD-0-722-01-13","roomCode":"LD-0-722-01-13","roomType":"educational","__tile":"17/72476/45848","__layer":"rooms","__zoom":17,"__mvtId":3208,"__building":"deli","__ringVerts":5,"id":3208,"catalogFloorId":25},"geometry":{"type":"Polygon","coordinates":[[[19.062456288,47.472150346],[19.062465676,47.472180262],[19.062423431,47.472186154],[19.062414043,47.472155786],[19.062456288,47.472150346]]]}},{"type":"Feature","id":3345,"properties":{"buildingId":1,"floorId":25,"roomNumber":"0-605","roomName":"0-605 Lépcsőház","scope":"budapest/lagymanyos/deli/0/LD-0-605-04-64","roomCode":"LD-0-605-04-64","roomType":"corridor","__tile":"17/72476/45848","__layer":"rooms","__zoom":17,"__mvtId":3345,"__building":"deli","__ringVerts":5,"id":3345,"catalogFloorId":25},"geometry":{"type":"Polygon","coordinates":[[[19.06267822,47.471974175],[19.062684925,47.471997291],[19.062612506,47.472007263],[19.06260513,47.471984146],[19.06267822,47.471974175]]]}},{"type":"Feature","id":2682,"properties":{"buildingId":1,"floorId":25,"roomNumber":"0-108","roomName":"0-108 WC","scope":"budapest/lagymanyos/deli/0/LD-0-108-05-71","roomCode":"LD-0-108-05-71","roomType":"social","__tile":"17/72476/45848","__layer":"rooms","__zoom":17,"__mvtId":2682,"__building":"deli","__ringVerts":5,"id":2682,"catalogFloorId":25},"geometry":{"type":"Polygon","coordinates":[[[19.062568521,47.472214017],[19.062570533,47.47222127],[19.062546393,47.472224442],[19.062544381,47.472217643],[19.062568521,47.472214017]]]}},{"type":"Feature","id":2989,"properties":{"buildingId":1,"floorId":25,"roomNumber":"0-710","roomName":"0-710 WC","scope":"budapest/lagymanyos/deli/0/LD-0-710-05-71","roomCode":"LD-0-710-05-71","roomType":"social","__tile":"17/72476/45848","__layer":"rooms","__zoom":17,"__mvtId":2989,"__building":"deli","__ringVerts":5,"id":2989,"catalogFloorId":25},"geometry":{"type":"Polygon","coordinates":[[[19.062614457,47.471997306],[19.062619151,47.472013624],[19.062609092,47.472014983],[19.062603728,47.471998666],[19.062614457,47.471997306]]]}},{"type":"Feature","id":3600,"properties":{"buildingId":1,"floorId":25,"roomNumber":"0-116","roomName":"0-116 Interaktív tanulótér","scope":"budapest/lagymanyos/deli/0/LD-0-116-04-63","roomCode":"LD-0-116-04-63","roomType":"corridor","__tile":"17/72476/45848","__layer":"rooms","__zoom":17,"__mvtId":3600,"__building":"deli","__ringVerts":23,"id":3600,"catalogFloorId":25},"geometry":{"type":"Polygon","coordinates":[[[19.062790695,47.472281378],[19.062793377,47.472289537],[19.062805447,47.472287724],[19.062819528,47.47233441],[19.062615681,47.472362513],[19.062596235,47.472308121],[19.062624398,47.472304494],[19.06262708,47.4723122],[19.06263915,47.47231084],[19.062637138,47.472302681],[19.062665972,47.472298602],[19.062668654,47.472306761],[19.062680724,47.472304948],[19.062678712,47.472296789],[19.062707546,47.472292709],[19.062710228,47.472300868],[19.062722298,47.472299055],[19.062720287,47.47229135],[19.06274912,47.47228727],[19.062751803,47.472295429],[19.062763873,47.472293616],[19.062761861,47.472285457],[19.062790695,47.472281378]]]}},{"type":"Feature","id":3647,"properties":{"buildingId":1,"floorId":25,"roomNumber":"0-606","roomName":"0-606 Rtg. spektroszkópia labor","scope":"budapest/lagymanyos/deli/0/LD-0-606-01-14","roomCode":"LD-0-606-01-14","roomType":"educational","__tile":"17/72476/45848","__layer":"rooms","__zoom":17,"__mvtId":3647,"__building":"deli","__ringVerts":6,"id":3647,"catalogFloorId":25},"geometry":{"type":"Polygon","coordinates":[[[19.062718239,47.471990054],[19.062733661,47.472041273],[19.06269544,47.472046258],[19.062681358,47.472000025],[19.062686723,47.471994586],[19.062718239,47.471990054]]]}},{"type":"Feature","id":2654,"properties":{"buildingId":1,"floorId":25,"roomNumber":"0-112","roomName":"0-112 Női WC csoport","scope":"budapest/lagymanyos/deli/0/LD-0-112-05-71","roomCode":"LD-0-112-05-71","roomType":"social","__tile":"17/72476/45848","__layer":"rooms","__zoom":17,"__mvtId":2654,"__building":"deli","__ringVerts":5,"id":2654,"catalogFloorId":25},"geometry":{"type":"Polygon","coordinates":[[[19.062552339,47.47240316],[19.062558374,47.47242401],[19.062514788,47.472429903],[19.062508753,47.472409052],[19.062552339,47.47240316]]]}},{"type":"Feature","id":2354,"properties":{"buildingId":1,"floorId":25,"roomNumber":"0-404","roomName":"0-404 Női öltöző GOLD FLAME BT","scope":"budapest/lagymanyos/deli/0/LD-0-404-05-73","roomCode":"LD-0-404-05-73","roomType":"social","__tile":"17/72476/45848","__layer":"rooms","__zoom":17,"__mvtId":2354,"__building":"deli","__ringVerts":6,"id":2354,"catalogFloorId":25},"geometry":{"type":"Polygon","coordinates":[[[19.062934132,47.472448396],[19.062942178,47.472474686],[19.062905298,47.472479672],[19.062897251,47.472475592],[19.062890546,47.472454289],[19.062934132,47.472448396]]]}},{"type":"Feature","id":2366,"properties":{"buildingId":1,"floorId":25,"roomNumber":"0-724","roomName":"0-724 Ásványtani Tanszék Titkárság ","scope":"budapest/lagymanyos/deli/0/LD-0-724-02-33","roomCode":"LD-0-724-02-33","roomType":"administrative","__tile":"17/72476/45848","__layer":"rooms","__zoom":17,"__mvtId":2366,"__building":"deli","__ringVerts":5,"id":2366,"catalogFloorId":25},"geometry":{"type":"Polygon","coordinates":[[[19.062469396,47.472184242],[19.06248616,47.472240901],[19.062411058,47.472250872],[19.062395635,47.472194667],[19.062469396,47.472184242]]]}},{"type":"Feature","id":2975,"properties":{"buildingId":1,"floorId":25,"roomNumber":"0-217","roomName":"0-217 WC","scope":"budapest/lagymanyos/deli/0/LD-0-217-05-71","roomCode":"LD-0-217-05-71","roomType":"social","__tile":"17/72476/45848","__layer":"rooms","__zoom":17,"__mvtId":2975,"__building":"deli","__ringVerts":5,"id":2975,"catalogFloorId":25},"geometry":{"type":"Polygon","coordinates":[[[19.06241276,47.472626056],[19.062418124,47.472642374],[19.062407395,47.472643734],[19.062402701,47.472627416],[19.06241276,47.472626056]]]}},{"type":"Feature","id":3838,"properties":{"buildingId":1,"floorId":25,"roomNumber":"0-411","roomName":"0-411","scope":"budapest/lagymanyos/deli/0/LD-0-411-01-12","roomCode":"LD-0-411-01-12","roomType":"educational","__tile":"17/72476/45848","__layer":"rooms","__zoom":17,"__mvtId":3838,"__building":"deli","__ringVerts":5,"id":3838,"catalogFloorId":25},"geometry":{"type":"Polygon","coordinates":[[[19.06291845,47.472564817],[19.062935214,47.472620116],[19.062860112,47.472630541],[19.062843348,47.472575243],[19.06291845,47.472564817]]]}},{"type":"Feature","id":3816,"properties":{"buildingId":1,"floorId":25,"roomNumber":"0-221","roomName":"0-221","scope":"budapest/lagymanyos/deli/0/LD-0-221-01-12","roomCode":"LD-0-221-01-12","roomType":"educational","__tile":"17/72476/45848","__layer":"rooms","__zoom":17,"__mvtId":3816,"__building":"deli","__ringVerts":5,"id":3816,"catalogFloorId":25},"geometry":{"type":"Polygon","coordinates":[[[19.062516588,47.472480129],[19.062532681,47.472535881],[19.062457579,47.472545853],[19.062440815,47.472490554],[19.062516588,47.472480129]]]}},{"type":"Feature","id":3829,"properties":{"buildingId":1,"floorId":25,"roomNumber":"0-220","roomName":"0-220 Kárteszi Ferenc terem (matek szakmódszertan)","scope":"budapest/lagymanyos/deli/0/LD-0-220-01-12","roomCode":"LD-0-220-01-12","roomType":"educational","__tile":"17/72476/45848","__layer":"rooms","__zoom":17,"__mvtId":3829,"__building":"deli","__ringVerts":6,"id":3829,"catalogFloorId":25},"geometry":{"type":"Polygon","coordinates":[[[19.062483784,47.472544883],[19.062492501,47.472548963],[19.0625153,47.472626472],[19.062440198,47.472636444],[19.062415388,47.472554402],[19.062483784,47.472544883]]]}},{"type":"Feature","id":3857,"properties":{"buildingId":1,"floorId":25,"roomNumber":"0-825","roomName":"0-825 Farkas Gyula terem","scope":"budapest/lagymanyos/deli/0/LD-0-825-01-12","roomCode":"LD-0-825-01-12","roomType":"educational","__tile":"17/72476/45848","__layer":"rooms","__zoom":17,"__mvtId":3857,"__building":"deli","__ringVerts":5,"id":3857,"catalogFloorId":25},"geometry":{"type":"Polygon","coordinates":[[[19.061782334,47.472437108],[19.061876882,47.472442094],[19.0618742,47.472496033],[19.061776299,47.472490593],[19.061782334,47.472437108]]]}},{"type":"Feature","id":3858,"properties":{"buildingId":1,"floorId":25,"roomNumber":"0-826","roomName":"0-826","scope":"budapest/lagymanyos/deli/0/LD-0-826-01-12","roomCode":"LD-0-826-01-12","roomType":"educational","__tile":"17/72476/45848","__layer":"rooms","__zoom":17,"__mvtId":3858,"__building":"deli","__ringVerts":5,"id":3858,"catalogFloorId":25},"geometry":{"type":"Polygon","coordinates":[[[19.06178846,47.472491546],[19.061866914,47.472496079],[19.061875632,47.47255319],[19.061781754,47.472548204],[19.06178846,47.472491546]]]}},{"type":"Feature","id":3867,"properties":{"buildingId":1,"floorId":25,"roomNumber":"0-827","roomName":"0-827","scope":"budapest/lagymanyos/deli/0/LD-0-827-01-12","roomCode":"LD-0-827-01-12","roomType":"educational","__tile":"17/72476/45848","__layer":"rooms","__zoom":17,"__mvtId":3867,"__building":"deli","__ringVerts":6,"id":3867,"catalogFloorId":25},"geometry":{"type":"Polygon","coordinates":[[[19.061795981,47.47254822],[19.061816098,47.472554112],[19.06183085,47.472568164],[19.061863707,47.472642047],[19.061784582,47.472637514],[19.061795981,47.47254822]]]}},{"type":"Feature","id":2616,"properties":{"buildingId":1,"floorId":25,"roomNumber":"0-807","roomName":"0-807 Férfi WC előtér","scope":"budapest/lagymanyos/deli/0/LD-0-807-04-63","roomCode":"LD-0-807-04-63","roomType":"corridor","__tile":"17/72476/45848","__layer":"rooms","__zoom":17,"__mvtId":2616,"__building":"deli","__ringVerts":5,"id":2616,"catalogFloorId":25},"geometry":{"type":"Polygon","coordinates":[[[19.061793832,47.472394992],[19.061832054,47.472397258],[19.061829371,47.472411763],[19.061791821,47.472409496],[19.061793832,47.472394992]]]}},{"type":"Feature","id":2749,"properties":{"buildingId":1,"floorId":25,"roomNumber":"0-811","roomName":"0-811 Női WC csoport","scope":"budapest/lagymanyos/deli/0/LD-0-811-05-71","roomCode":"LD-0-811-05-71","roomType":"social","__tile":"17/72476/45848","__layer":"rooms","__zoom":17,"__mvtId":2749,"__building":"deli","__ringVerts":5,"id":2749,"catalogFloorId":25},"geometry":{"type":"Polygon","coordinates":[[[19.061756378,47.472312556],[19.06179594,47.472314369],[19.061793928,47.472329327],[19.061755036,47.472327061],[19.061756378,47.472312556]]]}},{"type":"Feature","id":3050,"properties":{"buildingId":1,"floorId":25,"roomNumber":"0-808","roomName":"0-808 Férfi WC csoport","scope":"budapest/lagymanyos/deli/0/LD-0-808-05-71","roomCode":"LD-0-808-05-71","roomType":"social","__tile":"17/72476/45848","__layer":"rooms","__zoom":17,"__mvtId":3050,"__building":"deli","__ringVerts":7,"id":3050,"catalogFloorId":25},"geometry":{"type":"Polygon","coordinates":[[[19.061767612,47.472399426],[19.061804492,47.472401692],[19.06180181,47.472423449],[19.061788399,47.472422995],[19.061786387,47.472437047],[19.061762918,47.472435687],[19.061767612,47.472399426]]]}},{"type":"Feature","id":3124,"properties":{"buildingId":1,"floorId":25,"roomNumber":"0-813","roomName":"0-813 Menekülő lépcsőház","scope":"budapest/lagymanyos/deli/0/LD-0-813-04-64","roomCode":"LD-0-813-04-64","roomType":"corridor","__tile":"17/72476/45848","__layer":"rooms","__zoom":17,"__mvtId":3124,"__building":"deli","__ringVerts":6,"id":3124,"catalogFloorId":25},"geometry":{"type":"Polygon","coordinates":[[[19.061752645,47.472288591],[19.061776115,47.472292217],[19.061800254,47.472293577],[19.061798243,47.472303549],[19.061750634,47.472300829],[19.061752645,47.472288591]]]}},{"type":"Feature","id":3819,"properties":{"buildingId":1,"floorId":25,"roomNumber":"0-820","roomName":"0-820 Hunfalvy János terem","scope":"budapest/lagymanyos/deli/0/LD-0-820-01-12","roomCode":"LD-0-820-01-12","roomType":"educational","__tile":"17/72476/45848","__layer":"rooms","__zoom":17,"__mvtId":3819,"__building":"deli","__ringVerts":5,"id":3819,"catalogFloorId":25},"geometry":{"type":"Polygon","coordinates":[[[19.062059766,47.471750905],[19.06206513,47.471822521],[19.061959854,47.4718266],[19.061953819,47.471754984],[19.062059766,47.471750905]]]}},{"type":"Feature","id":3511,"properties":{"buildingId":1,"floorId":25,"roomNumber":"0-816","roomName":"0-816 Büfé GOLD FLAME BT","scope":"budapest/lagymanyos/deli/0/LD-0-816-05-75","roomCode":"LD-0-816-05-75","roomType":"social","__tile":"17/72476/45848","__layer":"rooms","__zoom":17,"__mvtId":3511,"__building":"deli","__ringVerts":5,"id":3511,"catalogFloorId":25},"geometry":{"type":"Polygon","coordinates":[[[19.061869338,47.472082792],[19.061876714,47.472153955],[19.06178686,47.472158487],[19.061796248,47.472085965],[19.061869338,47.472082792]]]}},{"type":"Feature","id":2908,"properties":{"buildingId":1,"floorId":25,"roomNumber":"0-616","roomName":"0-616 Mozgáskorlátozott WC","scope":"budapest/lagymanyos/deli/0/LD-0-616-05-71","roomCode":"LD-0-616-05-71","roomType":"social","__tile":"17/72476/45848","__layer":"rooms","__zoom":17,"__mvtId":2908,"__building":"deli","__ringVerts":5,"id":2908,"catalogFloorId":25},"geometry":{"type":"Polygon","coordinates":[[[19.062658223,47.471922251],[19.062662917,47.471938115],[19.062640118,47.471941288],[19.062634754,47.471925424],[19.062658223,47.471922251]]]}},{"type":"Feature","id":2813,"properties":{"buildingId":1,"floorId":25,"roomNumber":"0-615","roomName":"0-615 Lépcsőház","scope":"budapest/lagymanyos/deli/0/LD-0-615-04-64","roomCode":"LD-0-615-04-64","roomType":"corridor","__tile":"17/72476/45848","__layer":"rooms","__zoom":17,"__mvtId":2813,"__building":"deli","__ringVerts":5,"id":2813,"catalogFloorId":25},"geometry":{"type":"Polygon","coordinates":[[[19.063083747,47.472029673],[19.063090452,47.472053242],[19.063018033,47.472063214],[19.063010657,47.472040098],[19.063083747,47.472029673]]]}},{"type":"Feature","id":3554,"properties":{"buildingId":1,"floorId":25,"roomNumber":"0-519","roomName":"0-519 Mikroszonda előkészítő","scope":"budapest/lagymanyos/deli/0/LD-0-519-01-14","roomCode":"LD-0-519-01-14","roomType":"educational","__tile":"17/72476/45848","__layer":"rooms","__zoom":17,"__mvtId":3554,"__building":"deli","__ringVerts":5,"id":3554,"catalogFloorId":25},"geometry":{"type":"Polygon","coordinates":[[[19.063052964,47.472140288],[19.063061681,47.472167484],[19.062985909,47.472177909],[19.062977862,47.472150713],[19.063052964,47.472140288]]]}},{"type":"Feature","id":2470,"properties":{"buildingId":1,"floorId":25,"roomNumber":"0-516","roomName":"0-516 Mikroszonda dokumentációtár","scope":"budapest/lagymanyos/deli/0/LD-0-516-01-14","roomCode":"LD-0-516-01-14","roomType":"educational","__tile":"17/72476/45848","__layer":"rooms","__zoom":17,"__mvtId":2470,"__building":"deli","__ringVerts":6,"id":2470,"catalogFloorId":25},"geometry":{"type":"Polygon","coordinates":[[[19.063034465,47.472082671],[19.063050558,47.472137063],[19.063015019,47.472141596],[19.063006972,47.47213797],[19.06299222,47.472088564],[19.063034465,47.472082671]]]}},{"type":"Feature","id":2873,"properties":{"buildingId":1,"floorId":25,"roomNumber":"0-520","roomName":"0-520 Mikroszonda labor","scope":"budapest/lagymanyos/deli/0/LD-0-520-01-14","roomCode":"LD-0-520-01-14","roomType":"educational","__tile":"17/72476/45848","__layer":"rooms","__zoom":17,"__mvtId":2873,"__building":"deli","__ringVerts":5,"id":2873,"catalogFloorId":25},"geometry":{"type":"Polygon","coordinates":[[[19.063036918,47.472171219],[19.063053682,47.472226517],[19.06297858,47.472236942],[19.062961816,47.472181644],[19.063036918,47.472171219]]]}},{"type":"Feature","id":3192,"properties":{"buildingId":1,"floorId":25,"roomNumber":"0-513","roomName":"0-513 WC","scope":"budapest/lagymanyos/deli/0/LD-0-513-05-71","roomCode":"LD-0-513-05-71","roomType":"social","__tile":"17/72476/45848","__layer":"rooms","__zoom":17,"__mvtId":3192,"__building":"deli","__ringVerts":5,"id":3192,"catalogFloorId":25},"geometry":{"type":"Polygon","coordinates":[[[19.063097995,47.472063902],[19.063102689,47.472079766],[19.06309263,47.472081579],[19.063087266,47.472065262],[19.063097995,47.472063902]]]}},{"type":"Feature","id":3496,"properties":{"buildingId":1,"floorId":25,"roomNumber":"0-518","roomName":"0-518 Kőzetraktár","scope":"budapest/lagymanyos/deli/0/LD-0-518-01-14","roomCode":"LD-0-518-01-14","roomType":"educational","__tile":"17/72476/45848","__layer":"rooms","__zoom":17,"__mvtId":3496,"__building":"deli","__ringVerts":5,"id":3496,"catalogFloorId":25},"geometry":{"type":"Polygon","coordinates":[[[19.063065898,47.472117525],[19.063073944,47.472144721],[19.063042428,47.472149253],[19.063034382,47.472122057],[19.063065898,47.472117525]]]}},{"type":"Feature","id":3506,"properties":{"buildingId":1,"floorId":25,"roomNumber":"0-521","roomName":"0-521 Mikroszkóp laboratórium","scope":"budapest/lagymanyos/deli/0/LD-0-521-01-14","roomCode":"LD-0-521-01-14","roomType":"educational","__tile":"17/72476/45848","__layer":"rooms","__zoom":17,"__mvtId":3506,"__building":"deli","__ringVerts":5,"id":3506,"catalogFloorId":25},"geometry":{"type":"Polygon","coordinates":[[[19.06302798,47.472224631],[19.063036027,47.472251827],[19.062960255,47.472262252],[19.062952208,47.472235056],[19.06302798,47.472224631]]]}},{"type":"Feature","id":3594,"properties":{"buildingId":1,"floorId":25,"roomNumber":"0-614","roomName":"0-614 TEM feldolgozó","scope":"budapest/lagymanyos/deli/0/LD-0-614-01-14","roomCode":"LD-0-614-01-14","roomType":"educational","__tile":"17/72476/45848","__layer":"rooms","__zoom":17,"__mvtId":3594,"__building":"deli","__ringVerts":6,"id":3594,"catalogFloorId":25},"geometry":{"type":"Polygon","coordinates":[[[19.062997415,47.472031371],[19.063005461,47.472034997],[19.063019543,47.47208123],[19.062981321,47.472086216],[19.062965899,47.47203545],[19.062997415,47.472031371]]]}},{"type":"Feature","id":3817,"properties":{"buildingId":1,"floorId":25,"roomNumber":"0-803","roomName":"0-803 Szabó József eloadó","scope":"budapest/lagymanyos/deli/0/LD-0-803-01-12","roomCode":"LD-0-803-01-12","roomType":"educational","__tile":"17/72476/45848","__layer":"rooms","__zoom":17,"__mvtId":3817,"__building":"deli","__ringVerts":5,"id":3817,"catalogFloorId":25},"geometry":{"type":"Polygon","coordinates":[[[19.062123063,47.472418515],[19.062147874,47.472499197],[19.061958107,47.472525486],[19.061933297,47.472444351],[19.062123063,47.472418515]]]}},{"type":"Feature","id":2308,"properties":{"buildingId":1,"floorId":25,"roomNumber":"0-823","roomName":"0-823 Kitaibel Pál terem","scope":"budapest/lagymanyos/deli/0/LD-0-823-01-12","roomCode":"LD-0-823-01-12","roomType":"educational","__tile":"17/72476/45848","__layer":"rooms","__zoom":17,"__mvtId":2308,"__building":"deli","__ringVerts":5,"id":2308,"catalogFloorId":25},"geometry":{"type":"Polygon","coordinates":[[[19.062216759,47.472083728],[19.062249616,47.472192965],[19.062059849,47.472218801],[19.062026992,47.472110017],[19.062216759,47.472083728]]]}},{"type":"Feature","id":2914,"properties":{"buildingId":1,"floorId":25,"roomNumber":"0-804","roomName":"0-804 Lóczy Lajos terem","scope":"budapest/lagymanyos/deli/0/LD-0-804-01-12","roomCode":"LD-0-804-01-12","roomType":"educational","__tile":"17/72476/45848","__layer":"rooms","__zoom":17,"__mvtId":2914,"__building":"deli","__ringVerts":5,"id":2914,"catalogFloorId":25},"geometry":{"type":"Polygon","coordinates":[[[19.062097673,47.472502872],[19.062122484,47.472583554],[19.061932717,47.472609844],[19.061907907,47.472528708],[19.062097673,47.472502872]]]}},{"type":"Feature","id":3805,"properties":{"buildingId":1,"floorId":25,"roomNumber":"0-817","roomName":"0-817 Dudich Endre terem (k)","scope":"budapest/lagymanyos/deli/0/LD-0-817-01-12","roomCode":"LD-0-817-01-12","roomType":"educational","__tile":"17/72476/45848","__layer":"rooms","__zoom":17,"__mvtId":3805,"__building":"deli","__ringVerts":5,"id":3805,"catalogFloorId":25},"geometry":{"type":"Polygon","coordinates":[[[19.061923988,47.47195967],[19.061954162,47.472028566],[19.061852239,47.472048963],[19.061822064,47.471980067],[19.061923988,47.47195967]]]}},{"type":"Feature","id":3001,"properties":{"buildingId":1,"floorId":25,"roomNumber":"0-206","roomName":"0-206 Hantken Miksa - hallgatói labor","scope":"budapest/lagymanyos/deli/0/LD-0-206-01-14","roomCode":"LD-0-206-01-14","roomType":"educational","__tile":"17/72476/45848","__layer":"rooms","__zoom":17,"__mvtId":3001,"__building":"deli","__ringVerts":7,"id":3001,"catalogFloorId":25},"geometry":{"type":"Polygon","coordinates":[[[19.062411652,47.472361356],[19.062437804,47.47244793],[19.062368737,47.472464701],[19.062364714,47.472451556],[19.06236069,47.47245201],[19.062336551,47.472371781],[19.062411652,47.472361356]]]}},{"type":"Feature","id":2235,"properties":{"buildingId":1,"floorId":25,"roomNumber":"0-211","roomName":"0-211 Dendrokronológiai laboratórium","scope":"budapest/lagymanyos/deli/0/LD-0-211-01-14","roomCode":"LD-0-211-01-14","roomType":"educational","__tile":"17/72476/45848","__layer":"rooms","__zoom":17,"__mvtId":2235,"__building":"deli","__ringVerts":5,"id":2235,"catalogFloorId":25},"geometry":{"type":"Polygon","coordinates":[[[19.062351616,47.4726001],[19.062359663,47.472627297],[19.062284561,47.472637722],[19.062276514,47.472610526],[19.062351616,47.4726001]]]}},{"type":"Feature","id":3037,"properties":{"buildingId":1,"floorId":25,"roomNumber":"0-727","roomName":"0-727 Diáktanácsadó","scope":"budapest/lagymanyos/deli/0/LD-0-727-02-33","roomCode":"LD-0-727-02-33","roomType":"administrative","__tile":"17/72476/45848","__layer":"rooms","__zoom":17,"__mvtId":3037,"__building":"deli","__ringVerts":9,"id":3037,"catalogFloorId":25},"geometry":{"type":"Polygon","coordinates":[[[19.062279251,47.472180471],[19.062288638,47.472211293],[19.062248405,47.472216732],[19.062245052,47.472204947],[19.062252429,47.472204041],[19.062251087,47.472200868],[19.062244382,47.472201775],[19.062239688,47.47218591],[19.062279251,47.472180471]]]}},{"type":"Feature","id":3789,"properties":{"buildingId":1,"floorId":25,"roomNumber":"0-822","roomName":"0-822 Mogyoródi József terem","scope":"budapest/lagymanyos/deli/0/LD-0-822-01-12","roomCode":"LD-0-822-01-12","roomType":"educational","__tile":"17/72476/45848","__layer":"rooms","__zoom":17,"__mvtId":3789,"__building":"deli","__ringVerts":5,"id":3789,"catalogFloorId":25},"geometry":{"type":"Polygon","coordinates":[[[19.062250877,47.471971271],[19.062283063,47.472080508],[19.062093297,47.472106344],[19.062061111,47.471997561],[19.062250877,47.471971271]]]}},{"type":"Feature","id":2630,"properties":{"buildingId":1,"floorId":25,"roomNumber":"0-705","roomName":"0-705 Reflexiós optikai labor","scope":"budapest/lagymanyos/deli/0/LD-0-705-01-14","roomCode":"LD-0-705-01-14","roomType":"educational","__tile":"17/72476/45848","__layer":"rooms","__zoom":17,"__mvtId":2630,"__building":"deli","__ringVerts":5,"id":2630,"catalogFloorId":25},"geometry":{"type":"Polygon","coordinates":[[[19.062650701,47.472055689],[19.062659418,47.472082885],[19.062583646,47.47209331],[19.062575599,47.472066114],[19.062650701,47.472055689]]]}},{"type":"Feature","id":2454,"properties":{"buildingId":1,"floorId":25,"roomNumber":"0-403","roomName":"0-403 Női WC csoport","scope":"budapest/lagymanyos/deli/0/LD-0-403-05-71","roomCode":"LD-0-403-05-71","roomType":"social","__tile":"17/72476/45848","__layer":"rooms","__zoom":17,"__mvtId":2454,"__building":"deli","__ringVerts":8,"id":2454,"catalogFloorId":25},"geometry":{"type":"Polygon","coordinates":[[[19.062948961,47.472428448],[19.062955666,47.472450205],[19.06291208,47.472456098],[19.062907386,47.472440233],[19.062897999,47.472435701],[19.062903363,47.472429808],[19.06291208,47.472433434],[19.062948961,47.472428448]]]}},{"type":"Feature","id":2548,"properties":{"buildingId":1,"floorId":25,"roomNumber":"0-402","roomName":"0-402 Női WC előtér","scope":"budapest/lagymanyos/deli/0/LD-0-402-05-71","roomCode":"LD-0-402-05-71","roomType":"social","__tile":"17/72476/45848","__layer":"rooms","__zoom":17,"__mvtId":2548,"__building":"deli","__ringVerts":5,"id":2548,"catalogFloorId":25},"geometry":{"type":"Polygon","coordinates":[[[19.062972801,47.472432214],[19.062979506,47.472453971],[19.062948661,47.472458503],[19.062941956,47.472436293],[19.062972801,47.472432214]]]}},{"type":"Feature","id":3612,"properties":{"buildingId":1,"floorId":25,"roomNumber":"0-111","roomName":"0-111 Női WC előtér","scope":"budapest/lagymanyos/deli/0/LD-0-111-04-63","roomCode":"LD-0-111-04-63","roomType":"corridor","__tile":"17/72476/45848","__layer":"rooms","__zoom":17,"__mvtId":3612,"__building":"deli","__ringVerts":5,"id":3612,"catalogFloorId":25},"geometry":{"type":"Polygon","coordinates":[[[19.062509385,47.472394],[19.062517432,47.472420289],[19.06249061,47.472423915],[19.062482563,47.472397626],[19.062509385,47.472394]]]}},{"type":"Feature","id":3478,"properties":{"buildingId":1,"floorId":25,"roomNumber":"0-601/A","roomName":"0-601/A Fogadótér","scope":"budapest/lagymanyos/deli/0/LD-0-601-A-04-63","roomCode":"LD-0-601/A-04-63","roomType":"corridor","__tile":"17/72476/45848","__layer":"rooms","__zoom":17,"__mvtId":3478,"__building":"deli","__ringVerts":7,"id":3478,"catalogFloorId":25},"geometry":{"type":"Polygon","coordinates":[[[19.062647632,47.471881646],[19.062651655,47.471896603],[19.062644279,47.47189751],[19.062650314,47.471917],[19.062569848,47.471927879],[19.06255979,47.47189479],[19.062647632,47.471881646]]]}},{"type":"Feature","id":2962,"properties":{"buildingId":1,"floorId":25,"roomNumber":"0-517","roomName":"0-517 Mikroszonda fotószoba","scope":"budapest/lagymanyos/deli/0/LD-0-517-01-14","roomCode":"LD-0-517-01-14","roomType":"educational","__tile":"17/72476/45848","__layer":"rooms","__zoom":17,"__mvtId":2962,"__building":"deli","__ringVerts":5,"id":2962,"catalogFloorId":25},"geometry":{"type":"Polygon","coordinates":[[[19.063074564,47.472090521],[19.06308194,47.47211681],[19.063050424,47.47212089],[19.063042378,47.472095053],[19.063074564,47.472090521]]]}},{"type":"Feature","id":3756,"properties":{"buildingId":1,"floorId":25,"roomNumber":"0-512","roomName":"0-512 Közlekedő","scope":"budapest/lagymanyos/deli/0/LD-0-512-04-63 (2)","roomCode":"LD-0-512-04-63 (2)","roomType":"corridor","__tile":"17/72476/45848","__layer":"rooms","__zoom":17,"__mvtId":3756,"__building":"deli","__ringVerts":96,"id":3756,"catalogFloorId":25},"geometry":{"type":"Polygon","coordinates":[[[19.063075942,47.471942069],[19.063078625,47.471952947],[19.063068566,47.471954307],[19.06307326,47.471971984],[19.063083989,47.471970171],[19.063087342,47.47198105],[19.063076613,47.471982409],[19.063081977,47.472000087],[19.063092706,47.471998727],[19.063095388,47.472009152],[19.06308533,47.472010512],[19.063090694,47.472028189],[19.063100753,47.472026376],[19.063104106,47.472037255],[19.063093377,47.472038615],[19.063098741,47.472056292],[19.06310947,47.472054479],[19.063112823,47.472065357],[19.063102094,47.472066717],[19.063107458,47.472084394],[19.063118187,47.472083035],[19.063120869,47.47209346],[19.063110811,47.47209482],[19.063116175,47.472112497],[19.063126234,47.472111137],[19.063129587,47.472121562],[19.063118858,47.472122922],[19.063124222,47.472140599],[19.063134951,47.47213924],[19.063138304,47.472149665],[19.063127575,47.472151025],[19.063132939,47.472168702],[19.063142998,47.472167342],[19.06314635,47.472177767],[19.063135621,47.472179127],[19.063140986,47.472196804],[19.063151715,47.472195445],[19.063155067,47.47220587],[19.063144339,47.472207229],[19.063149703,47.472224907],[19.063160432,47.472223547],[19.063163114,47.472233972],[19.063153056,47.472235332],[19.06315842,47.472253009],[19.063168479,47.472251649],[19.063171831,47.472262074],[19.063161102,47.472263434],[19.063162444,47.472266154],[19.063172502,47.472264794],[19.06318256,47.472297882],[19.06317049,47.472302415],[19.063136292,47.472304228],[19.06312154,47.472253462],[19.06313361,47.472251649],[19.063130928,47.472243944],[19.063104776,47.47224757],[19.063107458,47.472254369],[19.063092036,47.472256635],[19.063089353,47.472249383],[19.063066555,47.472252556],[19.06306052,47.472233972],[19.063086671,47.472230346],[19.063083989,47.472222187],[19.063099412,47.472220374],[19.063101423,47.472225813],[19.063116846,47.472224],[19.063096729,47.472155104],[19.063086001,47.472156917],[19.063082648,47.472146039],[19.063093377,47.472144679],[19.063088012,47.472127001],[19.063077283,47.472128361],[19.063074601,47.472117936],[19.06308466,47.472116576],[19.063079295,47.472098899],[19.063069237,47.472100259],[19.063065884,47.472089834],[19.063076613,47.472088474],[19.063071248,47.472070796],[19.06306052,47.472072156],[19.063057167,47.472061731],[19.063067896,47.472060371],[19.063062531,47.472042694],[19.063052473,47.472044054],[19.06304912,47.472033629],[19.063059849,47.472032269],[19.063054485,47.472014591],[19.063043756,47.472015951],[19.063040403,47.472005526],[19.063051132,47.472004166],[19.063045767,47.471986489],[19.063035039,47.471987849],[19.063032356,47.471977424],[19.063042415,47.471976064],[19.063033698,47.471947961],[19.063075942,47.471942069]]]}},{"type":"Feature","id":3831,"properties":{"buildingId":1,"floorId":25,"roomNumber":"0-601","roomName":"0-601 Közlekedő","scope":"budapest/lagymanyos/deli/0/LD-0-601-04-63","roomCode":"LD-0-601-04-63","roomType":"corridor","__tile":"17/72476/45848","__layer":"rooms","__zoom":17,"__mvtId":3831,"__building":"deli","__ringVerts":158,"id":3831,"catalogFloorId":25},"geometry":{"type":"Polygon","coordinates":[[[19.06253793,47.471839657],[19.062540612,47.471850082],[19.062530554,47.471851442],[19.062535918,47.471869119],[19.062545976,47.471867306],[19.062549329,47.471878185],[19.062539271,47.471879544],[19.062544635,47.471897222],[19.062554693,47.471895862],[19.062558046,47.471906287],[19.062547317,47.471907647],[19.062552682,47.471925324],[19.062563411,47.471923965],[19.062566093,47.47193439],[19.062556035,47.471935749],[19.062561399,47.471953427],[19.062571457,47.471952067],[19.06257481,47.471962492],[19.062564081,47.471963852],[19.062569446,47.471981529],[19.062580174,47.471980169],[19.062583527,47.471990595],[19.062572798,47.471991954],[19.062578163,47.472009632],[19.062588221,47.472008272],[19.062591574,47.472018697],[19.062581516,47.472020057],[19.062601632,47.4720885],[19.062617725,47.472086233],[19.062615714,47.472080794],[19.062631136,47.472078528],[19.062633819,47.472086687],[19.062693498,47.472078075],[19.062703556,47.472074449],[19.062701544,47.47206765],[19.062716967,47.472065383],[19.062718979,47.472072636],[19.06274513,47.472069009],[19.062743119,47.472061757],[19.062758541,47.472059944],[19.062760553,47.472066743],[19.062786705,47.472063117],[19.062784693,47.472056318],[19.062800116,47.472054052],[19.062802127,47.472061304],[19.062828279,47.472057678],[19.062826267,47.472050426],[19.06284169,47.472048159],[19.062843701,47.472055411],[19.062869853,47.472051785],[19.062867841,47.472044533],[19.062883264,47.47204272],[19.062885276,47.472049519],[19.062911427,47.472045893],[19.062909416,47.472039094],[19.062924838,47.472036828],[19.06292685,47.47204408],[19.062953002,47.472040454],[19.06295099,47.472033201],[19.062966413,47.472031388],[19.062968424,47.472038187],[19.062994576,47.472034561],[19.062992564,47.472027762],[19.063007987,47.472025496],[19.063009998,47.472032295],[19.063020727,47.472033201],[19.063053584,47.472028669],[19.06306029,47.472054958],[19.063044867,47.472057225],[19.063042185,47.472049972],[19.063016033,47.472053598],[19.063018716,47.472060397],[19.063003293,47.472062664],[19.063000611,47.472055411],[19.062974459,47.472059038],[19.062977141,47.47206629],[19.062961048,47.472068556],[19.062959036,47.472061304],[19.062932885,47.47206493],[19.062935567,47.472072182],[19.062919474,47.472073995],[19.062917462,47.472067196],[19.062891311,47.472070822],[19.062893993,47.472077621],[19.0628779,47.472079888],[19.062875888,47.472072636],[19.062849736,47.472076262],[19.062852419,47.472083514],[19.062836325,47.47208578],[19.062834314,47.472078528],[19.062808162,47.472082154],[19.062810844,47.472089406],[19.062794751,47.472091219],[19.06279274,47.47208442],[19.062766588,47.472087593],[19.0627686,47.472094845],[19.062753177,47.472097112],[19.062751165,47.47208986],[19.062725014,47.472093486],[19.062727025,47.472100738],[19.062711603,47.472102551],[19.062709591,47.472095752],[19.06268344,47.472099378],[19.062685451,47.472106177],[19.062670028,47.472108443],[19.062668017,47.472101191],[19.062641865,47.472104817],[19.062643877,47.472112069],[19.062628454,47.472114336],[19.062626443,47.472107084],[19.062600291,47.47211071],[19.062602973,47.472118868],[19.062615043,47.472117055],[19.062619737,47.47213292],[19.062573469,47.472138359],[19.062570116,47.472127934],[19.062580845,47.472126121],[19.062575481,47.472108897],[19.062565422,47.472110256],[19.06256207,47.472099378],[19.062572128,47.472098018],[19.062566763,47.472080341],[19.062556705,47.472082154],[19.062553352,47.472071276],[19.062564081,47.472069916],[19.062558717,47.472052239],[19.062547988,47.472054052],[19.062545306,47.472043173],[19.062555364,47.472041814],[19.06255,47.472024136],[19.062539941,47.472025949],[19.062536589,47.472015071],[19.062546647,47.472013711],[19.062541953,47.471996034],[19.062531224,47.471997847],[19.062527871,47.471986968],[19.0625386,47.471985609],[19.062533236,47.471967931],[19.062522507,47.471969744],[19.062519825,47.471958866],[19.062529883,47.471957506],[19.062524519,47.471939829],[19.06251446,47.471941642],[19.062511108,47.471930764],[19.062521836,47.471929404],[19.062516472,47.471911726],[19.062505743,47.471913539],[19.06250239,47.471902661],[19.062513119,47.471901301],[19.062507755,47.471883624],[19.062497697,47.471885437],[19.062494344,47.471874559],[19.062504402,47.471873199],[19.062499038,47.471855521],[19.062488979,47.471856881],[19.062485627,47.471846456],[19.062495685,47.471844643],[19.06253793,47.471839657]]]}},{"type":"Feature","id":2604,"properties":{"buildingId":1,"floorId":25,"roomNumber":"0-502","roomName":"0-502 Oktató","scope":"budapest/lagymanyos/deli/0/LD-0-502-01-13","roomCode":"LD-0-502-01-13","roomType":"educational","__tile":"17/72476/45848","__layer":"rooms","__zoom":17,"__mvtId":2604,"__building":"deli","__ringVerts":5,"id":2604,"catalogFloorId":25},"geometry":{"type":"Polygon","coordinates":[[[19.063149361,47.472270621],[19.063157408,47.472297817],[19.063082306,47.472308242],[19.063073589,47.472281046],[19.063149361,47.472270621]]]}},{"type":"Feature","id":3327,"properties":{"buildingId":1,"floorId":25,"roomNumber":"0-613","roomName":"0-613 TEM előkészítő","scope":"budapest/lagymanyos/deli/0/LD-0-613-01-14","roomCode":"LD-0-613-01-14","roomType":"educational","__tile":"17/72476/45848","__layer":"rooms","__zoom":17,"__mvtId":3327,"__building":"deli","__ringVerts":5,"id":3327,"catalogFloorId":25},"geometry":{"type":"Polygon","coordinates":[[[19.062963901,47.472021998],[19.062979324,47.472073217],[19.062939091,47.472078656],[19.062923668,47.472027891],[19.062963901,47.472021998]]]}},{"type":"Feature","id":2447,"properties":{"buildingId":1,"floorId":25,"roomNumber":"0-508","roomName":"0-508 Kőzettani és Geokémiai Tanszék Titkárság","scope":"budapest/lagymanyos/deli/0/LD-0-508-02-33","roomCode":"LD-0-508-02-33","roomType":"administrative","__tile":"17/72476/45848","__layer":"rooms","__zoom":17,"__mvtId":2447,"__building":"deli","__ringVerts":5,"id":2447,"catalogFloorId":25},"geometry":{"type":"Polygon","coordinates":[[[19.063208462,47.47207382],[19.063216509,47.472101016],[19.063141407,47.472111441],[19.06313336,47.472084245],[19.063208462,47.47207382]]]}},{"type":"Feature","id":3687,"properties":{"buildingId":1,"floorId":25,"roomNumber":"0-608","roomName":"0-608 Rtg. Előkészítő labor","scope":"budapest/lagymanyos/deli/0/LD-0-608-01-14","roomCode":"LD-0-608-01-14","roomType":"educational","__tile":"17/72476/45848","__layer":"rooms","__zoom":17,"__mvtId":3687,"__building":"deli","__ringVerts":5,"id":3687,"catalogFloorId":25},"geometry":{"type":"Polygon","coordinates":[[[19.062797531,47.471999299],[19.062812954,47.472050065],[19.062772721,47.472055958],[19.062757298,47.472004739],[19.062797531,47.471999299]]]}}],"meta":{"building":"deli","floorId":25,"polygonCount":143}}