{"type": "FeatureCollection", "features": [{"type": "Feature", "id": 2386, "properties": {"buildingId": 1, "floorId": 26, "roomNumber": "T-301", "roomName": "T-301 L\u00e9pcs\u0151h\u00e1z", "scope": "budapest/lagymanyos/deli/T/LD-T-301-04-64", "roomCode": "LD-T-301-04-64", "roomType": "corridor", "__tile": "17/72476/45847", "__layer": "rooms", "__zoom": 17, "__mvtId": 2386, "__building": "deli", "__ringVerts": 7, "id": 2386, "catalogFloorId": 26}, "geometry": {"type": "Polygon", "coordinates": [[[19.06288594007492, 47.47444322160568], [19.06289465725422, 47.47447222889436], [19.062821567058563, 47.47448220014615], [19.062814861536026, 47.474459084968665], [19.062871858477592, 47.474450926668304], [19.062870517373085, 47.474445487800686], [19.06288594007492, 47.47444322160568]]]}}, {"type": "Feature", "id": 3432, "properties": {"buildingId": 1, "floorId": 26, "roomNumber": "T-426", "roomName": "T-426 El\u0151t\u00e9r", "scope": "budapest/lagymanyos/deli/T/LD-T-426-04-63", "roomCode": "LD-T-426-04-63", "roomType": "corridor", "__tile": "17/72476/45847", "__layer": "rooms", "__zoom": 17, "__mvtId": 3432, "__building": "deli", "__ringVerts": 5, "id": 3432, "catalogFloorId": 26}, "geometry": {"type": "Polygon", "coordinates": [[[19.062897339463234, 47.47447358861063], [19.06290203332901, 47.47448990520305], [19.06289130449295, 47.47449126491886], [19.062886610627174, 47.47447540156559], [19.062897339463234, 47.47447358861063]]]}}, {"type": "Feature", "id": 3179, "properties": {"buildingId": 1, "floorId": 26, "roomNumber": "T-201", "roomName": "T-201 K\u00f6zleked\u0151", "scope": "budapest/lagymanyos/deli/T/LD-T-201-04-63", "roomCode": "LD-T-201-04-63", "roomType": "corridor", "__tile": "17/72476/45847", "__layer": "rooms", "__zoom": 17, "__mvtId": 3179, "__building": "deli", "__ringVerts": 7, "id": 3179, "catalogFloorId": 26}, "geometry": {"type": "Polygon", "coordinates": [[[19.062475562095642, 47.47447857423663], [19.062480926513672, 47.47449579730463], [19.062391743063927, 47.47451030093646], [19.06240314245224, 47.47454837295097], [19.062372967600822, 47.47454837295097], [19.062357544898987, 47.47449489082751], [19.062475562095642, 47.47447857423663]]]}}, {"type": "Feature", "id": 2538, "properties": {"buildingId": 1, "floorId": 26, "roomNumber": "T-302", "roomName": "T-302 L\u00e9pcs\u0151h\u00e1z", "scope": "budapest/lagymanyos/deli/T/LD-T-302-04-64", "roomCode": "LD-T-302-04-64", "roomType": "corridor", "__tile": "17/72476/45847", "__layer": "rooms", "__zoom": 17, "__mvtId": 2538, "__building": "deli", "__ringVerts": 7, "id": 2538, "catalogFloorId": 26}, "geometry": {"type": "Polygon", "coordinates": [[[19.06248226761818, 47.474504862074994], [19.062488973140717, 47.47452797723234], [19.06241588294506, 47.47453794847354], [19.062407165765762, 47.474508941221146], [19.06242325901985, 47.47450712826734], [19.06242460012436, 47.47451256712857], [19.06248226761818, 47.474504862074994]]]}}, {"type": "Feature", "id": 2888, "properties": {"buildingId": 1, "floorId": 26, "roomNumber": "T-401", "roomName": "T-401 K\u00f6zleked\u0151", "scope": "budapest/lagymanyos/deli/T/LD-T-401-04-63", "roomCode": "LD-T-401-04-63", "roomType": "corridor", "__tile": "17/72476/45847", "__layer": "rooms", "__zoom": 17, "__mvtId": 2888, "__building": "deli", "__ringVerts": 16, "id": 2888, "catalogFloorId": 26}, "geometry": {"type": "Polygon", "coordinates": [[[19.062924161553383, 47.474416933736485], [19.062963724136353, 47.47454837295097], [19.062933549284935, 47.47454837295097], [19.062933549284935, 47.474547466474746], [19.062926173210144, 47.47454837295097], [19.06292214989662, 47.47454837295097], [19.06292013823986, 47.47453840171173], [19.062930196523666, 47.47453704199715], [19.062924832105637, 47.474519365704325], [19.06291477382183, 47.47452072541937], [19.062911421060562, 47.47451030093646], [19.062921479344368, 47.474508941221146], [19.062901362776756, 47.474440048932514], [19.062810838222504, 47.47445047342936], [19.062805473804474, 47.4744332503465], [19.062924161553383, 47.474416933736485]]]}}, {"type": "Feature", "id": 3740, "properties": {"buildingId": 1, "floorId": 26, "roomNumber": "T-423", "roomName": "T-423 El\u0151t\u00e9r", "scope": "budapest/lagymanyos/deli/T/LD-T-423-04-63", "roomCode": "LD-T-423-04-63", "roomType": "corridor", "__tile": "17/72476/45847", "__layer": "rooms", "__zoom": 17, "__mvtId": 3740, "__building": "deli", "__ringVerts": 5, "id": 3740, "catalogFloorId": 26}, "geometry": {"type": "Polygon", "coordinates": [[[19.06291477382183, 47.474488998725825], [19.0629181265831, 47.47450032969], [19.062869176268578, 47.47450667502888], [19.06286582350731, 47.47449579730463], [19.06291477382183, 47.474488998725825]]]}}, {"type": "Feature", "id": 3156, "properties": {"buildingId": 1, "floorId": 26, "roomNumber": "T-425", "roomName": "T-425 WC -zuhany", "scope": "budapest/lagymanyos/deli/T/LD-T-425-05-71", "roomCode": "LD-T-425-05-71", "roomType": "social", "__tile": "17/72476/45847", "__layer": "rooms", "__zoom": 17, "__mvtId": 3156, "__building": "deli", "__ringVerts": 5, "id": 3156, "catalogFloorId": 26}, "geometry": {"type": "Polygon", "coordinates": [[[19.062908738851547, 47.47447222889436], [19.062913432717323, 47.474488545487205], [19.062903374433517, 47.47448990520305], [19.062898010015488, 47.47447358861063], [19.062908738851547, 47.47447222889436]]]}}, {"type": "Feature", "id": 2656, "properties": {"buildingId": 1, "floorId": 26, "roomNumber": "T-504", "roomName": "T-504 WC", "scope": "budapest/lagymanyos/deli/T/LD-T-504-05-71", "roomCode": "LD-T-504-05-71", "roomType": "social", "__tile": "17/72476/45848", "__layer": "rooms", "__zoom": 17, "__mvtId": 2656, "__building": "deli", "__ringVerts": 5, "id": 2656, "catalogFloorId": 26}, "geometry": {"type": "Polygon", "coordinates": [[[19.063086435198784, 47.47139102147184], [19.063091799616814, 47.47140733902139], [19.063081070780754, 47.47140869881696], [19.063076376914978, 47.471392381267826], [19.063086435198784, 47.47139102147184]]]}}, {"type": "Feature", "id": 2865, "properties": {"buildingId": 1, "floorId": 26, "roomNumber": "T-506", "roomName": "T-506 TV, r\u00e1di\u00f3 szoba", "scope": "budapest/lagymanyos/deli/T/LD-T-506-01-24", "roomCode": "LD-T-506-01-24", "roomType": "educational", "__tile": "17/72476/45848", "__layer": "rooms", "__zoom": 17, "__mvtId": 2865, "__building": "deli", "__ringVerts": 5, "id": 2865, "catalogFloorId": 26}, "geometry": {"type": "Polygon", "coordinates": [[[19.06307704746723, 47.471351134107174], [19.063084423542023, 47.47137742351002], [19.06302072107792, 47.47138603555291], [19.063013345003128, 47.47136019941999], [19.06307704746723, 47.471351134107174]]]}}, {"type": "Feature", "id": 2473, "properties": {"buildingId": 1, "floorId": 26, "roomNumber": "T-505", "roomName": "T-505 WC", "scope": "budapest/lagymanyos/deli/T/LD-T-505-05-71", "roomCode": "LD-T-505-05-71", "roomType": "social", "__tile": "17/72476/45848", "__layer": "rooms", "__zoom": 17, "__mvtId": 2473, "__building": "deli", "__ringVerts": 5, "id": 2473, "catalogFloorId": 26}, "geometry": {"type": "Polygon", "coordinates": [[[19.06309850513935, 47.471389661675815], [19.063103199005127, 47.471405525960584], [19.06309314072132, 47.47140733902139], [19.06308777630329, 47.47139102147184], [19.06309850513935, 47.471389661675815]]]}}, {"type": "Feature", "id": 3583, "properties": {"buildingId": 1, "floorId": 26, "roomNumber": "T-501", "roomName": "T-501 K\u00f6zleked\u0151", "scope": "budapest/lagymanyos/deli/T/LD-T-501-04-63", "roomCode": "LD-T-501-04-63", "roomType": "corridor", "__tile": "17/72476/45848", "__layer": "rooms", "__zoom": 17, "__mvtId": 3583, "__building": "deli", "__ringVerts": 33, "id": 3583, "catalogFloorId": 26}, "geometry": {"type": "Polygon", "coordinates": [[[19.063069000840187, 47.471185238606616], [19.063149467110634, 47.471452665521326], [19.063030779361725, 47.47146852978707], [19.06302608549595, 47.47145175899171], [19.06311459839344, 47.471437254515735], [19.06309448182583, 47.47136835820018], [19.06308375298977, 47.471370171262265], [19.0630804002285, 47.47135929288877], [19.06309112906456, 47.47135793309193], [19.06308576464653, 47.47134025572974], [19.06307503581047, 47.471341615527045], [19.063072353601456, 47.47133119041349], [19.06308241188526, 47.471329830615915], [19.06307704746723, 47.47131215324428], [19.063066989183426, 47.471313513042304], [19.063063636422157, 47.471303087923175], [19.063074365258217, 47.47130172812488], [19.063069000840187, 47.471284050743776], [19.063058272004128, 47.47128541054254], [19.06305491924286, 47.47127498541784], [19.06306564807892, 47.471273625618814], [19.06306028366089, 47.47125594822826], [19.063050225377083, 47.471257308027745], [19.063046872615814, 47.471246882897475], [19.063057601451874, 47.47124552309772], [19.063052237033844, 47.47122784569772], [19.063041508197784, 47.47122920549793], [19.063038155436516, 47.47121878036208], [19.063048884272575, 47.4712174205616], [19.063043519854546, 47.47119974315215], [19.063032791018486, 47.47120110295308], [19.06303010880947, 47.471190677811656], [19.063069000840187, 47.471185238606616]]]}}, {"type": "Feature", "id": 3721, "properties": {"buildingId": 1, "floorId": 26, "roomNumber": "T-703", "roomName": "T-703 El\u0151t\u00e9r", "scope": "budapest/lagymanyos/deli/T/LD-T-703-04-63", "roomCode": "LD-T-703-04-63", "roomType": "corridor", "__tile": "17/72476/45848", "__layer": "rooms", "__zoom": 17, "__mvtId": 3721, "__building": "deli", "__ringVerts": 5, "id": 3721, "catalogFloorId": 26}, "geometry": {"type": "Polygon", "coordinates": [[[19.062574803829193, 47.47131169997825], [19.062580838799477, 47.47133073714764], [19.062564745545387, 47.471333003476865], [19.062559381127357, 47.47131396630831], [19.062574803829193, 47.47131169997825]]]}}, {"type": "Feature", "id": 2392, "properties": {"buildingId": 1, "floorId": 26, "roomNumber": "T-602", "roomName": "T-602 L\u00e9pcs\u0151h\u00e1z", "scope": "budapest/lagymanyos/deli/T/LD-T-602-04-64", "roomCode": "LD-T-602-04-64", "roomType": "corridor", "__tile": "17/72476/45848", "__layer": "rooms", "__zoom": 17, "__mvtId": 2392, "__building": "deli", "__ringVerts": 7, "id": 2392, "catalogFloorId": 26}, "geometry": {"type": "Polygon", "coordinates": [[[19.062684774398804, 47.4714653569343], [19.06269147992134, 47.471488473428636], [19.062634482979774, 47.4714961789245], [19.062636494636536, 47.471502071361726], [19.062620401382446, 47.47150433768357], [19.062611684203148, 47.47147532875664], [19.062684774398804, 47.4714653569343]]]}}, {"type": "Feature", "id": 3636, "properties": {"buildingId": 1, "floorId": 26, "roomNumber": "T-101", "roomName": "T-101 K\u00f6zleked\u0151", "scope": "budapest/lagymanyos/deli/T/LD-T-101-04-63", "roomCode": "LD-T-101-04-63", "roomType": "corridor", "__tile": "17/72476/45848", "__layer": "rooms", "__zoom": 17, "__mvtId": 3636, "__building": "deli", "__ringVerts": 78, "id": 3636, "catalogFloorId": 26}, "geometry": {"type": "Polygon", "coordinates": [[[19.06300462782383, 47.47097174936401], [19.06303346157074, 47.47106784229391], [19.06304620206356, 47.47106602922139], [19.063052907586098, 47.47108687955162], [19.063039496541023, 47.471088692623425], [19.063068330287933, 47.47118478533951], [19.063040167093277, 47.471188411476284], [19.063029438257217, 47.47115260336454], [19.063018709421158, 47.47115396316669], [19.06301535665989, 47.47114353801592], [19.06302608549595, 47.471141724946], [19.06301401555538, 47.47110274392778], [19.062920808792114, 47.47111543542526], [19.062917456030846, 47.47110546353464], [19.062910079956055, 47.47110682333802], [19.062912091612816, 47.47111362235438], [19.062895998358727, 47.47111588869297], [19.062893986701965, 47.471108636409134], [19.06282626092434, 47.47111815503146], [19.062828943133354, 47.47112495404636], [19.062812849879265, 47.47112722038446], [19.062810838222504, 47.471119968102194], [19.062701538205147, 47.47113492593328], [19.062703549861908, 47.47114217821348], [19.062688127160072, 47.471144444550845], [19.06268611550331, 47.47113719227095], [19.062618389725685, 47.47114671088811], [19.062620401382446, 47.47115350989931], [19.06260497868061, 47.47115577623618], [19.06260296702385, 47.471148977225276], [19.062594920396805, 47.47114988376011], [19.062598273158073, 47.4711598556423], [19.062504395842552, 47.471173000393215], [19.06251646578312, 47.47121198135932], [19.062526524066925, 47.47121062155866], [19.062529876828194, 47.47122104669613], [19.062519818544388, 47.47122240649652], [19.062530547380447, 47.4712586678272], [19.062501713633537, 47.47126229395889], [19.062472879886627, 47.4711666546518], [19.062460139393806, 47.47116846772086], [19.06245343387127, 47.47114716415555], [19.062466844916344, 47.47114580435322], [19.062438011169434, 47.47104971156587], [19.06246617436409, 47.47104608541951], [19.062477573752403, 47.47108189360384], [19.06248763203621, 47.47108053379982], [19.062490314245224, 47.47108914589137], [19.062480255961418, 47.471090505695166], [19.062492325901985, 47.47113175306038], [19.062585532665253, 47.47111860829915], [19.06258888542652, 47.47112903345488], [19.062596932053566, 47.47112767365207], [19.062594920396805, 47.471120874637535], [19.06261034309864, 47.47111860829915], [19.0626123547554, 47.47112586058161], [19.062680080533028, 47.47111634196068], [19.062678068876266, 47.47110908967691], [19.062693491578102, 47.47110727660581], [19.062695503234863, 47.471114075622104], [19.06272165477276, 47.47111044948019], [19.06280480325222, 47.47109911778508], [19.06280279159546, 47.47109231876685], [19.062818214297295, 47.471090052427236], [19.062820225954056, 47.471096851445765], [19.062887951731682, 47.47108778608754], [19.06288594007492, 47.47108053379982], [19.062901362776756, 47.47107872072773], [19.062903374433517, 47.47108551974773], [19.062911421060562, 47.47108461321178], [19.062908068299294, 47.471074188047254], [19.063001945614815, 47.47106149653981], [19.062989875674248, 47.47102251546208], [19.062979817390442, 47.4710238752676], [19.062976464629173, 47.47101345009102], [19.06298652291298, 47.47101163701662], [19.06297579407692, 47.47097582878442], [19.06300462782383, 47.47097174936401]]]}}, {"type": "Feature", "id": 3161, "properties": {"buildingId": 1, "floorId": 26, "roomNumber": "T-105", "roomName": "T-105 L\u00e9pcs\u0151h\u00e1z", "scope": "budapest/lagymanyos/deli/T/LD-T-105-04-64", "roomCode": "LD-T-105-04-64", "roomType": "corridor", "__tile": "17/72476/45848", "__layer": "rooms", "__zoom": 17, "__mvtId": 3161, "__building": "deli", "__ringVerts": 5, "id": 3161, "catalogFloorId": 26}, "geometry": {"type": "Polygon", "coordinates": [[[19.062576815485954, 47.47109277203476], [19.06258352100849, 47.47111634196068], [19.0625037252903, 47.47112903345488], [19.062496349215508, 47.47110410373123], [19.062576815485954, 47.47109277203476]]]}}, {"type": "Feature", "id": 2401, "properties": {"buildingId": 1, "floorId": 26, "roomNumber": "T-705", "roomName": "T-705 El\u0151t\u00e9r", "scope": "budapest/lagymanyos/deli/T/LD-T-705-04-63", "roomCode": "LD-T-705-04-63", "roomType": "corridor", "__tile": "17/72476/45848", "__layer": "rooms", "__zoom": 17, "__mvtId": 2401, "__building": "deli", "__ringVerts": 5, "id": 2401, "catalogFloorId": 26}, "geometry": {"type": "Polygon", "coordinates": [[[19.062580838799477, 47.47133164367934], [19.06258888542652, 47.471358839623164], [19.062573462724686, 47.471361105951175], [19.06256541609764, 47.471333910008525], [19.062580838799477, 47.47133164367934]]]}}, {"type": "Feature", "id": 3467, "properties": {"buildingId": 1, "floorId": 26, "roomNumber": "T-710", "roomName": "T-710 WC", "scope": "budapest/lagymanyos/deli/T/LD-T-710-05-71", "roomCode": "LD-T-710-05-71", "roomType": "social", "__tile": "17/72476/45848", "__layer": "rooms", "__zoom": 17, "__mvtId": 3467, "__building": "deli", "__ringVerts": 5, "id": 3467, "catalogFloorId": 26}, "geometry": {"type": "Polygon", "coordinates": [[[19.06260296702385, 47.47145765143393], [19.06260833144188, 47.47147396896278], [19.06259760260582, 47.47147532875664], [19.062592908740044, 47.4714590112282], [19.06260296702385, 47.47145765143393]]]}}, {"type": "Feature", "id": 3385, "properties": {"buildingId": 1, "floorId": 26, "roomNumber": "T-708", "roomName": "T-708 El\u0151t\u00e9r", "scope": "budapest/lagymanyos/deli/T/LD-T-708-04-63", "roomCode": "LD-T-708-04-63", "roomType": "corridor", "__tile": "17/72476/45848", "__layer": "rooms", "__zoom": 17, "__mvtId": 3385, "__building": "deli", "__ringVerts": 5, "id": 3385, "catalogFloorId": 26}, "geometry": {"type": "Polygon", "coordinates": [[[19.06263716518879, 47.4714404273702], [19.062640517950058, 47.4714513057269], [19.06259223818779, 47.47145810469869], [19.06258888542652, 47.4714472263434], [19.06263716518879, 47.4714404273702]]]}}, {"type": "Feature", "id": 2293, "properties": {"buildingId": 1, "floorId": 26, "roomNumber": "T-604", "roomName": "T-604 L\u00e9pcs\u0151h\u00e1z", "scope": "budapest/lagymanyos/deli/T/LD-T-604-04-64", "roomCode": "LD-T-604-04-64", "roomType": "corridor", "__tile": "17/72476/45848", "__layer": "rooms", "__zoom": 17, "__mvtId": 2293, "__building": "deli", "__ringVerts": 7, "id": 2293, "catalogFloorId": 26}, "geometry": {"type": "Polygon", "coordinates": [[[19.063090458512306, 47.47140915208214], [19.063099175691605, 47.471438161045604], [19.063083082437515, 47.4714404273702], [19.063081741333008, 47.471434988191], [19.06302474439144, 47.4714426936947], [19.06301736831665, 47.47141957718022], [19.063090458512306, 47.47140915208214]]]}}, {"type": "Feature", "id": 3044, "properties": {"buildingId": 1, "floorId": 26, "roomNumber": "T-701", "roomName": "T-701 K\u00f6zleked\u0151", "scope": "budapest/lagymanyos/deli/T/LD-T-701-04-63", "roomCode": "LD-T-701-04-63", "roomType": "corridor", "__tile": "17/72476/45848", "__layer": "rooms", "__zoom": 17, "__mvtId": 3044, "__building": "deli", "__ringVerts": 33, "id": 3044, "catalogFloorId": 26}, "geometry": {"type": "Polygon", "coordinates": [[[19.062541276216507, 47.47125776129424], [19.062543958425522, 47.47126863968875], [19.062533900141716, 47.4712699994879], [19.062539264559746, 47.47128767687373], [19.06254932284355, 47.47128631707503], [19.06255267560482, 47.47129674219748], [19.06254194676876, 47.4712981019959], [19.06254731118679, 47.471315779372276], [19.06255804002285, 47.471314419574306], [19.06256139278412, 47.47132484469118], [19.06255066394806, 47.47132620448888], [19.06255602836609, 47.4713438818558], [19.06256675720215, 47.471342522058556], [19.062569439411163, 47.47135294716987], [19.062559381127357, 47.471354306966845], [19.062564745545387, 47.4713719843243], [19.062574803829193, 47.471370624527786], [19.06257815659046, 47.471381049633514], [19.062567427754402, 47.471382409429765], [19.062572792172432, 47.47140008677777], [19.06258352100849, 47.47139872698198], [19.06258687376976, 47.47140915208214], [19.0625761449337, 47.47141051187766], [19.06258150935173, 47.47142818921622], [19.06259223818779, 47.471426829421155], [19.062594920396805, 47.471437254515735], [19.062584862113, 47.47143861431052], [19.06260497868061, 47.47150705726964], [19.063024073839188, 47.4714494926676], [19.063029438257217, 47.471468983051736], [19.062582850456238, 47.47153062700977], [19.06250238418579, 47.47126320049177], [19.062541276216507, 47.47125776129424]]]}}, {"type": "Feature", "id": 3196, "properties": {"buildingId": 1, "floorId": 26, "roomNumber": "T-107", "roomName": "T-107 L\u00e9pcs\u0151h\u00e1z", "scope": "budapest/lagymanyos/deli/T/LD-T-107-04-64", "roomCode": "LD-T-107-04-64", "roomType": "corridor", "__tile": "17/72476/45848", "__layer": "rooms", "__zoom": 17, "__mvtId": 3196, "__building": "deli", "__ringVerts": 6, "id": 3196, "catalogFloorId": 26}, "geometry": {"type": "Polygon", "coordinates": [[[19.062982499599457, 47.47103702005251], [19.062989875674248, 47.471062403076154], [19.062974452972412, 47.471064216148804], [19.062908738851547, 47.471071468438765], [19.062901362776756, 47.47104835176101], [19.062982499599457, 47.47103702005251]]]}}, {"type": "Feature", "id": 2428, "properties": {"buildingId": 1, "floorId": 26, "roomNumber": "T-212", "roomName": "T-212 El\u0151t\u00e9r", "scope": "budapest/lagymanyos/deli/T/LD-T-212-04-63", "roomCode": "LD-T-212-04-63", "roomType": "corridor", "__tile": "17/72476/45848", "__layer": "rooms", "__zoom": 17, "__mvtId": 2428, "__building": "deli", "__ringVerts": 5, "id": 2428, "catalogFloorId": 26}, "geometry": {"type": "Polygon", "coordinates": [[[19.06248763203621, 47.47102251546208], [19.062493667006493, 47.47104109946786], [19.062477573752403, 47.47104336580957], [19.062472209334373, 47.471024328536096], [19.06248763203621, 47.47102251546208]]]}}, {"type": "Feature", "id": 3505, "properties": {"buildingId": 1, "floorId": 26, "roomNumber": "T-202", "roomName": "T-202 El\u0151t\u00e9r", "scope": "budapest/lagymanyos/deli/T/LD-T-202-04-63", "roomCode": "LD-T-202-04-63", "roomType": "corridor", "__tile": "17/72476/45848", "__layer": "rooms", "__zoom": 17, "__mvtId": 3505, "__building": "deli", "__ringVerts": 5, "id": 3505, "catalogFloorId": 26}, "geometry": {"type": "Polygon", "coordinates": [[[19.062456116080284, 47.47083894139338], [19.062459468841553, 47.470850273144585], [19.062411189079285, 47.470856618924195], [19.062407836318016, 47.470845740444396], [19.062456116080284, 47.47083894139338]]]}}, {"type": "Feature", "id": 3172, "properties": {"buildingId": 1, "floorId": 26, "roomNumber": "T-204", "roomName": "T-204 WC", "scope": "budapest/lagymanyos/deli/T/LD-T-204-05-71", "roomCode": "LD-T-204-05-71", "roomType": "social", "__tile": "17/72476/45848", "__layer": "rooms", "__zoom": 17, "__mvtId": 3172, "__building": "deli", "__ringVerts": 5, "id": 3172, "catalogFloorId": 26}, "geometry": {"type": "Polygon", "coordinates": [[[19.062413200736046, 47.47082715636954], [19.062418565154076, 47.47084347409416], [19.062407836318016, 47.470844833904316], [19.06240314245224, 47.47082851618012], [19.062413200736046, 47.47082715636954]]]}}, {"type": "Feature", "id": 3202, "properties": {"buildingId": 1, "floorId": 26, "roomNumber": "T-502", "roomName": "T-502 El\u0151t\u00e9r", "scope": "budapest/lagymanyos/deli/T/LD-T-502-04-63", "roomCode": "LD-T-502-04-63", "roomType": "corridor", "__tile": "17/72476/45848", "__layer": "rooms", "__zoom": 17, "__mvtId": 3202, "__building": "deli", "__ringVerts": 5, "id": 3202, "catalogFloorId": 26}, "geometry": {"type": "Polygon", "coordinates": [[[19.063095822930336, 47.47137742351002], [19.06309850513935, 47.471388301879756], [19.063050225377083, 47.4713951008597], [19.063046872615814, 47.47138422249137], [19.063095822930336, 47.47137742351002]]]}}, {"type": "Feature", "id": 3195, "properties": {"buildingId": 1, "floorId": 26, "roomNumber": "T-205", "roomName": "T-205 WC", "scope": "budapest/lagymanyos/deli/T/LD-T-205-05-71", "roomCode": "LD-T-205-05-71", "roomType": "social", "__tile": "17/72476/45848", "__layer": "rooms", "__zoom": 17, "__mvtId": 3195, "__building": "deli", "__ringVerts": 5, "id": 3195, "catalogFloorId": 26}, "geometry": {"type": "Polygon", "coordinates": [[[19.062425270676613, 47.47082579655892], [19.06242996454239, 47.470841661013885], [19.062419906258583, 47.47084347409416], [19.062414541840553, 47.47082715636954], [19.062425270676613, 47.47082579655892]]]}}, {"type": "Feature", "id": 2261, "properties": {"buildingId": 1, "floorId": 26, "roomNumber": "T-711", "roomName": "T-711 WC", "scope": "budapest/lagymanyos/deli/T/LD-T-711-05-71", "roomCode": "LD-T-711-05-71", "roomType": "social", "__tile": "17/72476/45848", "__layer": "rooms", "__zoom": 17, "__mvtId": 2261, "__building": "deli", "__ringVerts": 5, "id": 2261, "catalogFloorId": 26}, "geometry": {"type": "Polygon", "coordinates": [[[19.062615036964417, 47.47145583837486], [19.062619730830193, 47.47147215590428], [19.062609672546387, 47.471473515698165], [19.062604308128357, 47.471457198169176], [19.062615036964417, 47.47145583837486]]]}}, {"type": "Feature", "id": 2795, "properties": {"buildingId": 1, "floorId": 26, "roomNumber": "T-709", "roomName": "T-709 iroda EbiHal", "scope": "budapest/lagymanyos/deli/T/LD-T-709-02-33", "roomCode": "LD-T-709-02-33", "roomType": "administrative", "__tile": "17/72476/45848", "__layer": "rooms", "__zoom": 17, "__mvtId": 2795, "__building": "deli", "__ringVerts": 6, "id": 2795, "catalogFloorId": 26}, "geometry": {"type": "Polygon", "coordinates": [[[19.06266264617443, 47.471437254515735], [19.062678068876266, 47.47144405348935], [19.06268410384655, 47.471463543875494], [19.062647223472595, 47.47146852978707], [19.062638506293297, 47.4714404273702], [19.06266264617443, 47.471437254515735]]]}}], "meta": {"building": "deli", "floorId": 26, "polygonCount": 28}}