{"type":"FeatureCollection","features":[{"type":"Feature","id":1160,"properties":{"buildingId":2,"floorId":13,"roomNumber":"8.8","roomName":"8,08","scope":"budapest/lagymanyos/eszaki/8/LÉ-8-08-02-33","roomCode":"LÉ-8-08-02-33","roomType":"administrative","__tile":"17/72476/45847","__layer":"rooms","__zoom":17,"__mvtId":1160,"__building":"eszaki","__ringVerts":8,"id":1160,"catalogFloorId":13},"geometry":{"type":"Polygon","coordinates":[[[19.061915678,47.474390857],[19.06193043,47.474441168],[19.061874774,47.474448873],[19.061862704,47.474419865],[19.061866057,47.474419412],[19.061859352,47.474398562],[19.061874774,47.474396749],[19.061915678,47.474390857]]]}},{"type":"Feature","id":1169,"properties":{"buildingId":2,"floorId":13,"roomNumber":"8-K.3-12","roomName":"8.K3-12 Közlekedő (Keleti liftgépházhoz jobb oldal)","scope":"budapest/lagymanyos/eszaki/8/LÉ-8-K3-12-04-63","roomCode":"LÉ-8-K3-12-04-63","roomType":"corridor","__tile":"17/72476/45847","__layer":"rooms","__zoom":17,"__mvtId":1169,"__building":"eszaki","__ringVerts":14,"id":1169,"catalogFloorId":13},"geometry":{"type":"Polygon","coordinates":[[[19.062389187,47.47444478],[19.06242875,47.474573051],[19.062425397,47.474574864],[19.062397234,47.474577584],[19.062385835,47.474540417],[19.06239187,47.47453951],[19.062375106,47.474484213],[19.062369071,47.47448512],[19.062363706,47.474467896],[19.062354989,47.474469709],[19.062352978,47.474462457],[19.062361695,47.474461551],[19.06235633,47.47444478],[19.062389187,47.47444478]]]}},{"type":"Feature","id":1158,"properties":{"buildingId":2,"floorId":13,"roomNumber":"8.04","roomName":"8.04 Asztrofizika obszervatórium üzemeltetés","scope":"budapest/lagymanyos/eszaki/8/LÉ-8-04-01-14","roomCode":"LÉ-8-04-01-14","roomType":"educational","__tile":"17/72476/45847","__layer":"rooms","__zoom":17,"__mvtId":1158,"__building":"eszaki","__ringVerts":79,"id":1158,"catalogFloorId":13},"geometry":{"type":"Polygon","coordinates":[[[19.062459832,47.474111562],[19.062466537,47.474132865],[19.062462514,47.474133318],[19.062463855,47.474137851],[19.062467879,47.474136944],[19.062483972,47.474189069],[19.062479948,47.474189522],[19.06248129,47.474194054],[19.062485313,47.474193148],[19.062500736,47.474245272],[19.062497383,47.474245725],[19.062498724,47.474250258],[19.062502077,47.474249805],[19.06251817,47.474301476],[19.062514147,47.474301929],[19.062515488,47.474306461],[19.062519511,47.474306008],[19.062534934,47.474357679],[19.062531581,47.474358132],[19.062532252,47.474362211],[19.062536275,47.474362211],[19.062552368,47.474413882],[19.062548345,47.474414335],[19.062549686,47.474418868],[19.062553709,47.474418415],[19.062569803,47.474470085],[19.062565779,47.474470992],[19.06256712,47.474475071],[19.062571144,47.474474618],[19.062586566,47.474526289],[19.062510794,47.474537167],[19.062509453,47.474533087],[19.062500065,47.474534447],[19.062496042,47.47452085],[19.062505429,47.47451949],[19.062500065,47.474502719],[19.062490677,47.474504079],[19.062486654,47.474490482],[19.062496042,47.474489122],[19.062492689,47.474476431],[19.06248129,47.474478244],[19.062483301,47.474483683],[19.062451115,47.474488215],[19.062449774,47.474482776],[19.062438374,47.474484136],[19.062440386,47.474489575],[19.062363943,47.47449864],[19.06234852,47.47444697],[19.062351873,47.474446516],[19.062350532,47.474441984],[19.062347179,47.474442437],[19.062339803,47.474419321],[19.062342485,47.474418868],[19.062331086,47.474390766],[19.062335109,47.474390313],[19.062333768,47.474385781],[19.062329745,47.474386234],[19.062290853,47.474252524],[19.062374672,47.47424074],[19.062376683,47.474245725],[19.062410211,47.47424074],[19.062420269,47.474238473],[19.062414905,47.47422125],[19.062404847,47.474222609],[19.062400823,47.474209465],[19.062410882,47.474208105],[19.06240887,47.474202213],[19.062404176,47.474200853],[19.062399482,47.474203573],[19.062382048,47.474146463],[19.062388083,47.474147369],[19.062391436,47.474145103],[19.062389424,47.474139211],[19.062380036,47.47414057],[19.062378695,47.474136491],[19.062376013,47.474127426],[19.062385401,47.474126066],[19.062381377,47.474111562],[19.062459832,47.474111562]],[[19.06238406,47.474479604],[19.062369978,47.47448187],[19.06237266,47.474491841],[19.062387412,47.474489575],[19.06238406,47.474479604]],[[19.062356567,47.474387594],[19.062341815,47.47438986],[19.062349191,47.474415242],[19.062363943,47.474412976],[19.062356567,47.474387594]],[[19.062440386,47.474452409],[19.062429657,47.474453768],[19.062434351,47.474470992],[19.06244575,47.474469179],[19.062440386,47.474452409]],[[19.062483301,47.474446063],[19.062471902,47.474447876],[19.062478607,47.474464646],[19.062488666,47.474463287],[19.062483301,47.474446063]],[[19.062375342,47.474449236],[19.06236059,47.474451049],[19.062363272,47.47446102],[19.062378025,47.474459207],[19.062375342,47.474449236]],[[19.062432339,47.474426573],[19.06242161,47.474427933],[19.062425634,47.474440624],[19.062436363,47.474438811],[19.062432339,47.474426573]],[[19.062367296,47.4744234],[19.062352544,47.474425667],[19.062355896,47.474435638],[19.062369978,47.474433372],[19.062367296,47.4744234]],[[19.062475255,47.474420228],[19.062464526,47.474422041],[19.06246922,47.474434278],[19.062479278,47.474432919],[19.062475255,47.474420228]],[[19.062347179,47.474357226],[19.062332427,47.474359039],[19.062339803,47.474384421],[19.062354555,47.474382154],[19.062347179,47.474357226]],[[19.062406188,47.474339549],[19.062394788,47.474341362],[19.062400153,47.474358585],[19.062411552,47.474356772],[19.062406188,47.474339549]],[[19.062422952,47.474395752],[19.062412223,47.474397565],[19.062417587,47.474414789],[19.062428316,47.474412976],[19.062422952,47.474395752]],[[19.062465867,47.47438986],[19.062455138,47.474391673],[19.062461173,47.474408443],[19.062471231,47.474407083],[19.062465867,47.47438986]],[[19.062415575,47.474369917],[19.062404176,47.47437173],[19.062408199,47.474384421],[19.062418928,47.474382608],[19.062415575,47.474369917]],[[19.062388753,47.474283345],[19.062378025,47.474285158],[19.062383389,47.474302382],[19.062394118,47.474300569],[19.062388753,47.474283345]],[[19.062458491,47.474364024],[19.062447091,47.474365837],[19.062451785,47.474378075],[19.062461844,47.474376715],[19.062458491,47.474364024]],[[19.062449103,47.474333656],[19.062437704,47.474335469],[19.062444409,47.47435224],[19.062454468,47.47435088],[19.062449103,47.474333656]],[[19.062431669,47.474277453],[19.06242094,47.474279266],[19.062426975,47.474296036],[19.062437033,47.474294677],[19.062431669,47.474277453]],[[19.062441056,47.474307821],[19.062430328,47.474309634],[19.062435021,47.474321872],[19.06244508,47.474320512],[19.062441056,47.474307821]],[[19.06232371,47.474280173],[19.062308958,47.474282439],[19.06231231,47.47429241],[19.062326392,47.474290144],[19.06232371,47.474280173]],[[19.062423622,47.474251618],[19.062412893,47.474252977],[19.062416917,47.474265669],[19.062427645,47.474264309],[19.062423622,47.474251618]],[[19.062380036,47.474262496],[19.06237199,47.474266122],[19.062374001,47.474272014],[19.06238473,47.474270201],[19.062380036,47.474262496]]]}},{"type":"Feature","id":1171,"properties":{"buildingId":2,"floorId":13,"roomNumber":"8-L5","roomName":"8.L5 Lépcsőház DK","scope":"budapest/lagymanyos/eszaki/8/LÉ-8-L5-04-64","roomCode":"LÉ-8-L5-04-64","roomType":"corridor","__tile":"17/72476/45847","__layer":"rooms","__zoom":17,"__mvtId":1171,"__building":"eszaki","__ringVerts":6,"id":1171,"catalogFloorId":13},"geometry":{"type":"Polygon","coordinates":[[[19.062454967,47.474138767],[19.062462344,47.474162336],[19.062383889,47.474173214],[19.062377183,47.474149645],[19.062386571,47.474148286],[19.062454967,47.474138767]]]}},{"type":"Feature","id":1170,"properties":{"buildingId":2,"floorId":13,"roomNumber":"8-L3","roomName":"8.L3 Lépcsőház ÉK","scope":"budapest/lagymanyos/eszaki/8/LÉ-8-L3-04-64","roomCode":"LÉ-8-L3-04-64","roomType":"corridor","__tile":"16/36238/22923","__layer":"rooms","__zoom":16,"__mvtId":1170,"__building":"eszaki","__ringVerts":7,"id":1170,"catalogFloorId":13},"geometry":{"type":"Polygon","coordinates":[[[19.062247242,47.474785583],[19.062255289,47.474800087],[19.062245901,47.474800993],[19.062248583,47.474810058],[19.062170799,47.474820936],[19.062164094,47.474797368],[19.062247242,47.474785583]]]}},{"type":"Feature","id":1159,"properties":{"buildingId":2,"floorId":13,"roomNumber":"8.6","roomName":"8.06 Asztrofizika obszervatórium, mérés-vezérlő","scope":"budapest/lagymanyos/eszaki/8/LÉ-8-06-01-14","roomCode":"LÉ-8-06-01-14","roomType":"educational","__tile":"17/72476/45847","__layer":"rooms","__zoom":17,"__mvtId":1159,"__building":"eszaki","__ringVerts":64,"id":1159,"catalogFloorId":13},"geometry":{"type":"Polygon","coordinates":[[[19.061964971,47.47403632],[19.061970336,47.474062608],[19.061974359,47.474062155],[19.061989782,47.474113826],[19.061985759,47.474114279],[19.0619871,47.474118812],[19.061991123,47.474118358],[19.062007216,47.474170029],[19.062003193,47.474170482],[19.062004534,47.474175015],[19.062008557,47.474174562],[19.06202398,47.474226232],[19.062019957,47.474226686],[19.062021298,47.474231218],[19.062025321,47.474230765],[19.062041414,47.474282436],[19.061966313,47.47429422],[19.061964301,47.474288781],[19.061953572,47.474290594],[19.061954913,47.474296033],[19.06195089,47.474297846],[19.061927421,47.474301019],[19.061923397,47.474300566],[19.061921386,47.474295127],[19.061910657,47.474296486],[19.061914009,47.474309177],[19.061924068,47.474307818],[19.061928091,47.474320962],[19.061918033,47.474322322],[19.061923397,47.474339545],[19.061933455,47.474338185],[19.061937479,47.47435133],[19.061927421,47.474352689],[19.061928762,47.474356769],[19.061852989,47.474367647],[19.061836896,47.474315523],[19.061840919,47.47431507],[19.061839578,47.474310537],[19.061835555,47.47431099],[19.061820132,47.47425932],[19.061824155,47.474258866],[19.061822814,47.474254334],[19.061818791,47.474254787],[19.061802698,47.474203117],[19.061806721,47.474202663],[19.06180538,47.474198131],[19.061801357,47.474198584],[19.061785934,47.474146913],[19.061789957,47.47414646],[19.061788616,47.474141928],[19.061784593,47.474142381],[19.0617685,47.47409071],[19.061772523,47.474089804],[19.061771852,47.474087084],[19.061843601,47.474077113],[19.061845613,47.474084365],[19.061857013,47.474082552],[19.061852989,47.47406986],[19.061842931,47.474072127],[19.061838908,47.474058529],[19.061849636,47.474058982],[19.061847625,47.474052637],[19.061851648,47.474052184],[19.061964971,47.47403632]],[[19.061989111,47.474145554],[19.061974359,47.47414782],[19.061981735,47.474173202],[19.061996487,47.474170936],[19.061989111,47.474145554]],[[19.061998499,47.474176375],[19.061983747,47.474178641],[19.061991123,47.47420357],[19.062005875,47.474201757],[19.061998499,47.474176375]],[[19.061911998,47.474264759],[19.061901269,47.474266119],[19.061906633,47.474283342],[19.061916021,47.474281982],[19.061911998,47.474264759]],[[19.062025992,47.474268385],[19.06201124,47.474270651],[19.062014592,47.474280623],[19.062029344,47.474278356],[19.062025992,47.474268385]],[[19.061954913,47.474258413],[19.061945525,47.474259773],[19.061949549,47.47427745],[19.061960278,47.474275637],[19.061954913,47.474258413]],[[19.061904622,47.474238923],[19.061893222,47.474240283],[19.061897246,47.474252974],[19.061906633,47.474251614],[19.061904622,47.474238923]],[[19.062016604,47.474237564],[19.062001852,47.47423983],[19.062005205,47.474249801],[19.062019957,47.474247988],[19.062016604,47.474237564]],[[19.061946867,47.474232578],[19.061937479,47.474233938],[19.061940161,47.474247082],[19.06195089,47.474245269],[19.061946867,47.474232578]],[[19.061895234,47.474208102],[19.061883835,47.474209915],[19.061889199,47.474227139],[19.061899257,47.474225779],[19.061895234,47.474208102]],[[19.061861036,47.474095696],[19.061849636,47.474097509],[19.061855001,47.474114732],[19.061865059,47.474113373],[19.061861036,47.474095696]],[[19.062009228,47.474212182],[19.061994476,47.474214448],[19.061997158,47.474224419],[19.06201191,47.474222153],[19.062009228,47.474212182]],[[19.061938149,47.47420221],[19.061928091,47.47420357],[19.061932114,47.474221247],[19.061942843,47.474219434],[19.061938149,47.47420221]],[[19.061920715,47.474146007],[19.061911327,47.474147367],[19.06191468,47.47416459],[19.061926079,47.47416323],[19.061920715,47.474146007]],[[19.061887187,47.474182267],[19.061876459,47.47418408],[19.061879811,47.474196771],[19.06188987,47.474195411],[19.061887187,47.474182267]],[[19.061930103,47.474176375],[19.061920044,47.474177734],[19.061922727,47.474190879],[19.061934126,47.474189066],[19.061930103,47.474176375]],[[19.061903951,47.474089804],[19.061893893,47.474091163],[19.061897916,47.474108387],[19.061908645,47.474107027],[19.061903951,47.474089804]],[[19.0618778,47.474151899],[19.061867071,47.474153712],[19.061872435,47.474170936],[19.061881823,47.474169576],[19.0618778,47.474151899]],[[19.061982406,47.474125157],[19.061967654,47.474127424],[19.061971006,47.474137395],[19.061985759,47.474135129],[19.061982406,47.474125157]],[[19.061965642,47.474068954],[19.06195089,47.47407122],[19.061953572,47.474081192],[19.061968324,47.474078926],[19.061965642,47.474068954]],[[19.061870424,47.474126064],[19.061859024,47.474127877],[19.061863047,47.474140568],[19.061872435,47.474139208],[19.061870424,47.474126064]],[[19.06197503,47.474099775],[19.061960278,47.474101588],[19.06196296,47.47411156],[19.061977712,47.474109747],[19.06197503,47.474099775]],[[19.061912668,47.474120171],[19.061903281,47.474121531],[19.061905963,47.474134676],[19.061916692,47.474132863],[19.061912668,47.474120171]],[[19.061893222,47.474069407],[19.061887858,47.474072127],[19.061888528,47.474078019],[19.061899928,47.474076659],[19.061897916,47.474070767],[19.061893222,47.474069407]]]}},{"type":"Feature","id":1166,"properties":{"buildingId":2,"floorId":13,"roomNumber":"8.29","roomName":"8.29 Napfizika, rádióteleszkóp lépcső","scope":"budapest/lagymanyos/eszaki/8/LÉ-8-29-04-64","roomCode":"LÉ-8-29-04-64","roomType":"corridor","__tile":"16/36238/22923","__layer":"rooms","__zoom":16,"__mvtId":1166,"__building":"eszaki","__ringVerts":7,"id":1166,"catalogFloorId":13},"geometry":{"type":"Polygon","coordinates":[[[19.062004111,47.474763931],[19.062022886,47.474772089],[19.062036297,47.474770276],[19.062045685,47.474799284],[19.061977289,47.474809255],[19.06196656,47.474772996],[19.062004111,47.474763931]]]}},{"type":"Feature","id":1173,"properties":{"buildingId":2,"floorId":13,"roomNumber":"8.L7","roomName":"8.L7 Lépcsőház 3 karú","scope":"budapest/lagymanyos/eszaki/8/LÉ-8-L7-04-64","roomCode":"LÉ-8-L7-04-64","roomType":"corridor","__tile":"17/72476/45847","__layer":"rooms","__zoom":17,"__mvtId":1173,"__building":"eszaki","__ringVerts":5,"id":1173,"catalogFloorId":13},"geometry":{"type":"Polygon","coordinates":[[[19.062271235,47.474441813],[19.062282635,47.474480793],[19.062195463,47.474493484],[19.062182722,47.474454051],[19.062271235,47.474441813]]]}},{"type":"Feature","id":1172,"properties":{"buildingId":2,"floorId":13,"roomNumber":"8-L6","roomName":"8.L6 Lépcsőház DNY","scope":"budapest/lagymanyos/eszaki/8/LÉ-8-L6-04-64","roomCode":"LÉ-8-L6-04-64","roomType":"corridor","__tile":"17/72476/45847","__layer":"rooms","__zoom":17,"__mvtId":1172,"__building":"eszaki","__ringVerts":8,"id":1172,"catalogFloorId":13},"geometry":{"type":"Polygon","coordinates":[[[19.062042809,47.474079888],[19.062050185,47.474103457],[19.061964355,47.474115241],[19.061959661,47.474100737],[19.061967707,47.474099378],[19.061965025,47.474090766],[19.062039456,47.474080341],[19.062042809,47.474079888]]]}}],"meta":{"building":"eszaki","floorId":13,"polygonCount":9}}