{"type": "FeatureCollection", "features": [{"type": "Feature", "id": 1079, "properties": {"buildingId": 2, "floorId": 12, "roomNumber": "7.17", "roomName": "7.17 Dolgoz\u00f3", "scope": "budapest/lagymanyos/eszaki/7/L\u00c9-7-17-02-33", "roomCode": "L\u00c9-7-17-02-33", "roomType": "administrative", "__tile": "17/72476/45847", "__layer": "rooms", "__zoom": 17, "__mvtId": 1079, "__building": "eszaki", "__ringVerts": 6, "id": 1079, "catalogFloorId": 12}, "geometry": {"type": "Polygon", "coordinates": [[[19.062016904354095, 47.47313062503761], [19.062036350369453, 47.47318682804872], [19.061990082263947, 47.47319317354619], [19.061973318457603, 47.473139236793216], [19.06200148165226, 47.473132891289225], [19.062016904354095, 47.47313062503761]]]}}, {"type": "Feature", "id": 1082, "properties": {"buildingId": 2, "floorId": 12, "roomNumber": "7.22", "roomName": "7.22 Teakonyha", "scope": "budapest/lagymanyos/eszaki/7/L\u00c9-7-22-05-77", "roomCode": "L\u00c9-7-22-05-77", "roomType": "social", "__tile": "17/72476/45847", "__layer": "rooms", "__zoom": 17, "__mvtId": 1082, "__building": "eszaki", "__ringVerts": 6, "id": 1082, "catalogFloorId": 12}, "geometry": {"type": "Polygon", "coordinates": [[[19.062479585409164, 47.473068982956335], [19.062496349215508, 47.47312291978142], [19.06245008111, 47.47312971853695], [19.062434658408165, 47.47307260896311], [19.06246282160282, 47.473068982956335], [19.062479585409164, 47.473068982956335]]]}}, {"type": "Feature", "id": 1086, "properties": {"buildingId": 2, "floorId": 12, "roomNumber": "7.26", "roomName": "7.26 Dolgoz\u00f3", "scope": "budapest/lagymanyos/eszaki/7/L\u00c9-7-26-02-33", "roomCode": "L\u00c9-7-26-02-33", "roomType": "administrative", "__tile": "17/72476/45847", "__layer": "rooms", "__zoom": 17, "__mvtId": 1086, "__building": "eszaki", "__ringVerts": 6, "id": 1086, "catalogFloorId": 12}, "geometry": {"type": "Polygon", "coordinates": [[[19.0621255338192, 47.47305901143638], [19.062136262655258, 47.47309617800111], [19.062055125832558, 47.47310750926561], [19.062044396996498, 47.47307034270891], [19.062117487192154, 47.47306037118921], [19.0621255338192, 47.47305901143638]]]}}, {"type": "Feature", "id": 1130, "properties": {"buildingId": 2, "floorId": 12, "roomNumber": "7.75", "roomName": "7.75 Oktat\u00f3i", "scope": "budapest/lagymanyos/eszaki/7/L\u00c9-7-75-01-13", "roomCode": "L\u00c9-7-75-01-13", "roomType": "educational", "__tile": "16/36238/22923", "__layer": "rooms", "__zoom": 16, "__mvtId": 1130, "__building": "eszaki", "__ringVerts": 5, "id": 1130, "catalogFloorId": 12}, "geometry": {"type": "Polygon", "coordinates": [[[19.0619458258152, 47.47417580990896], [19.061960577964783, 47.474231105320555], [19.06192973256111, 47.47423563772876], [19.061912298202515, 47.47417762287419], [19.0619458258152, 47.47417580990896]]]}}, {"type": "Feature", "id": 1129, "properties": {"buildingId": 2, "floorId": 12, "roomNumber": "7.74", "roomName": "7.74 Oktat\u00f3i", "scope": "budapest/lagymanyos/eszaki/7/L\u00c9-7-74-01-13", "roomCode": "L\u00c9-7-74-01-13", "roomType": "educational", "__tile": "16/36238/22923", "__layer": "rooms", "__zoom": 16, "__mvtId": 1129, "__building": "eszaki", "__ringVerts": 7, "id": 1129, "catalogFloorId": 12}, "geometry": {"type": "Polygon", "coordinates": [[[19.061910957098007, 47.47417762287419], [19.06192570924759, 47.47422747939371], [19.06191498041153, 47.474229292357165], [19.061917662620544, 47.47423745069194], [19.06189352273941, 47.47423745069194], [19.061881452798843, 47.47418215528701], [19.061910957098007, 47.47417762287419]]]}}, {"type": "Feature", "id": 1135, "properties": {"buildingId": 2, "floorId": 12, "roomNumber": "7.78", "roomName": "7.78 Oktat\u00f3i", "scope": "budapest/lagymanyos/eszaki/7/L\u00c9-7-78-01-13", "roomCode": "L\u00c9-7-78-01-13", "roomType": "educational", "__tile": "16/36238/22923", "__layer": "rooms", "__zoom": 16, "__mvtId": 1135, "__building": "eszaki", "__ringVerts": 5, "id": 1135, "catalogFloorId": 12}, "geometry": {"type": "Polygon", "coordinates": [[[19.06205043196678, 47.47415858673608], [19.06206786632538, 47.474216601611666], [19.062034338712692, 47.47421750809359], [19.062022268772125, 47.47416311915054], [19.06205043196678, 47.47415858673608]]]}}, {"type": "Feature", "id": 1125, "properties": {"buildingId": 2, "floorId": 12, "roomNumber": "7.71", "roomName": "7.71 Dolgoz\u00f3i", "scope": "budapest/lagymanyos/eszaki/7/L\u00c9-7-71-02-33", "roomCode": "L\u00c9-7-71-02-33", "roomType": "administrative", "__tile": "16/36238/22923", "__layer": "rooms", "__zoom": 16, "__mvtId": 1125, "__building": "eszaki", "__ringVerts": 5, "id": 1125, "catalogFloorId": 12}, "geometry": {"type": "Polygon", "coordinates": [[[19.06180366873741, 47.47419575252312], [19.0618197619915, 47.47425104791374], [19.06178891658783, 47.474255580320225], [19.061771482229233, 47.47419665900541], [19.06180366873741, 47.47419575252312]]]}}, {"type": "Feature", "id": 1127, "properties": {"buildingId": 2, "floorId": 12, "roomNumber": "7.73", "roomName": "7.73 K\u00f6nyvt\u00e1r", "scope": "budapest/lagymanyos/eszaki/7/L\u00c9-7-73-03-43 (1)", "roomCode": "L\u00c9-7-73-03-43 (1)", "roomType": "misc", "__tile": "16/36238/22923", "__layer": "rooms", "__zoom": 16, "__mvtId": 1127, "__building": "eszaki", "__ringVerts": 5, "id": 1127, "catalogFloorId": 12}, "geometry": {"type": "Polygon", "coordinates": [[[19.061876088380814, 47.47418578121698], [19.061889499425888, 47.47424107661809], [19.061859995126724, 47.47424560902544], [19.06184121966362, 47.47418668769944], [19.061876088380814, 47.47418578121698]]]}}, {"type": "Feature", "id": 1126, "properties": {"buildingId": 2, "floorId": 12, "roomNumber": "7.72", "roomName": "7.72 Dolgoz\u00f3i", "scope": "budapest/lagymanyos/eszaki/7/L\u00c9-7-72-02-33", "roomCode": "L\u00c9-7-72-02-33", "roomType": "administrative", "__tile": "16/36238/22923", "__layer": "rooms", "__zoom": 16, "__mvtId": 1126, "__building": "eszaki", "__ringVerts": 5, "id": 1126, "catalogFloorId": 12}, "geometry": {"type": "Polygon", "coordinates": [[[19.061839878559113, 47.47418759418188], [19.061858654022217, 47.47424560902544], [19.061826467514038, 47.47425014143239], [19.061811715364456, 47.47419122011148], [19.061839878559113, 47.47418759418188]]]}}, {"type": "Feature", "id": 55, "properties": {"buildingId": 2, "floorId": 12, "roomNumber": "7.28", "roomName": "7.28 M\u0171terem", "scope": "budapest/lagymanyos/eszaki/7/L\u00c9-7-28-01-12", "roomCode": "L\u00c9-7-28-01-12", "roomType": "educational", "__tile": "17/72476/45847", "__layer": "rooms", "__zoom": 17, "__mvtId": 55, "__building": "eszaki", "__ringVerts": 15, "id": 55, "catalogFloorId": 12}, "geometry": {"type": "Polygon", "coordinates": [[[19.062007516622543, 47.47295793637745], [19.06203031539917, 47.47304133464638], [19.061957225203514, 47.47305175942069], [19.0619545429945, 47.473043600901846], [19.061944484710693, 47.47304496065507], [19.06194046139717, 47.47303226962356], [19.061950519680977, 47.473030909870005], [19.061943143606186, 47.47300507454571], [19.061937779188156, 47.47298739773756], [19.06192772090435, 47.47298875749225], [19.061923697590828, 47.47297606644717], [19.061933755874634, 47.472974706692156], [19.061931744217873, 47.4729683611683], [19.061960577964783, 47.47296337539902], [19.062007516622543, 47.47295793637745]]]}}, {"type": "Feature", "id": 1091, "properties": {"buildingId": 2, "floorId": 12, "roomNumber": "7.30", "roomName": "7.30 Hangst\u00fadi\u00f3", "scope": "budapest/lagymanyos/eszaki/7/L\u00c9-7-30-01-14", "roomCode": "L\u00c9-7-30-01-14", "roomType": "educational", "__tile": "17/72476/45847", "__layer": "rooms", "__zoom": 17, "__mvtId": 1091, "__building": "eszaki", "__ringVerts": 5, "id": 1091, "catalogFloorId": 12}, "geometry": {"type": "Polygon", "coordinates": [[[19.061955884099007, 47.47287816399635], [19.06196191906929, 47.47290445263531], [19.061914309859276, 47.47291125141911], [19.06190626323223, 47.47288405627863], [19.061955884099007, 47.47287816399635]]]}}, {"type": "Feature", "id": 1089, "properties": {"buildingId": 2, "floorId": 12, "roomNumber": "7.29", "roomName": "7.29 Edit\u00e1l\u00f3", "scope": "budapest/lagymanyos/eszaki/7/L\u00c9-7-29-01-14", "roomCode": "L\u00c9-7-29-01-14", "roomType": "educational", "__tile": "17/72476/45847", "__layer": "rooms", "__zoom": 17, "__mvtId": 1089, "__building": "eszaki", "__ringVerts": 10, "id": 1089, "catalogFloorId": 12}, "geometry": {"type": "Polygon", "coordinates": [[[19.061990082263947, 47.47290173312155], [19.06200684607029, 47.47295702987379], [19.061931744217873, 47.472967454664825], [19.06192034482956, 47.47293119451318], [19.061915650963783, 47.47293164776523], [19.06191162765026, 47.472918503454196], [19.061916321516037, 47.47291759694986], [19.06191498041153, 47.47291215792356], [19.061943143606186, 47.472907172148936], [19.061990082263947, 47.47290173312155]]]}}, {"type": "Feature", "id": 1093, "properties": {"buildingId": 2, "floorId": 12, "roomNumber": "7.31", "roomName": "7.31 Hallgat\u00f3i vide\u00f3 labor", "scope": "budapest/lagymanyos/eszaki/7/L\u00c9-7-31-01-14", "roomCode": "L\u00c9-7-31-01-14", "roomType": "educational", "__tile": "17/72476/45847", "__layer": "rooms", "__zoom": 17, "__mvtId": 1093, "__building": "eszaki", "__ringVerts": 5, "id": 1093, "catalogFloorId": 12}, "geometry": {"type": "Polygon", "coordinates": [[[19.061973318457603, 47.47284643631112], [19.061980694532394, 47.47287181846084], [19.061905592679977, 47.472883149773715], [19.061897546052933, 47.47285686112409], [19.061973318457603, 47.47284643631112]]]}}, {"type": "Feature", "id": 1087, "properties": {"buildingId": 2, "floorId": 12, "roomNumber": "7.27", "roomName": "7.27 Dolgoz\u00f3", "scope": "budapest/lagymanyos/eszaki/7/L\u00c9-7-27-02-33", "roomCode": "L\u00c9-7-27-02-33", "roomType": "administrative", "__tile": "17/72476/45847", "__layer": "rooms", "__zoom": 17, "__mvtId": 1087, "__building": "eszaki", "__ringVerts": 5, "id": 1087, "catalogFloorId": 12}, "geometry": {"type": "Polygon", "coordinates": [[[19.062030985951424, 47.47304269439967], [19.06204104423523, 47.473068982956335], [19.06196527183056, 47.47307940772516], [19.061957225203514, 47.47305266592271], [19.062030985951424, 47.47304269439967]]]}}, {"type": "Feature", "id": 1092, "properties": {"buildingId": 2, "floorId": 12, "roomNumber": "7.30/B", "roomName": "7.30/B Bemond\u00f3 f\u00fclke", "scope": "budapest/lagymanyos/eszaki/7/L\u00c9-7-30-B-01-14", "roomCode": "L\u00c9-7-30/B-01-14", "roomType": "educational", "__tile": "17/72476/45847", "__layer": "rooms", "__zoom": 17, "__mvtId": 1092, "__building": "eszaki", "__ringVerts": 5, "id": 1092, "catalogFloorId": 12}, "geometry": {"type": "Polygon", "coordinates": [[[19.061982035636902, 47.47287453797615], [19.061990082263947, 47.47290082661693], [19.06196393072605, 47.47290445263531], [19.061955884099007, 47.47287725749132], [19.061982035636902, 47.47287453797615]]]}}, {"type": "Feature", "id": 1095, "properties": {"buildingId": 2, "floorId": 12, "roomNumber": "7.32/B", "roomName": "7.32/B N\u0151i mosd\u00f3", "scope": "budapest/lagymanyos/eszaki/7/L\u00c9-7-32-B-05-71", "roomCode": "L\u00c9-7-32/B-05-71", "roomType": "social", "__tile": "17/72476/45847", "__layer": "rooms", "__zoom": 17, "__mvtId": 1095, "__building": "eszaki", "__ringVerts": 11, "id": 1095, "catalogFloorId": 12}, "geometry": {"type": "Polygon", "coordinates": [[[19.061933755874634, 47.47282558667897], [19.0619458258152, 47.47282377366709], [19.06194716691971, 47.47283419848456], [19.06195119023323, 47.47283374523166], [19.061946496367455, 47.47282377366709], [19.061957895755768, 47.47282241390813], [19.061959236860275, 47.47283283872587], [19.061966612935066, 47.472844623299956], [19.061929062008858, 47.472851422091495], [19.061921685934067, 47.47282739969079], [19.061933755874634, 47.47282558667897]], [[19.061933755874634, 47.47282558667897], [19.061934426426888, 47.47283601149608], [19.061939120292664, 47.472835558243204], [19.061933755874634, 47.47282558667897]]]}}, {"type": "Feature", "id": 1094, "properties": {"buildingId": 2, "floorId": 12, "roomNumber": "7.32/A", "roomName": "7.32 N\u0151i mosd\u00f3", "scope": "budapest/lagymanyos/eszaki/7/L\u00c9-7-32-05-71", "roomCode": "L\u00c9-7-32-05-71", "roomType": "social", "__tile": "17/72476/45847", "__layer": "rooms", "__zoom": 17, "__mvtId": 1094, "__building": "eszaki", "__ringVerts": 5, "id": 1094, "catalogFloorId": 12}, "geometry": {"type": "Polygon", "coordinates": [[[19.06192034482956, 47.47282739969079], [19.061927050352097, 47.472851422091495], [19.061886817216873, 47.472855501366], [19.061880111694336, 47.47283329197877], [19.06192034482956, 47.47282739969079]]]}}, {"type": "Feature", "id": 1113, "properties": {"buildingId": 2, "floorId": 12, "roomNumber": "7.48/B", "roomName": "7.48/B F\u00e9rfi mosd\u00f3", "scope": "budapest/lagymanyos/eszaki/7/L\u00c9-7-48-B-05-71", "roomCode": "L\u00c9-7-48/B-05-71", "roomType": "social", "__tile": "17/72476/45847", "__layer": "rooms", "__zoom": 17, "__mvtId": 1113, "__building": "eszaki", "__ringVerts": 5, "id": 1113, "catalogFloorId": 12}, "geometry": {"type": "Polygon", "coordinates": [[[19.0619008988142, 47.47267963902229], [19.06190760433674, 47.47270275498251], [19.061872735619545, 47.472707740776514], [19.061866030097008, 47.472684624818484], [19.0619008988142, 47.47267963902229]]]}}, {"type": "Feature", "id": 1124, "properties": {"buildingId": 2, "floorId": 12, "roomNumber": "7.70", "roomName": "7.70 Dolgoz\u00f3i", "scope": "budapest/lagymanyos/eszaki/7/L\u00c9-7-70-02-33", "roomCode": "L\u00c9-7-70-02-33", "roomType": "administrative", "__tile": "16/36238/22923", "__layer": "rooms", "__zoom": 16, "__mvtId": 1124, "__building": "eszaki", "__ringVerts": 5, "id": 1124, "catalogFloorId": 12}, "geometry": {"type": "Polygon", "coordinates": [[[19.061770141124725, 47.47419665900541], [19.061787575483322, 47.474255580320225], [19.06175807118416, 47.47425920624514], [19.061739295721054, 47.47420119141658], [19.061770141124725, 47.47419665900541]]]}}, {"type": "Feature", "id": 1142, "properties": {"buildingId": 2, "floorId": 12, "roomNumber": "7.83", "roomName": "7.83 Titk\u00e1rs\u00e1g-t\u00e1rgyal\u00f3", "scope": "budapest/lagymanyos/eszaki/7/L\u00c9-7-83-02-33", "roomCode": "L\u00c9-7-83-02-33", "roomType": "administrative", "__tile": "16/36238/22923", "__layer": "rooms", "__zoom": 16, "__mvtId": 1142, "__building": "eszaki", "__ringVerts": 5, "id": 1142, "catalogFloorId": 12}, "geometry": {"type": "Polygon", "coordinates": [[[19.06237632036209, 47.47417490342631], [19.062401801347733, 47.47425829976394], [19.062328040599823, 47.47426827105632], [19.06230255961418, 47.47418578121698], [19.06237632036209, 47.47417490342631]]]}}, {"type": "Feature", "id": 1088, "properties": {"buildingId": 2, "floorId": 12, "roomNumber": "7.86", "roomName": "7.86 Terem", "scope": "budapest/lagymanyos/eszaki/7/L\u00c9-7-86-01-12", "roomCode": "L\u00c9-7-86-01-12", "roomType": "educational", "__tile": "16/36238/22923", "__layer": "rooms", "__zoom": 16, "__mvtId": 1088, "__building": "eszaki", "__ringVerts": 9, "id": 1088, "catalogFloorId": 12}, "geometry": {"type": "Polygon", "coordinates": [[[19.062427282333374, 47.47434350892872], [19.062443375587463, 47.474397897685066], [19.06237095594406, 47.47440877542958], [19.062369614839554, 47.47440333655761], [19.062360227108, 47.474404243036304], [19.062354862689972, 47.47439155233306], [19.06236559152603, 47.4743897393752], [19.062353521585464, 47.474354386684496], [19.062427282333374, 47.47434350892872]]]}}, {"type": "Feature", "id": 59, "properties": {"buildingId": 2, "floorId": 12, "roomNumber": "7.87", "roomName": "7.87 Rajzterem", "scope": "budapest/lagymanyos/eszaki/7/L\u00c9-7-87-01-12", "roomCode": "L\u00c9-7-87-01-12", "roomType": "educational", "__tile": "16/36238/22923", "__layer": "rooms", "__zoom": 16, "__mvtId": 59, "__building": "eszaki", "__ringVerts": 9, "id": 59, "catalogFloorId": 12}, "geometry": {"type": "Polygon", "coordinates": [[[19.06244471669197, 47.474399710642636], [19.06246080994606, 47.47445500581864], [19.062388390302658, 47.4744649770737], [19.06237632036209, 47.474428717955334], [19.06236693263054, 47.4744296244336], [19.062362909317017, 47.474416933736485], [19.06237229704857, 47.474416027258], [19.06237095594406, 47.47440968190819], [19.06244471669197, 47.474399710642636]]]}}, {"type": "Feature", "id": 1118, "properties": {"buildingId": 2, "floorId": 12, "roomNumber": "7.57", "roomName": "7.57 GIS Labor", "scope": "budapest/lagymanyos/eszaki/7/L\u00c9-7-57-01-14", "roomCode": "L\u00c9-7-57-01-14", "roomType": "educational", "__tile": "16/36238/22923", "__layer": "rooms", "__zoom": 16, "__mvtId": 1118, "__building": "eszaki", "__ringVerts": 10, "id": 1118, "catalogFloorId": 12}, "geometry": {"type": "Polygon", "coordinates": [[[19.06227171421051, 47.47427461642321], [19.062274396419525, 47.474283681231725], [19.062283784151077, 47.47428277475094], [19.0622878074646, 47.47429546548045], [19.062278419733047, 47.474296371961024], [19.062279760837555, 47.47430271732452], [19.062200635671616, 47.474310875647895], [19.06219393014908, 47.47428912011608], [19.0621979534626, 47.47428549419324], [19.06227171421051, 47.47427461642321]]]}}, {"type": "Feature", "id": 1138, "properties": {"buildingId": 2, "floorId": 12, "roomNumber": "7.80", "roomName": "7.80 Oktat\u00f3i", "scope": "budapest/lagymanyos/eszaki/7/L\u00c9-7-80-01-13", "roomCode": "L\u00c9-7-80-01-13", "roomType": "educational", "__tile": "16/36238/22923", "__layer": "rooms", "__zoom": 16, "__mvtId": 1138, "__building": "eszaki", "__ringVerts": 6, "id": 1138, "catalogFloorId": 12}, "geometry": {"type": "Polygon", "coordinates": [[[19.062152355909348, 47.474147708939775], [19.062165766954422, 47.47420300438094], [19.062117487192154, 47.47420934975572], [19.062100052833557, 47.47415314783821], [19.06211882829666, 47.47415042838906], [19.062152355909348, 47.474147708939775]]]}}, {"type": "Feature", "id": 1076, "properties": {"buildingId": 2, "floorId": 12, "roomNumber": "7.103", "roomName": "7.103 Oktat\u00f3", "scope": "budapest/lagymanyos/eszaki/7/L\u00c9-7-103-01-13", "roomCode": "L\u00c9-7-103-01-13", "roomType": "educational", "__tile": "17/72476/45847", "__layer": "rooms", "__zoom": 17, "__mvtId": 1076, "__building": "eszaki", "__ringVerts": 9, "id": 1076, "catalogFloorId": 12}, "geometry": {"type": "Polygon", "coordinates": [[[19.062384366989136, 47.47278932642944], [19.062385708093643, 47.47279431221523], [19.06239576637745, 47.472792952455514], [19.06239978969097, 47.47280564354482], [19.062389731407166, 47.472807456557334], [19.062400460243225, 47.47284371679435], [19.062325358390808, 47.47285414160787], [19.062308594584465, 47.47279975125374], [19.062384366989136, 47.47278932642944]]]}}, {"type": "Feature", "id": 1146, "properties": {"buildingId": 2, "floorId": 12, "roomNumber": "7.93", "roomName": "7.93 Dolgoz\u00f3", "scope": "budapest/lagymanyos/eszaki/7/L\u00c9-7-93-02-33", "roomCode": "L\u00c9-7-93-02-33", "roomType": "administrative", "__tile": "17/72476/45847", "__layer": "rooms", "__zoom": 17, "__mvtId": 1146, "__building": "eszaki", "__ringVerts": 5, "id": 1146, "catalogFloorId": 12}, "geometry": {"type": "Polygon", "coordinates": [[[19.062556698918343, 47.472910798166886], [19.062564745545387, 47.47293799329352], [19.06248964369297, 47.472948418088336], [19.062480926513672, 47.472921222967095], [19.062556698918343, 47.472910798166886]]]}}, {"type": "Feature", "id": 1073, "properties": {"buildingId": 2, "floorId": 12, "roomNumber": "7.100/A", "roomName": "7.100/A Oktat\u00f3", "scope": "budapest/lagymanyos/eszaki/7/L\u00c9-7-100-A-01-13", "roomCode": "L\u00c9-7-100/A-01-13", "roomType": "educational", "__tile": "17/72476/45847", "__layer": "rooms", "__zoom": 17, "__mvtId": 1073, "__building": "eszaki", "__ringVerts": 10, "id": 1073, "catalogFloorId": 12}, "geometry": {"type": "Polygon", "coordinates": [[[19.062444046139717, 47.47298513147968], [19.06244605779648, 47.472993290007615], [19.062456116080284, 47.472991930253045], [19.062460139393806, 47.47300507454571], [19.06245008111, 47.47300643429994], [19.062452092766762, 47.473011873316494], [19.06237632036209, 47.47302229809665], [19.062370285391808, 47.47299555626515], [19.062438011169434, 47.47298603798284], [19.062444046139717, 47.47298513147968]]]}}, {"type": "Feature", "id": 1145, "properties": {"buildingId": 2, "floorId": 12, "roomNumber": "7.92", "roomName": "7.92 Dolgoz\u00f3", "scope": "budapest/lagymanyos/eszaki/7/L\u00c9-7-92-02-33", "roomCode": "L\u00c9-7-92-02-33", "roomType": "administrative", "__tile": "17/72476/45847", "__layer": "rooms", "__zoom": 17, "__mvtId": 1145, "__building": "eszaki", "__ringVerts": 5, "id": 1145, "catalogFloorId": 12}, "geometry": {"type": "Polygon", "coordinates": [[[19.062547981739044, 47.472882696521246], [19.06255602836609, 47.472909891662425], [19.062480926513672, 47.47292031646281], [19.062472879886627, 47.47289312132703], [19.062547981739044, 47.472882696521246]]]}}, {"type": "Feature", "id": 1074, "properties": {"buildingId": 2, "floorId": 12, "roomNumber": "7.100/B", "roomName": "7.100/B Dolgoz\u00f3", "scope": "budapest/lagymanyos/eszaki/7/L\u00c9-7-100-B-02-33", "roomCode": "L\u00c9-7-100/B-02-33", "roomType": "administrative", "__tile": "17/72476/45847", "__layer": "rooms", "__zoom": 17, "__mvtId": 1074, "__building": "eszaki", "__ringVerts": 5, "id": 1074, "catalogFloorId": 12}, "geometry": {"type": "Polygon", "coordinates": [[[19.06243532896042, 47.47295702987379], [19.062443375587463, 47.4729842249765], [19.062369614839554, 47.47299419651063], [19.062359556555748, 47.472967454664825], [19.06243532896042, 47.47295702987379]]]}}, {"type": "Feature", "id": 1105, "properties": {"buildingId": 2, "floorId": 12, "roomNumber": "7.43", "roomName": "7.43 Fotolabor", "scope": "budapest/lagymanyos/eszaki/7/L\u00c9-7-43-01-14", "roomCode": "L\u00c9-7-43-01-14", "roomType": "educational", "__tile": "17/72476/45847", "__layer": "rooms", "__zoom": 17, "__mvtId": 1105, "__building": "eszaki", "__ringVerts": 8, "id": 1105, "catalogFloorId": 12}, "geometry": {"type": "Polygon", "coordinates": [[[19.06206987798214, 47.47273538926197], [19.0620806068182, 47.47276983653498], [19.062060490250587, 47.47277391581581], [19.062043726444244, 47.47277482232261], [19.062039703130722, 47.47277300930899], [19.06203232705593, 47.47274037505288], [19.062049090862274, 47.4727372022769], [19.06206987798214, 47.47273538926197]]]}}, {"type": "Feature", "id": 1100, "properties": {"buildingId": 2, "floorId": 12, "roomNumber": "7.38", "roomName": "7.38 Oktat\u00f3", "scope": "budapest/lagymanyos/eszaki/7/L\u00c9-7-38-01-13", "roomCode": "L\u00c9-7-38-01-13", "roomType": "educational", "__tile": "17/72476/45847", "__layer": "rooms", "__zoom": 17, "__mvtId": 1100, "__building": "eszaki", "__ringVerts": 6, "id": 1100, "catalogFloorId": 12}, "geometry": {"type": "Polygon", "coordinates": [[[19.06228981912136, 47.472759411704736], [19.062301218509674, 47.472798391494166], [19.062267020344734, 47.47280292402594], [19.062254279851913, 47.47276439749337], [19.06228043138981, 47.47276077146532], [19.06228981912136, 47.472759411704736]]]}}, {"type": "Feature", "id": 1097, "properties": {"buildingId": 2, "floorId": 12, "roomNumber": "7.35", "roomName": "7.35 Dolgoz\u00f3", "scope": "budapest/lagymanyos/eszaki/7/L\u00c9-7-35-02-33", "roomCode": "L\u00c9-7-35-02-33", "roomType": "administrative", "__tile": "17/72476/45847", "__layer": "rooms", "__zoom": 17, "__mvtId": 1097, "__building": "eszaki", "__ringVerts": 6, "id": 1097, "catalogFloorId": 12}, "geometry": {"type": "Polygon", "coordinates": [[[19.06216911971569, 47.47277618208281], [19.062180519104004, 47.47281380210062], [19.062140956521034, 47.472820600896135], [19.06212955713272, 47.47278162112318], [19.062155708670616, 47.47277799509633], [19.06216911971569, 47.47277618208281]]]}}, {"type": "Feature", "id": 1099, "properties": {"buildingId": 2, "floorId": 12, "roomNumber": "7.37", "roomName": "7.37 Oktat\u00f3", "scope": "budapest/lagymanyos/eszaki/7/L\u00c9-7-37-01-13", "roomCode": "L\u00c9-7-37-01-13", "roomType": "educational", "__tile": "17/72476/45847", "__layer": "rooms", "__zoom": 17, "__mvtId": 1099, "__building": "eszaki", "__ringVerts": 6, "id": 1099, "catalogFloorId": 12}, "geometry": {"type": "Polygon", "coordinates": [[[19.062252268195152, 47.472764850746856], [19.062263667583466, 47.47280201751962], [19.062224105000496, 47.47280926956977], [19.062212705612183, 47.47277028978842], [19.062238857150078, 47.47276666376077], [19.062252268195152, 47.472764850746856]]]}}, {"type": "Feature", "id": 1150, "properties": {"buildingId": 2, "floorId": 12, "roomNumber": "7.97", "roomName": "7.97 Dolgoz\u00f3", "scope": "budapest/lagymanyos/eszaki/7/L\u00c9-7-97-02-33", "roomCode": "L\u00c9-7-97-02-33", "roomType": "administrative", "__tile": "17/72476/45847", "__layer": "rooms", "__zoom": 17, "__mvtId": 1150, "__building": "eszaki", "__ringVerts": 5, "id": 1150, "catalogFloorId": 12}, "geometry": {"type": "Polygon", "coordinates": [[[19.062590897083282, 47.47302365785043], [19.062598943710327, 47.47305039966764], [19.06252384185791, 47.473060824440154], [19.062515795230865, 47.473034082628246], [19.062590897083282, 47.47302365785043]]]}}, {"type": "Feature", "id": 1148, "properties": {"buildingId": 2, "floorId": 12, "roomNumber": "7.95", "roomName": "7.95 Dolgoz\u00f3", "scope": "budapest/lagymanyos/eszaki/7/L\u00c9-7-95-02-33", "roomCode": "L\u00c9-7-95-02-33", "roomType": "administrative", "__tile": "17/72476/45847", "__layer": "rooms", "__zoom": 17, "__mvtId": 1148, "__building": "eszaki", "__ringVerts": 5, "id": 1148, "catalogFloorId": 12}, "geometry": {"type": "Polygon", "coordinates": [[[19.062573462724686, 47.47296700141309], [19.062582179903984, 47.47299419651063], [19.062506407499313, 47.4730046212943], [19.06249836087227, 47.47297787945379], [19.062573462724686, 47.47296700141309]]]}}, {"type": "Feature", "id": 1149, "properties": {"buildingId": 2, "floorId": 12, "roomNumber": "7.96", "roomName": "7.96 Dolgoz\u00f3", "scope": "budapest/lagymanyos/eszaki/7/L\u00c9-7-96-02-33", "roomCode": "L\u00c9-7-96-02-33", "roomType": "administrative", "__tile": "17/72476/45847", "__layer": "rooms", "__zoom": 17, "__mvtId": 1149, "__building": "eszaki", "__ringVerts": 5, "id": 1149, "catalogFloorId": 12}, "geometry": {"type": "Polygon", "coordinates": [[[19.062582179903984, 47.47299555626515], [19.06259022653103, 47.47302229809665], [19.06251512467861, 47.473032722874734], [19.062507078051567, 47.47300598104853], [19.062582179903984, 47.47299555626515]]]}}, {"type": "Feature", "id": 1075, "properties": {"buildingId": 2, "floorId": 12, "roomNumber": "7.102", "roomName": "7.102 Oktat\u00f3", "scope": "budapest/lagymanyos/eszaki/7/L\u00c9-7-102-01-13", "roomCode": "L\u00c9-7-102-01-13", "roomType": "educational", "__tile": "17/72476/45847", "__layer": "rooms", "__zoom": 17, "__mvtId": 1075, "__building": "eszaki", "__ringVerts": 9, "id": 1075, "catalogFloorId": 12}, "geometry": {"type": "Polygon", "coordinates": [[[19.062400460243225, 47.472844623299956], [19.06241185963154, 47.47288088351133], [19.062421917915344, 47.47287952375386], [19.062425941228867, 47.47289266807465], [19.06241588294506, 47.47289402783178], [19.062417894601822, 47.47289992011229], [19.06234212219715, 47.47291034491466], [19.062325358390808, 47.472855501366], [19.062400460243225, 47.472844623299956]]]}}, {"type": "Feature", "id": 1151, "properties": {"buildingId": 2, "floorId": 12, "roomNumber": "7.98", "roomName": "7.98 Oktat\u00f3", "scope": "budapest/lagymanyos/eszaki/7/L\u00c9-7-98-02-33", "roomCode": "L\u00c9-7-98-02-33", "roomType": "administrative", "__tile": "17/72476/45847", "__layer": "rooms", "__zoom": 17, "__mvtId": 1151, "__building": "eszaki", "__ringVerts": 5, "id": 1151, "catalogFloorId": 12}, "geometry": {"type": "Polygon", "coordinates": [[[19.06259961426258, 47.47305175942069], [19.062607660889626, 47.4730785012236], [19.06253255903721, 47.473088925990545], [19.06252384185791, 47.47306218419294], [19.06259961426258, 47.47305175942069]]]}}, {"type": "Feature", "id": 1121, "properties": {"buildingId": 2, "floorId": 12, "roomNumber": "7.61", "roomName": "7.61 K\u00f6nyvt\u00e1r", "scope": "budapest/lagymanyos/eszaki/7/L\u00c9-7-61-03-43", "roomCode": "L\u00c9-7-61-03-43", "roomType": "misc", "__tile": "16/36238/22923", "__layer": "rooms", "__zoom": 16, "__mvtId": 1121, "__building": "eszaki", "__ringVerts": 5, "id": 1121, "catalogFloorId": 12}, "geometry": {"type": "Polygon", "coordinates": [[[19.06196728348732, 47.47424651550686], [19.061976671218872, 47.47428821363539], [19.061916321516037, 47.474296371961024], [19.06189888715744, 47.474255580320225], [19.06196728348732, 47.47424651550686]]]}}, {"type": "Feature", "id": 1123, "properties": {"buildingId": 2, "floorId": 12, "roomNumber": "7.63", "roomName": "7.63 Teakonyha", "scope": "budapest/lagymanyos/eszaki/7/L\u00c9-7-63-05-77", "roomCode": "L\u00c9-7-63-05-77", "roomType": "social", "__tile": "16/36238/22923", "__layer": "rooms", "__zoom": 16, "__mvtId": 1123, "__building": "eszaki", "__ringVerts": 5, "id": 1123, "catalogFloorId": 12}, "geometry": {"type": "Polygon", "coordinates": [[[19.061833173036575, 47.47426555161312], [19.061845242977142, 47.47430543676578], [19.061800986528397, 47.474310875647895], [19.06178891658783, 47.474270990499356], [19.061833173036575, 47.47426555161312]]]}}, {"type": "Feature", "id": 657, "properties": {"buildingId": 2, "floorId": 12, "roomNumber": "7.59", "roomName": "7.59 Terem", "scope": "budapest/lagymanyos/eszaki/7/L\u00c9-7-59-01-12", "roomCode": "L\u00c9-7-59-01-12", "roomType": "educational", "__tile": "16/36238/22923", "__layer": "rooms", "__zoom": 16, "__mvtId": 657, "__building": "eszaki", "__ringVerts": 7, "id": 657, "catalogFloorId": 12}, "geometry": {"type": "Polygon", "coordinates": [[[19.062112122774124, 47.47422657291196], [19.06212419271469, 47.474263738650926], [19.06211480498314, 47.47426464513203], [19.062117487192154, 47.47426827105632], [19.06205713748932, 47.47427733586592], [19.062039703130722, 47.47423654421036], [19.062112122774124, 47.47422657291196]]]}}, {"type": "Feature", "id": 1139, "properties": {"buildingId": 2, "floorId": 12, "roomNumber": "7.81", "roomName": "7.81 Oktat\u00f3i", "scope": "budapest/lagymanyos/eszaki/7/L\u00c9-7-81-01-13", "roomCode": "L\u00c9-7-81-01-13", "roomType": "educational", "__tile": "16/36238/22923", "__layer": "rooms", "__zoom": 16, "__mvtId": 1139, "__building": "eszaki", "__ringVerts": 7, "id": 1139, "catalogFloorId": 12}, "geometry": {"type": "Polygon", "coordinates": [[[19.06219393014908, 47.47414136355756], [19.062210023403168, 47.474194846040824], [19.062196612358093, 47.474199378452155], [19.062169790267944, 47.474199378452155], [19.062153697013855, 47.47414680245665], [19.062160402536392, 47.47414498949035], [19.06219393014908, 47.47414136355756]]]}}, {"type": "Feature", "id": 1117, "properties": {"buildingId": 2, "floorId": 12, "roomNumber": "7.55", "roomName": "7.55 Labor", "scope": "budapest/lagymanyos/eszaki/7/L\u00c9-7-55-01-14", "roomCode": "L\u00c9-7-55-01-14", "roomType": "educational", "__tile": "16/36238/22923", "__layer": "rooms", "__zoom": 16, "__mvtId": 1117, "__building": "eszaki", "__ringVerts": 16, "id": 1117, "catalogFloorId": 12}, "geometry": {"type": "MultiPolygon", "coordinates": [[[[19.06221941113472, 47.47437342275167], [19.06229719519615, 47.47435982556153], [19.06230792403221, 47.47439608472743], [19.06231865286827, 47.47439517824858], [19.062322676181793, 47.474407868950955], [19.062311947345734, 47.47440877542958], [19.06231328845024, 47.474415120779504], [19.0622341632843, 47.47442327908543], [19.062227457761765, 47.47440152360015], [19.0622341632843, 47.474400617121404], [19.062226116657257, 47.47439517824858], [19.06221941113472, 47.47437342275167]]], [[[19.06221941113472, 47.47437342275167], [19.062216728925705, 47.474367077396714], [19.062222093343735, 47.474367077396714], [19.06221941113472, 47.47437342275167]]]]}}, {"type": "Feature", "id": 1116, "properties": {"buildingId": 2, "floorId": 12, "roomNumber": "7.54", "roomName": "7.54 Oktat\u00f3i", "scope": "budapest/lagymanyos/eszaki/7/L\u00c9-7-54-01-13", "roomCode": "L\u00c9-7-54-01-13", "roomType": "educational", "__tile": "16/36238/22923", "__layer": "rooms", "__zoom": 16, "__mvtId": 1116, "__building": "eszaki", "__ringVerts": 16, "id": 1116, "catalogFloorId": 12}, "geometry": {"type": "MultiPolygon", "coordinates": [[[[19.062236845493317, 47.4744296244336], [19.06231462955475, 47.474416027258], [19.062315970659256, 47.47442237260705], [19.062326699495316, 47.474420559650255], [19.062330722808838, 47.4744332503465], [19.06231999397278, 47.47443506330285], [19.062330722808838, 47.47447132241684], [19.0622515976429, 47.47448038719142], [19.06224489212036, 47.47445772525202], [19.06225025653839, 47.47445681877425], [19.062243551015854, 47.474451379907244], [19.062236845493317, 47.4744296244336]]], [[[19.062236845493317, 47.4744296244336], [19.0622341632843, 47.47442327908543], [19.06223952770233, 47.47442327908543], [19.062236845493317, 47.4744296244336]]]]}}, {"type": "Feature", "id": 662, "properties": {"buildingId": 2, "floorId": 12, "roomNumber": "7.85", "roomName": "7.85 Terem", "scope": "budapest/lagymanyos/eszaki/7/L\u00c9-7-85-01-12 (1)", "roomCode": "L\u00c9-7-85-01-12 (1)", "roomType": "educational", "__tile": "16/36238/22923", "__layer": "rooms", "__zoom": 16, "__mvtId": 662, "__building": "eszaki", "__ringVerts": 9, "id": 662, "catalogFloorId": 12}, "geometry": {"type": "Polygon", "coordinates": [[[19.062409847974777, 47.47428730715469], [19.062427282333374, 47.47434169596921], [19.062353521585464, 47.474351667245756], [19.062342792749405, 47.47431631452944], [19.062333405017853, 47.47431812748983], [19.06232938170433, 47.47430543676578], [19.062338769435883, 47.47430362380496], [19.062337428331375, 47.4742981849221], [19.062409847974777, 47.47428730715469]]]}}, {"type": "Feature", "id": 1144, "properties": {"buildingId": 2, "floorId": 12, "roomNumber": "7.88/B", "roomName": "7.88/B Dolgoz\u00f3", "scope": "budapest/lagymanyos/eszaki/7/L\u00c9-7-88-B-02-33", "roomCode": "L\u00c9-7-88/B-02-33", "roomType": "administrative", "__tile": "16/36238/22923", "__layer": "rooms", "__zoom": 16, "__mvtId": 1144, "__building": "eszaki", "__ringVerts": 9, "id": 1144, "catalogFloorId": 12}, "geometry": {"type": "Polygon", "coordinates": [[[19.062462151050568, 47.47445772525202], [19.06247153878212, 47.47449035844166], [19.062396436929703, 47.474501236167036], [19.06239241361618, 47.474487639009965], [19.06238302588463, 47.474488545487205], [19.062379002571106, 47.47447585480432], [19.062388390302658, 47.47447494832685], [19.06238704919815, 47.47446860298415], [19.062462151050568, 47.47445772525202]]]}}, {"type": "Feature", "id": 1143, "properties": {"buildingId": 2, "floorId": 12, "roomNumber": "7.84", "roomName": "7.84 Oktat\u00f3i", "scope": "budapest/lagymanyos/eszaki/7/L\u00c9-7-84-01-13", "roomCode": "L\u00c9-7-84-01-13", "roomType": "educational", "__tile": "16/36238/22923", "__layer": "rooms", "__zoom": 16, "__mvtId": 1143, "__building": "eszaki", "__ringVerts": 5, "id": 1143, "catalogFloorId": 12}, "geometry": {"type": "Polygon", "coordinates": [[[19.062401801347733, 47.47425920624514], [19.062409847974777, 47.47428640067397], [19.062337428331375, 47.474296371961024], [19.06232938170433, 47.474269177537344], [19.062401801347733, 47.47425920624514]]]}}, {"type": "Feature", "id": 256, "properties": {"buildingId": 2, "floorId": 12, "roomNumber": "7.14", "roomName": "7.14 El\u0151ad\u00f3terem", "scope": "budapest/lagymanyos/eszaki/7/L\u00c9-7-14-01-12", "roomCode": "L\u00c9-7-14-01-12", "roomType": "educational", "__tile": "17/72476/45847", "__layer": "rooms", "__zoom": 17, "__mvtId": 256, "__building": "eszaki", "__ringVerts": 9, "id": 256, "catalogFloorId": 12}, "geometry": {"type": "Polygon", "coordinates": [[[19.061825796961784, 47.47280655005108], [19.061837196350098, 47.47284371679435], [19.061847254633904, 47.472842357035915], [19.061850607395172, 47.47285504811329], [19.061840549111366, 47.4728564078714], [19.06185932457447, 47.47291805020203], [19.061784222722054, 47.472928475000806], [19.061750024557114, 47.47281697487197], [19.061825796961784, 47.47280655005108]]]}}, {"type": "Feature", "id": 50, "properties": {"buildingId": 2, "floorId": 12, "roomNumber": "7.16", "roomName": "7.16 M\u00e9diat\u00e1r", "scope": "budapest/lagymanyos/eszaki/7/L\u00c9-7-16-01-12", "roomCode": "L\u00c9-7-16-01-12", "roomType": "educational", "__tile": "17/72476/45847", "__layer": "rooms", "__zoom": 17, "__mvtId": 50, "__building": "eszaki", "__ringVerts": 33, "id": 50, "catalogFloorId": 12}, "geometry": {"type": "Polygon", "coordinates": [[[19.061859995126724, 47.47292031646281], [19.061862006783485, 47.472925755488276], [19.06187206506729, 47.47292439573196], [19.061876088380814, 47.47293708678952], [19.061866030097008, 47.472938446545506], [19.061871394515038, 47.472956123370125], [19.061881452798843, 47.472954763614595], [19.061884805560112, 47.472967454664825], [19.061874747276306, 47.47296881442003], [19.06187877058983, 47.472981958718485], [19.061888828873634, 47.47298059896362], [19.061892852187157, 47.472993290007615], [19.06188279390335, 47.472995103013645], [19.06188815832138, 47.47301232656785], [19.061898216605186, 47.47301096681377], [19.06190223991871, 47.47302365785043], [19.061892181634903, 47.47302501760418], [19.061896204948425, 47.473038161888574], [19.06190626323223, 47.47303680213516], [19.061910286545753, 47.47304949316559], [19.061900228261948, 47.47305130616968], [19.061905592679977, 47.473068529705465], [19.061915650963783, 47.47306716995285], [19.061919003725052, 47.47307986097593], [19.061908945441246, 47.473081673978974], [19.06192235648632, 47.47312473278297], [19.061932414770126, 47.47312337303181], [19.06193643808365, 47.4731365172916], [19.061926379799843, 47.47313787704243], [19.061928391456604, 47.473143769295596], [19.061852619051933, 47.473154194049584], [19.061784893274307, 47.47293074126113], [19.061859995126724, 47.47292031646281]]]}}, {"type": "Feature", "id": 1077, "properties": {"buildingId": 2, "floorId": 12, "roomNumber": "7.13", "roomName": "7.13 Mac labor", "scope": "budapest/lagymanyos/eszaki/7/L\u00c9-7-13-01-14 (2)", "roomCode": "L\u00c9-7-13-01-14 (2)", "roomType": "educational", "__tile": "17/72476/45847", "__layer": "rooms", "__zoom": 17, "__mvtId": 1077, "__building": "eszaki", "__ringVerts": 14, "id": 1077, "catalogFloorId": 12}, "geometry": {"type": "Polygon", "coordinates": [[[19.061928391456604, 47.47314467579603], [19.061930403113365, 47.47315102129859], [19.06194046139717, 47.47314920829794], [19.061944484710693, 47.47316235255126], [19.061934426426888, 47.47316371230143], [19.061939790844917, 47.47318138905027], [19.061949849128723, 47.47317957605066], [19.061953872442245, 47.4731927202964], [19.061943143606186, 47.47319408004577], [19.061945155262947, 47.47319951904291], [19.061910286545753, 47.47320314504068], [19.061894193291664, 47.47314966154811], [19.061906933784485, 47.473147848547406], [19.061928391456604, 47.47314467579603]]]}}, {"type": "Feature", "id": 1122, "properties": {"buildingId": 2, "floorId": 12, "roomNumber": "7.62", "roomName": "7.62 t\u00e9rk\u00e9pt\u00e1r", "scope": "budapest/lagymanyos/eszaki/7/L\u00c9-7-62-03-43", "roomCode": "L\u00c9-7-62-03-43", "roomType": "misc", "__tile": "16/36238/22923", "__layer": "rooms", "__zoom": 16, "__mvtId": 1122, "__building": "eszaki", "__ringVerts": 5, "id": 1122, "catalogFloorId": 12}, "geometry": {"type": "Polygon", "coordinates": [[[19.061897546052933, 47.47425648680148], [19.061906933784485, 47.4742981849221], [19.06184658408165, 47.47430634324618], [19.061834514141083, 47.47426464513203], [19.061897546052933, 47.47425648680148]]]}}, {"type": "Feature", "id": 1098, "properties": {"buildingId": 2, "floorId": 12, "roomNumber": "7.36", "roomName": "7.36 Oktat\u00f3", "scope": "budapest/lagymanyos/eszaki/7/L\u00c9-7-36-01-13", "roomCode": "L\u00c9-7-36-01-13", "roomType": "educational", "__tile": "17/72476/45847", "__layer": "rooms", "__zoom": 17, "__mvtId": 1098, "__building": "eszaki", "__ringVerts": 6, "id": 1098, "catalogFloorId": 12}, "geometry": {"type": "Polygon", "coordinates": [[[19.06221069395542, 47.47277028978842], [19.06222276389599, 47.47280926956977], [19.062183871865273, 47.472814708606734], [19.062171131372452, 47.47277618208281], [19.062197282910347, 47.47277210280214], [19.06221069395542, 47.47277028978842]]]}}, {"type": "Feature", "id": 1083, "properties": {"buildingId": 2, "floorId": 12, "roomNumber": "7.23", "roomName": "7.23 Oktat\u00f3i szoba", "scope": "budapest/lagymanyos/eszaki/7/L\u00c9-7-23-01-13", "roomCode": "L\u00c9-7-23-01-13", "roomType": "educational", "__tile": "17/72476/45847", "__layer": "rooms", "__zoom": 17, "__mvtId": 1083, "__building": "eszaki", "__ringVerts": 6, "id": 1083, "catalogFloorId": 12}, "geometry": {"type": "Polygon", "coordinates": [[[19.06237430870533, 47.47302456435294], [19.062385708093643, 47.47306173094202], [19.062304571270943, 47.47307306221395], [19.06229317188263, 47.473035895632876], [19.06236693263054, 47.47302547085542], [19.06237430870533, 47.47302456435294]]]}}, {"type": "Feature", "id": 1096, "properties": {"buildingId": 2, "floorId": 12, "roomNumber": "7.33", "roomName": "7.33-34 Oktat\u00e1s Technika", "scope": "budapest/lagymanyos/eszaki/7/L\u00c9-7-33-01-14", "roomCode": "L\u00c9-7-33-01-14", "roomType": "educational", "__tile": "17/72476/45847", "__layer": "rooms", "__zoom": 17, "__mvtId": 1096, "__building": "eszaki", "__ringVerts": 5, "id": 1096, "catalogFloorId": 12}, "geometry": {"type": "Polygon", "coordinates": [[[19.062044396996498, 47.47279340570876], [19.062056466937065, 47.47283238547298], [19.061979353427887, 47.47284326354154], [19.06196728348732, 47.4728042837854], [19.062044396996498, 47.47279340570876]]]}}, {"type": "Feature", "id": 1114, "properties": {"buildingId": 2, "floorId": 12, "roomNumber": "7.49", "roomName": "7.49 Dolgoz\u00f3", "scope": "budapest/lagymanyos/eszaki/7/L\u00c9-7-49-02-33", "roomCode": "L\u00c9-7-49-02-33", "roomType": "administrative", "__tile": "17/72476/45847", "__layer": "rooms", "__zoom": 17, "__mvtId": 1114, "__building": "eszaki", "__ringVerts": 11, "id": 1114, "catalogFloorId": 12}, "geometry": {"type": "Polygon", "coordinates": [[[19.062005504965782, 47.47266286861342], [19.06201757490635, 47.47270547450657], [19.06200483441353, 47.47270728752253], [19.062002822756767, 47.47270094196639], [19.061988070607185, 47.47270275498251], [19.061989411711693, 47.47270819403049], [19.061976671218872, 47.47271000704635], [19.061966612935066, 47.472678279259604], [19.061963260173798, 47.472678732513835], [19.06196393072605, 47.472668760919845], [19.062005504965782, 47.47266286861342]]]}}, {"type": "Feature", "id": 1102, "properties": {"buildingId": 2, "floorId": 12, "roomNumber": "7.40", "roomName": "7.40 Teakonyha", "scope": "budapest/lagymanyos/eszaki/7/L\u00c9-7-40-05-77", "roomCode": "L\u00c9-7-40-05-77", "roomType": "social", "__tile": "17/72476/45847", "__layer": "rooms", "__zoom": 17, "__mvtId": 1102, "__building": "eszaki", "__ringVerts": 5, "id": 1102, "catalogFloorId": 12}, "geometry": {"type": "Polygon", "coordinates": [[[19.062173813581467, 47.47272949696301], [19.06218186020851, 47.47275578567634], [19.062153697013855, 47.47276077146532], [19.062144979834557, 47.47273357624698], [19.062173813581467, 47.47272949696301]]]}}, {"type": "Feature", "id": 1085, "properties": {"buildingId": 2, "floorId": 12, "roomNumber": "7.25", "roomName": "7.25 Oktat\u00f3", "scope": "budapest/lagymanyos/eszaki/7/L\u00c9-7-25-01-13", "roomCode": "L\u00c9-7-25-01-13", "roomType": "educational", "__tile": "17/72476/45847", "__layer": "rooms", "__zoom": 17, "__mvtId": 1085, "__building": "eszaki", "__ringVerts": 6, "id": 1085, "catalogFloorId": 12}, "geometry": {"type": "Polygon", "coordinates": [[[19.06220868229866, 47.47304768016143], [19.062220081686974, 47.47308484673416], [19.06213827431202, 47.47309617800111], [19.062126874923706, 47.47305901143638], [19.062200635671616, 47.473048586663516], [19.06220868229866, 47.47304768016143]]]}}, {"type": "Feature", "id": 1112, "properties": {"buildingId": 2, "floorId": 12, "roomNumber": "7.48/A", "roomName": "7.48/A F\u00e9rfi mosd\u00f3", "scope": "budapest/lagymanyos/eszaki/7/L\u00c9-7-48-A-05-71", "roomCode": "L\u00c9-7-48/A-05-71", "roomType": "social", "__tile": "17/72476/45847", "__layer": "rooms", "__zoom": 17, "__mvtId": 1112, "__building": "eszaki", "__ringVerts": 5, "id": 1112, "catalogFloorId": 12}, "geometry": {"type": "Polygon", "coordinates": [[[19.061864018440247, 47.472684624818484], [19.061871394515038, 47.472707740776514], [19.06184323132038, 47.472711820062166], [19.06183585524559, 47.47268870410594], [19.061864018440247, 47.472684624818484]]]}}, {"type": "Feature", "id": 1108, "properties": {"buildingId": 2, "floorId": 12, "roomNumber": "7.45", "roomName": "7.45 Teakonyha", "scope": "budapest/lagymanyos/eszaki/7/L\u00c9-7-45-05-77", "roomCode": "L\u00c9-7-45-05-77", "roomType": "social", "__tile": "17/72476/45847", "__layer": "rooms", "__zoom": 17, "__mvtId": 1108, "__building": "eszaki", "__ringVerts": 5, "id": 1108, "catalogFloorId": 12}, "geometry": {"type": "Polygon", "coordinates": [[[19.062165766954422, 47.47270230172848], [19.062173813581467, 47.47272859045542], [19.062144979834557, 47.47273266973945], [19.062136933207512, 47.47270547450657], [19.062165766954422, 47.47270230172848]]]}}, {"type": "Feature", "id": 1080, "properties": {"buildingId": 2, "floorId": 12, "roomNumber": "7.18", "roomName": "7.18-21 Kari Tan\u00e1csterem", "scope": "budapest/lagymanyos/eszaki/7/L\u00c9-7-18-01-17", "roomCode": "L\u00c9-7-18-01-17", "roomType": "educational", "__tile": "17/72476/45847", "__layer": "rooms", "__zoom": 17, "__mvtId": 1080, "__building": "eszaki", "__ringVerts": 14, "id": 1080, "catalogFloorId": 12}, "geometry": {"type": "Polygon", "coordinates": [[[19.062138944864273, 47.473113854772656], [19.06214229762554, 47.473115667774536], [19.062157720327377, 47.47316597855161], [19.06215436756611, 47.47316643180164], [19.062155708670616, 47.473170511051684], [19.062037020921707, 47.47318682804872], [19.062020257115364, 47.47313606404131], [19.06203366816044, 47.47313379778984], [19.06203232705593, 47.47312881203626], [19.062055125832558, 47.47312563928373], [19.062056466937065, 47.473127905535556], [19.062063843011856, 47.47312699903483], [19.06206786632538, 47.47312246653101], [19.062138944864273, 47.473113854772656]]]}}, {"type": "Feature", "id": 1078, "properties": {"buildingId": 2, "floorId": 12, "roomNumber": "7.13", "roomName": "7.13 Mac labor", "scope": "budapest/lagymanyos/eszaki/7/L\u00c9-7-13-01-14 (1)", "roomCode": "L\u00c9-7-13-01-14 (1)", "roomType": "educational", "__tile": "17/72476/45847", "__layer": "rooms", "__zoom": 17, "__mvtId": 1078, "__building": "eszaki", "__ringVerts": 9, "id": 1078, "catalogFloorId": 12}, "geometry": {"type": "Polygon", "coordinates": [[[19.061791598796844, 47.472694596409475], [19.061793610453606, 47.47270094196639], [19.06180366873741, 47.47269958220425], [19.061807692050934, 47.47271227331611], [19.061797633767128, 47.47271363307791], [19.06180903315544, 47.4727517063941], [19.06173326075077, 47.47276213122587], [19.061716496944427, 47.47270547450657], [19.061791598796844, 47.472694596409475]]]}}, {"type": "Feature", "id": 1109, "properties": {"buildingId": 2, "floorId": 12, "roomNumber": "7.46", "roomName": "7.46 mosd\u00f3", "scope": "budapest/lagymanyos/eszaki/7/L\u00c9-7-46-05-71", "roomCode": "L\u00c9-7-46-05-71", "roomType": "social", "__tile": "17/72476/45847", "__layer": "rooms", "__zoom": 17, "__mvtId": 1109, "__building": "eszaki", "__ringVerts": 6, "id": 1109, "catalogFloorId": 12}, "geometry": {"type": "Polygon", "coordinates": [[[19.06213492155075, 47.47270547450657], [19.06214363873005, 47.47273266973945], [19.06211882829666, 47.472736295769444], [19.062110781669617, 47.47271000704635], [19.06212218105793, 47.47270728752253], [19.06213492155075, 47.47270547450657]]]}}, {"type": "Feature", "id": 1115, "properties": {"buildingId": 2, "floorId": 12, "roomNumber": "7.50", "roomName": "7.50 Dolgoz\u00f3", "scope": "budapest/lagymanyos/eszaki/7/L\u00c9-7-50-02-33", "roomCode": "L\u00c9-7-50-02-33", "roomType": "administrative", "__tile": "17/72476/45847", "__layer": "rooms", "__zoom": 17, "__mvtId": 1115, "__building": "eszaki", "__ringVerts": 10, "id": 1115, "catalogFloorId": 12}, "geometry": {"type": "Polygon", "coordinates": [[[19.062088653445244, 47.472651537253036], [19.062100052833557, 47.472690063868356], [19.062045738101006, 47.472701395220426], [19.062018916010857, 47.47270411474456], [19.062005504965782, 47.47266286861342], [19.062045067548752, 47.47265742956074], [19.06204640865326, 47.4726615088503], [19.06205043196678, 47.47266105559592], [19.062049090862274, 47.47265697630632], [19.062088653445244, 47.472651537253036]]]}}, {"type": "Feature", "id": 1104, "properties": {"buildingId": 2, "floorId": 12, "roomNumber": "7.42", "roomName": "7.42 Fotolabor", "scope": "budapest/lagymanyos/eszaki/7/L\u00c9-7-42-01-14", "roomCode": "L\u00c9-7-42-01-14", "roomType": "educational", "__tile": "17/72476/45847", "__layer": "rooms", "__zoom": 17, "__mvtId": 1104, "__building": "eszaki", "__ringVerts": 13, "id": 1104, "catalogFloorId": 12}, "geometry": {"type": "Polygon", "coordinates": [[[19.062102735042572, 47.47271136680823], [19.062103405594826, 47.47271363307791], [19.062110111117363, 47.472712726570045], [19.06211480498314, 47.47272813720162], [19.062108770012856, 47.47272904370922], [19.062114134430885, 47.47274672060426], [19.06212016940117, 47.472745814096974], [19.062124863266945, 47.47276122471884], [19.062118157744408, 47.47276213122587], [19.06211882829666, 47.47276439749337], [19.06208261847496, 47.47276938328152], [19.06206652522087, 47.47271635260141], [19.062102735042572, 47.47271136680823]]]}}], "meta": {"building": "eszaki", "floorId": 12, "polygonCount": 64}}