{"type": "FeatureCollection", "features": [{"type": "Feature", "id": 36424, "properties": {"buildingId": 2, "floorId": 3, "roomNumber": "-2.08", "roomName": "FPGA labor", "scope": "budapest/lagymanyos/eszaki/-2/L\u00c9--2-08-01-14", "roomCode": "L\u00c9--2-08-01-14", "roomType": "educational", "__tile": "16/36238/22923", "__layer": "rooms", "__zoom": 16, "__mvtId": 36424, "__building": "eszaki", "__ringVerts": 11, "id": 36424, "catalogFloorId": 3}, "geometry": {"type": "Polygon", "coordinates": [[[19.06206652522087, 47.47430453028538], [19.06207725405693, 47.47433988300963], [19.06205579638481, 47.47434260244897], [19.062078595161438, 47.47434260244897], [19.062085300683975, 47.47436617091737], [19.06202495098114, 47.47437523571009], [19.062018245458603, 47.47435076076615], [19.06204104423523, 47.47434713484756], [19.062016904354095, 47.47434804132723], [19.062006175518036, 47.47431268860847], [19.06206652522087, 47.47430453028538]]]}}, {"type": "Feature", "id": 36420, "properties": {"buildingId": 2, "floorId": 3, "roomNumber": "-2.09", "roomName": "VRC labor", "scope": "budapest/lagymanyos/eszaki/-2/L\u00c9--2-09-01-14", "roomCode": "L\u00c9--2-09-01-14", "roomType": "educational", "__tile": "16/36238/22923", "__layer": "rooms", "__zoom": 16, "__mvtId": 36420, "__building": "eszaki", "__ringVerts": 6, "id": 36420, "catalogFloorId": 3}, "geometry": {"type": "Polygon", "coordinates": [[[19.062002152204514, 47.47431359508873], [19.062022268772125, 47.47437886162675], [19.062031656503677, 47.474407868950955], [19.06192570924759, 47.47442237260705], [19.061896204948425, 47.474328098770854], [19.062002152204514, 47.47431359508873]]]}}, {"type": "Feature", "id": 36428, "properties": {"buildingId": 2, "floorId": 3, "roomNumber": "-2P-K1", "roomName": "Folyos\u00f3", "scope": "budapest/lagymanyos/eszaki/-2/L\u00c9--2-K1-04-63", "roomCode": "L\u00c9--2-K1-04-63", "roomType": "corridor", "__tile": "16/36238/22923", "__layer": "rooms", "__zoom": 16, "__mvtId": 36428, "__building": "eszaki", "__ringVerts": 15, "id": 36428, "catalogFloorId": 3}, "geometry": {"type": "Polygon", "coordinates": [[[19.0621979534626, 47.47430996916758], [19.06223550438881, 47.47443415682469], [19.062211364507675, 47.474437782737276], [19.062196612358093, 47.47438520698029], [19.062168449163437, 47.474388832896246], [19.062163084745407, 47.47436979683465], [19.062089323997498, 47.47437976810587], [19.062096029520035, 47.47439880416386], [19.0620356798172, 47.474406962472315], [19.06202495098114, 47.47437795514761], [19.0621617436409, 47.47435982556153], [19.062152355909348, 47.47433172469076], [19.062189906835556, 47.474327192290836], [19.062184542417526, 47.47431178212819], [19.0621979534626, 47.47430996916758]]]}}, {"type": "Feature", "id": 36426, "properties": {"buildingId": 2, "floorId": 3, "roomNumber": "-2.04", "roomName": "TR labor", "scope": "budapest/lagymanyos/eszaki/-2/L\u00c9--2-04-01-17", "roomCode": "L\u00c9--2-04-01-17", "roomType": "educational", "__tile": "16/36238/22923", "__layer": "rooms", "__zoom": 16, "__mvtId": 36426, "__building": "eszaki", "__ringVerts": 5, "id": 36426, "catalogFloorId": 3}, "geometry": {"type": "Polygon", "coordinates": [[[19.062306582927704, 47.47442599852045], [19.062317311763763, 47.47446316411837], [19.062223434448242, 47.47447585480432], [19.062218070030212, 47.474437782737276], [19.062306582927704, 47.47442599852045]]]}}, {"type": "Feature", "id": 36418, "properties": {"buildingId": 2, "floorId": 3, "roomNumber": "-2.06", "roomName": "WC", "scope": "budapest/lagymanyos/eszaki/-2/L\u00c9--2-06-05-71", "roomCode": "L\u00c9--2-06-05-71", "roomType": "social", "__tile": "16/36238/22923", "__layer": "rooms", "__zoom": 16, "__mvtId": 36418, "__building": "eszaki", "__ringVerts": 5, "id": 36418, "catalogFloorId": 3}, "geometry": {"type": "Polygon", "coordinates": [[[19.062155038118362, 47.47434985428652], [19.062157720327377, 47.474358919082064], [19.06212955713272, 47.47436254499985], [19.062126874923706, 47.474353480204925], [19.062155038118362, 47.47434985428652]]]}}, {"type": "Feature", "id": 36421, "properties": {"buildingId": 2, "floorId": 3, "roomNumber": "-2P.L4", "roomName": "L\u00e9pcs\u0151h\u00e1z", "scope": "budapest/lagymanyos/eszaki/-2/L\u00c9--2-L4-04-64", "roomCode": "L\u00c9--2-L4-04-64", "roomType": "corridor", "__tile": "16/36238/22923", "__layer": "rooms", "__zoom": 16, "__mvtId": 36421, "__building": "eszaki", "__ringVerts": 11, "id": 36421, "catalogFloorId": 3}, "geometry": {"type": "Polygon", "coordinates": [[[19.062269032001495, 47.47430271732452], [19.062283784151077, 47.47435076076615], [19.062215387821198, 47.474360732040985], [19.062210023403168, 47.47434532188817], [19.062263667583466, 47.474338976529815], [19.06225696206093, 47.47431450156899], [19.062220752239227, 47.47431903396999], [19.062227457761765, 47.47434169596921], [19.062212705612183, 47.47434350892872], [19.06220331788063, 47.474310875647895], [19.062269032001495, 47.47430271732452]]]}}, {"type": "Feature", "id": 36425, "properties": {"buildingId": 2, "floorId": 3, "roomNumber": "-2.03", "roomName": "Robotika labor", "scope": "budapest/lagymanyos/eszaki/-2/L\u00c9--2-03-01-14", "roomCode": "L\u00c9--2-03-01-14", "roomType": "educational", "__tile": "16/36238/22923", "__layer": "rooms", "__zoom": 16, "__mvtId": 36425, "__building": "eszaki", "__ringVerts": 5, "id": 36425, "catalogFloorId": 3}, "geometry": {"type": "Polygon", "coordinates": [[[19.062291830778122, 47.47437795514761], [19.062305241823196, 47.47442327908543], [19.06223952770233, 47.4744323438683], [19.06222477555275, 47.4743870199383], [19.062291830778122, 47.47437795514761]]]}}], "meta": {"building": "eszaki", "floorId": 3, "polygonCount": 7}}