{"type": "FeatureCollection", "features": [{"type": "Feature", "id": 36415, "properties": {"buildingId": 2, "floorId": 1, "roomNumber": "4.00L4", "roomName": "L\u00e9pcs\u0151h\u00e1z", "scope": "budapest/lagymanyos/eszaki/-4/L\u00c9--4-L4-04-64", "roomCode": "L\u00c9--4-L4-04-64", "roomType": "corridor", "__tile": "16/36238/22923", "__layer": "rooms", "__zoom": 16, "__mvtId": 36415, "__building": "eszaki", "__ringVerts": 10, "id": 36415, "catalogFloorId": 1}, "geometry": {"type": "Polygon", "coordinates": [[[19.062269032001495, 47.47430181084407], [19.062283784151077, 47.474351667245756], [19.062218070030212, 47.47435982556153], [19.062212705612183, 47.47434441540845], [19.062228798866272, 47.47434169596921], [19.062263667583466, 47.47433988300963], [19.06225696206093, 47.47431450156899], [19.062247574329376, 47.47431540804922], [19.062236845493317, 47.47430634324618], [19.062269032001495, 47.47430181084407]]]}}, {"type": "Feature", "id": 36410, "properties": {"buildingId": 2, "floorId": 1, "roomNumber": "4.001", "roomName": "Folyos\u00f3", "scope": "budapest/lagymanyos/eszaki/-4/L\u00c9--4-001-04-63", "roomCode": "L\u00c9--4-001-04-63", "roomType": "corridor", "__tile": "16/36238/22923", "__layer": "rooms", "__zoom": 16, "__mvtId": 36410, "__building": "eszaki", "__ringVerts": 13, "id": 36410, "catalogFloorId": 1}, "geometry": {"type": "Polygon", "coordinates": [[[19.06220331788063, 47.474324472850704], [19.062218070030212, 47.474376142189286], [19.062196612358093, 47.47437886162675], [19.062185883522034, 47.47433988300963], [19.062085300683975, 47.474353480204925], [19.06208798289299, 47.47436163852042], [19.062075912952423, 47.47436163852042], [19.062085300683975, 47.47439155233306], [19.062016904354095, 47.474400617121404], [19.06200885772705, 47.47437704866846], [19.06202495098114, 47.47437432923089], [19.062018245458603, 47.47434985428652], [19.06220331788063, 47.474324472850704]]]}}], "meta": {"building": "eszaki", "floorId": 1, "polygonCount": 2}}