{"type": "FeatureCollection", "features": [{"type": "Feature", "id": 1184, "properties": {"buildingId": 2, "floorId": 14, "roomNumber": "9.L7", "roomName": "9.L7 L\u00e9pcs\u0151h\u00e1z 3 kar\u00fa", "scope": "budapest/lagymanyos/eszaki/9/L\u00c9-9-L7-04-64", "roomCode": "L\u00c9-9-L7-04-64", "roomType": "corridor", "__tile": "17/72476/45847", "__layer": "rooms", "__zoom": 17, "__mvtId": 1184, "__building": "eszaki", "__ringVerts": 5, "id": 1184, "catalogFloorId": 14}, "geometry": {"type": "Polygon", "coordinates": [[[19.06226970255375, 47.472695049663564], [19.062281772494316, 47.47273357624698], [19.062200635671616, 47.47274536084332], [19.06218856573105, 47.47270683426854], [19.06226970255375, 47.472695049663564]]]}}, {"type": "Feature", "id": 1181, "properties": {"buildingId": 2, "floorId": 14, "roomNumber": "9.K", "roomName": "9.K K\u00f6zleked\u0151", "scope": "budapest/lagymanyos/eszaki/9/L\u00c9-9-K-04-63", "roomCode": "L\u00c9-9-K-04-63", "roomType": "corridor", "__tile": "17/72476/45847", "__layer": "rooms", "__zoom": 17, "__mvtId": 1181, "__building": "eszaki", "__ringVerts": 10, "id": 1181, "catalogFloorId": 14}, "geometry": {"type": "Polygon", "coordinates": [[[19.06218856573105, 47.47270230172848], [19.06218856573105, 47.47270683426854], [19.062202647328377, 47.47274989337967], [19.062161073088646, 47.47275578567634], [19.062160402536392, 47.472752612901296], [19.062144979834557, 47.472754425915625], [19.062132239341736, 47.472714086331834], [19.062146991491318, 47.472711820062166], [19.062146320939064, 47.47270819403049], [19.06218856573105, 47.47270230172848]]]}}], "meta": {"building": "eszaki", "floorId": 14, "polygonCount": 2}}