{"type":"FeatureCollection","features":[{"type":"Feature","id":841,"properties":{"buildingId":2,"floorId":9,"roomNumber":"4.57","roomName":"4.57 Metallográfiai labor","scope":"budapest/lagymanyos/eszaki/4/LÉ-4-57-01-14 (2)","roomCode":"LÉ-4-57-01-14 (2)","roomType":"educational","__tile":"17/72476/45847","__layer":"rooms","__zoom":17,"__mvtId":841,"__building":"eszaki","__ringVerts":6,"id":841,"catalogFloorId":9},"geometry":{"type":"Polygon","coordinates":[[[19.06230505,47.474040517],[19.062308403,47.47404233],[19.062325167,47.474096267],[19.062284933,47.474100799],[19.06226817,47.474045503],[19.06230505,47.474040517]]]}},{"type":"Feature","id":856,"properties":{"buildingId":2,"floorId":9,"roomNumber":"4.74","roomName":"4.74 Oktató","scope":"budapest/lagymanyos/eszaki/4/LÉ-4-74-01-13","roomCode":"LÉ-4-74-01-13","roomType":"educational","__tile":"17/72476/45847","__layer":"rooms","__zoom":17,"__mvtId":856,"__building":"eszaki","__ringVerts":6,"id":856,"catalogFloorId":9},"geometry":{"type":"Polygon","coordinates":[[[19.06212805,47.474075459],[19.06213945,47.474112625],[19.062058313,47.474123956],[19.062056972,47.474117611],[19.062046913,47.47408679],[19.06212805,47.474075459]]]}},{"type":"Feature","id":847,"properties":{"buildingId":2,"floorId":9,"roomNumber":"4.63","roomName":"4.63 Oktató","scope":"budapest/lagymanyos/eszaki/4/LÉ-4-63-01-13","roomCode":"LÉ-4-63-01-13","roomType":"educational","__tile":"17/72476/45847","__layer":"rooms","__zoom":17,"__mvtId":847,"__building":"eszaki","__ringVerts":5,"id":847,"catalogFloorId":9},"geometry":{"type":"Polygon","coordinates":[[[19.062142062,47.474013282],[19.062159497,47.474069485],[19.062119264,47.474074017],[19.0621025,47.474019174],[19.062142062,47.474013282]]]}},{"type":"Feature","id":845,"properties":{"buildingId":2,"floorId":9,"roomNumber":"4.61","roomName":"4.61 Oktató","scope":"budapest/lagymanyos/eszaki/4/LÉ-4-61-01-13","roomCode":"LÉ-4-61-01-13","roomType":"educational","__tile":"17/72476/45847","__layer":"rooms","__zoom":17,"__mvtId":845,"__building":"eszaki","__ringVerts":7,"id":845,"catalogFloorId":9},"geometry":{"type":"Polygon","coordinates":[[[19.062064049,47.474005387],[19.062081483,47.474061591],[19.06204125,47.474066123],[19.062025827,47.474016266],[19.062039238,47.474014452],[19.062037897,47.474009013],[19.062064049,47.474005387]]]}},{"type":"Feature","id":850,"properties":{"buildingId":2,"floorId":9,"roomNumber":"4.66","roomName":"4.66 Oktató","scope":"budapest/lagymanyos/eszaki/4/LÉ-4-66-01-13","roomCode":"LÉ-4-66-01-13","roomType":"educational","__tile":"17/72476/45847","__layer":"rooms","__zoom":17,"__mvtId":850,"__building":"eszaki","__ringVerts":6,"id":850,"catalogFloorId":9},"geometry":{"type":"Polygon","coordinates":[[[19.062271695,47.474033435],[19.062287789,47.474089638],[19.062248897,47.474095077],[19.062232803,47.47404114],[19.062234815,47.474038421],[19.062271695,47.474033435]]]}},{"type":"Feature","id":852,"properties":{"buildingId":2,"floorId":9,"roomNumber":"4.69","roomName":"4.69 Titkárság","scope":"budapest/lagymanyos/eszaki/4/LÉ-4-69-02-33","roomCode":"LÉ-4-69-02-33","roomType":"administrative","__tile":"17/72476/45847","__layer":"rooms","__zoom":17,"__mvtId":852,"__building":"eszaki","__ringVerts":6,"id":852,"catalogFloorId":9},"geometry":{"type":"Polygon","coordinates":[[[19.062388131,47.474051988],[19.062392154,47.474054254],[19.062408248,47.474107738],[19.062368015,47.47411227],[19.062351251,47.474057427],[19.062388131,47.474051988]]]}},{"type":"Feature","id":879,"properties":{"buildingId":2,"floorId":9,"roomNumber":"4-K7","roomName":"4.K7 Közlekedő D-i","scope":"budapest/lagymanyos/eszaki/4/LÉ-4-K7-04-63","roomCode":"LÉ-4-K7-04-63","roomType":"corridor","__tile":"17/72476/45847","__layer":"rooms","__zoom":17,"__mvtId":879,"__building":"eszaki","__ringVerts":6,"id":879,"catalogFloorId":9},"geometry":{"type":"Polygon","coordinates":[[[19.062421395,47.474056297],[19.062426089,47.474071255],[19.06191714,47.474142868],[19.061912446,47.474127911],[19.06225711,47.474079413],[19.062421395,47.474056297]]]}},{"type":"Feature","id":884,"properties":{"buildingId":2,"floorId":9,"roomNumber":"4-L6","roomName":"4.L6 Lépcsőház DNY","scope":"budapest/lagymanyos/eszaki/4/LÉ-4-L6-04-64","roomCode":"LÉ-4-L6-04-64","roomType":"corridor","__tile":"17/72476/45847","__layer":"rooms","__zoom":17,"__mvtId":884,"__building":"eszaki","__ringVerts":5,"id":884,"catalogFloorId":9},"geometry":{"type":"Polygon","coordinates":[[[19.062036537,47.474079659],[19.062043242,47.474102774],[19.061957412,47.474114559],[19.061952718,47.47409099],[19.062036537,47.474079659]]]}},{"type":"Feature","id":387,"properties":{"buildingId":2,"floorId":9,"roomNumber":"420/B","roomName":"4.420/B ffi öltöző","scope":"budapest/lagymanyos/eszaki/4/LK-4-420-B-05-73","roomCode":"LK-4-420/B-05-73","roomType":"social","__tile":"16/36238/22923","__layer":"rooms","__zoom":16,"__mvtId":387,"__building":"eszaki","__ringVerts":5,"id":387,"catalogFloorId":9},"geometry":{"type":"Polygon","coordinates":[[[19.061654134,47.474948456],[19.06166218,47.474974744],[19.061631335,47.474979276],[19.061623288,47.474952988],[19.061654134,47.474948456]]]}},{"type":"Feature","id":386,"properties":{"buildingId":2,"floorId":9,"roomNumber":"420/A","roomName":"4.420/A Ffi mosdó","scope":"budapest/lagymanyos/eszaki/4/LK-4-420-A-05-71","roomCode":"LK-4-420/A-05-71","roomType":"social","__tile":"16/36238/22923","__layer":"rooms","__zoom":16,"__mvtId":386,"__building":"eszaki","__ringVerts":5,"id":386,"catalogFloorId":9},"geometry":{"type":"Polygon","coordinates":[[[19.061622683,47.474943597],[19.06163073,47.474969885],[19.06159452,47.474974417],[19.061586473,47.474949035],[19.061622683,47.474943597]]]}},{"type":"Feature","id":385,"properties":{"buildingId":2,"floorId":9,"roomNumber":"419/B","roomName":"4.419/B női öltöző","scope":"budapest/lagymanyos/eszaki/4/LK-4-419-B-05-71","roomCode":"LK-4-419/B-05-71","roomType":"social","__tile":"16/36238/22923","__layer":"rooms","__zoom":16,"__mvtId":385,"__building":"eszaki","__ringVerts":5,"id":385,"catalogFloorId":9},"geometry":{"type":"Polygon","coordinates":[[[19.061645593,47.474976479],[19.061653639,47.475002767],[19.061622794,47.475007299],[19.061614747,47.474981011],[19.061645593,47.474976479]]]}},{"type":"Feature","id":382,"properties":{"buildingId":2,"floorId":9,"roomNumber":"417","roomName":"4.417 Előkészitő","scope":"budapest/lagymanyos/eszaki/4/LK-4-417-01-14","roomCode":"LK-4-417-01-14","roomType":"educational","__tile":"16/36238/22923","__layer":"rooms","__zoom":16,"__mvtId":382,"__building":"eszaki","__ringVerts":5,"id":382,"catalogFloorId":9},"geometry":{"type":"Polygon","coordinates":[[[19.061599122,47.47511224],[19.061607169,47.475138528],[19.061540114,47.475147593],[19.061532067,47.475121305],[19.061599122,47.47511224]]]}},{"type":"Feature","id":383,"properties":{"buildingId":2,"floorId":9,"roomNumber":"418","roomName":"4.418 Hallgatói labor","scope":"budapest/lagymanyos/eszaki/4/LK-4-418-01-14","roomCode":"LK-4-418-01-14","roomType":"educational","__tile":"16/36238/22923","__layer":"rooms","__zoom":16,"__mvtId":383,"__building":"eszaki","__ringVerts":6,"id":383,"catalogFloorId":9},"geometry":{"type":"Polygon","coordinates":[[[19.061617661,47.475010395],[19.061651189,47.47512008],[19.061584134,47.475130052],[19.061559994,47.475047561],[19.061550606,47.47501946],[19.061617661,47.475010395]]]}},{"type":"Feature","id":388,"properties":{"buildingId":2,"floorId":9,"roomNumber":"421","roomName":"4.421 Preparatív labor","scope":"budapest/lagymanyos/eszaki/4/LK-4-421-01-14","roomCode":"LK-4-421-01-14","roomType":"educational","__tile":"16/36238/22923","__layer":"rooms","__zoom":16,"__mvtId":388,"__building":"eszaki","__ringVerts":5,"id":388,"catalogFloorId":9},"geometry":{"type":"Polygon","coordinates":[[[19.061661978,47.474885732],[19.061678071,47.474940121],[19.061612357,47.474949186],[19.061594922,47.474894797],[19.061661978,47.474885732]]]}},{"type":"Feature","id":389,"properties":{"buildingId":2,"floorId":9,"roomNumber":"422","roomName":"4.422 Preparatív labor","scope":"budapest/lagymanyos/eszaki/4/LK-4-422-01-14","roomCode":"LK-4-422-01-14","roomType":"educational","__tile":"16/36238/22923","__layer":"rooms","__zoom":16,"__mvtId":389,"__building":"eszaki","__ringVerts":5,"id":389,"catalogFloorId":9},"geometry":{"type":"Polygon","coordinates":[[[19.061679257,47.47482937],[19.06169535,47.474883759],[19.061629636,47.474892824],[19.061612201,47.474838435],[19.061679257,47.47482937]]]}},{"type":"Feature","id":384,"properties":{"buildingId":2,"floorId":9,"roomNumber":"419/A","roomName":"4.419/A Női mosdó","scope":"budapest/lagymanyos/eszaki/4/LK-4-419-A-05-71","roomCode":"LK-4-419/A-05-71","roomType":"social","__tile":"16/36238/22923","__layer":"rooms","__zoom":16,"__mvtId":384,"__building":"eszaki","__ringVerts":5,"id":384,"catalogFloorId":9},"geometry":{"type":"Polygon","coordinates":[[[19.061614141,47.47497162],[19.061622188,47.474997908],[19.061585978,47.47500244],[19.061577931,47.474977058],[19.061614141,47.47497162]]]}},{"type":"Feature","id":403,"properties":{"buildingId":2,"floorId":9,"roomNumber":"439","roomName":"4.439 Oktató","scope":"budapest/lagymanyos/eszaki/4/LK-4-439-01-13","roomCode":"LK-4-439-01-13","roomType":"educational","__tile":"16/36238/22923","__layer":"rooms","__zoom":16,"__mvtId":403,"__building":"eszaki","__ringVerts":5,"id":403,"catalogFloorId":9},"geometry":{"type":"Polygon","coordinates":[[[19.062012309,47.47482418],[19.062028402,47.47487585],[19.061994874,47.474880382],[19.061978781,47.474828713],[19.062012309,47.47482418]]]}},{"type":"Feature","id":404,"properties":{"buildingId":2,"floorId":9,"roomNumber":"440","roomName":"4.440 Tárgyaló","scope":"budapest/lagymanyos/eszaki/4/LK-4-440-01-17","roomCode":"LK-4-440-01-17","roomType":"educational","__tile":"16/36238/22923","__layer":"rooms","__zoom":16,"__mvtId":404,"__building":"eszaki","__ringVerts":5,"id":404,"catalogFloorId":9},"geometry":{"type":"Polygon","coordinates":[[[19.062047421,47.474828639],[19.062063514,47.474881215],[19.062029986,47.474885747],[19.062013893,47.474833171],[19.062047421,47.474828639]]]}},{"type":"Feature","id":398,"properties":{"buildingId":2,"floorId":9,"roomNumber":"434","roomName":"4.434 Oktató","scope":"budapest/lagymanyos/eszaki/4/LK-4-434-01-13","roomCode":"LK-4-434-01-13","roomType":"educational","__tile":"16/36238/22923","__layer":"rooms","__zoom":16,"__mvtId":398,"__building":"eszaki","__ringVerts":5,"id":398,"catalogFloorId":9},"geometry":{"type":"Polygon","coordinates":[[[19.061837083,47.474799657],[19.061853176,47.474852233],[19.061819648,47.474856765],[19.061803555,47.474804189],[19.061837083,47.474799657]]]}},{"type":"Feature","id":399,"properties":{"buildingId":2,"floorId":9,"roomNumber":"435","roomName":"4.435 Oktató","scope":"budapest/lagymanyos/eszaki/4/LK-4-435-01-13","roomCode":"LK-4-435-01-13","roomType":"educational","__tile":"16/36238/22923","__layer":"rooms","__zoom":16,"__mvtId":399,"__building":"eszaki","__ringVerts":5,"id":399,"catalogFloorId":9},"geometry":{"type":"Polygon","coordinates":[[[19.061872134,47.474804496],[19.061888227,47.474857072],[19.061854699,47.474861604],[19.061838606,47.474809028],[19.061872134,47.474804496]]]}},{"type":"Feature","id":400,"properties":{"buildingId":2,"floorId":9,"roomNumber":"436","roomName":"4.436 Oktató","scope":"budapest/lagymanyos/eszaki/4/LK-4-436-01-13","roomCode":"LK-4-436-01-13","roomType":"educational","__tile":"16/36238/22923","__layer":"rooms","__zoom":16,"__mvtId":400,"__building":"eszaki","__ringVerts":5,"id":400,"catalogFloorId":9},"geometry":{"type":"Polygon","coordinates":[[[19.061906852,47.474809121],[19.061924286,47.474861697],[19.061889417,47.474867136],[19.061873324,47.474813654],[19.061906852,47.474809121]]]}},{"type":"Feature","id":401,"properties":{"buildingId":2,"floorId":9,"roomNumber":"437","roomName":"4.437 Oktató","scope":"budapest/lagymanyos/eszaki/4/LK-4-437-01-13","roomCode":"LK-4-437-01-13","roomType":"educational","__tile":"16/36238/22923","__layer":"rooms","__zoom":16,"__mvtId":401,"__building":"eszaki","__ringVerts":5,"id":401,"catalogFloorId":9},"geometry":{"type":"Polygon","coordinates":[[[19.061942208,47.474814145],[19.061958301,47.474866721],[19.061924773,47.474871253],[19.06190868,47.474818677],[19.061942208,47.474814145]]]}},{"type":"Feature","id":402,"properties":{"buildingId":2,"floorId":9,"roomNumber":"438","roomName":"4.438 Oktató","scope":"budapest/lagymanyos/eszaki/4/LK-4-438-01-13","roomCode":"LK-4-438-01-13","roomType":"educational","__tile":"16/36238/22923","__layer":"rooms","__zoom":16,"__mvtId":402,"__building":"eszaki","__ringVerts":5,"id":402,"catalogFloorId":9},"geometry":{"type":"Polygon","coordinates":[[[19.061977431,47.474819189],[19.061993524,47.474870858],[19.061959996,47.474876297],[19.061943903,47.474823721],[19.061977431,47.474819189]]]}},{"type":"Feature","id":405,"properties":{"buildingId":2,"floorId":9,"roomNumber":"441","roomName":"4.441 Oktató","scope":"budapest/lagymanyos/eszaki/4/LK-4-441-01-13","roomCode":"LK-4-441-01-13","roomType":"educational","__tile":"16/36238/22923","__layer":"rooms","__zoom":16,"__mvtId":405,"__building":"eszaki","__ringVerts":5,"id":405,"catalogFloorId":9},"geometry":{"type":"Polygon","coordinates":[[[19.062090517,47.474834065],[19.062105269,47.474885734],[19.062063695,47.474891173],[19.062047602,47.474839504],[19.062090517,47.474834065]]]}},{"type":"Feature","id":839,"properties":{"buildingId":2,"floorId":9,"roomNumber":"4.56","roomName":"4.56 Előkészítő","scope":"budapest/lagymanyos/eszaki/4/LÉ-4-56-01-14","roomCode":"LÉ-4-56-01-14","roomType":"educational","__tile":"17/72476/45847","__layer":"rooms","__zoom":17,"__mvtId":839,"__building":"eszaki","__ringVerts":6,"id":839,"catalogFloorId":9},"geometry":{"type":"Polygon","coordinates":[[[19.061889173,47.474144134],[19.06189722,47.474170876],[19.061822118,47.474181754],[19.061814742,47.474157732],[19.061815413,47.474154559],[19.061889173,47.474144134]]]}},{"type":"Feature","id":837,"properties":{"buildingId":2,"floorId":9,"roomNumber":"4.54","roomName":"4.54 Szaklaboratórium","scope":"budapest/lagymanyos/eszaki/4/LÉ-4-54-01-14","roomCode":"LÉ-4-54-01-14","roomType":"educational","__tile":"17/72476/45847","__layer":"rooms","__zoom":17,"__mvtId":837,"__building":"eszaki","__ringVerts":9,"id":837,"catalogFloorId":9},"geometry":{"type":"Polygon","coordinates":[[[19.061842552,47.474210125],[19.061845234,47.474216017],[19.061855292,47.474214657],[19.061859315,47.474227348],[19.061849257,47.474228708],[19.061860657,47.474264968],[19.061784884,47.474275846],[19.06176812,47.47422055],[19.061842552,47.474210125]]]}},{"type":"Feature","id":868,"properties":{"buildingId":2,"floorId":9,"roomNumber":"4.87","roomName":"4.87 öltöző előtér","scope":"budapest/lagymanyos/eszaki/4/LÉ-4-87-04-63","roomCode":"LÉ-4-87-04-63","roomType":"corridor","__tile":"17/72476/45847","__layer":"rooms","__zoom":17,"__mvtId":868,"__building":"eszaki","__ringVerts":10,"id":868,"catalogFloorId":9},"geometry":{"type":"Polygon","coordinates":[[[19.062026158,47.474405707],[19.062028169,47.474412959],[19.062018782,47.474415225],[19.062030851,47.474413412],[19.062032863,47.474420664],[19.062035545,47.474428823],[19.062032863,47.474431542],[19.062015429,47.474433808],[19.062007382,47.474407973],[19.062026158,47.474405707]],[[19.062030851,47.474415678],[19.062025487,47.474416585],[19.062027499,47.474421571],[19.062032863,47.474420664],[19.062030851,47.474415678]]]}},{"type":"Feature","id":844,"properties":{"buildingId":2,"floorId":9,"roomNumber":"4.60","roomName":"4.60 Oktató","scope":"budapest/lagymanyos/eszaki/4/LÉ-4-60-01-13","roomCode":"LÉ-4-60-01-13","roomType":"educational","__tile":"17/72476/45847","__layer":"rooms","__zoom":17,"__mvtId":844,"__building":"eszaki","__ringVerts":5,"id":844,"catalogFloorId":9},"geometry":{"type":"Polygon","coordinates":[[[19.062017128,47.473995284],[19.062033221,47.474051487],[19.061990306,47.474057379],[19.061972201,47.474001176],[19.062017128,47.473995284]]]}},{"type":"Feature","id":858,"properties":{"buildingId":2,"floorId":9,"roomNumber":"4.76","roomName":"4.76-77 Demonstrációs laboratórium","scope":"budapest/lagymanyos/eszaki/4/LÉ-4-76-01-14","roomCode":"LÉ-4-76-01-14","roomType":"educational","__tile":"17/72476/45847","__layer":"rooms","__zoom":17,"__mvtId":858,"__building":"eszaki","__ringVerts":5,"id":858,"catalogFloorId":9},"geometry":{"type":"Polygon","coordinates":[[[19.062003618,47.474164696],[19.062020382,47.47421954],[19.06194528,47.474230418],[19.061928516,47.474175574],[19.062003618,47.474164696]]]}},{"type":"Feature","id":80,"properties":{"buildingId":2,"floorId":9,"roomNumber":"4.51","roomName":"4.51 Szeminárium","scope":"budapest/lagymanyos/eszaki/4/LÉ-4-51-01-12","roomCode":"LÉ-4-51-01-12","roomType":"educational","__tile":"17/72476/45847","__layer":"rooms","__zoom":17,"__mvtId":80,"__building":"eszaki","__ringVerts":10,"id":80,"catalogFloorId":9},"geometry":{"type":"Polygon","coordinates":[[[19.061779991,47.474431787],[19.061782003,47.474438133],[19.061792061,47.474436773],[19.061796084,47.474449464],[19.061786026,47.474450824],[19.061798096,47.474488897],[19.061722323,47.474499775],[19.061712936,47.474468954],[19.061704889,47.474442665],[19.061779991,47.474431787]]]}},{"type":"Feature","id":394,"properties":{"buildingId":2,"floorId":9,"roomNumber":"431","roomName":"4.431 Preparatív labor","scope":"budapest/lagymanyos/eszaki/4/LK-4-431-01-14","roomCode":"LK-4-431-01-14","roomType":"educational","__tile":"17/72476/45847","__layer":"rooms","__zoom":17,"__mvtId":394,"__building":"eszaki","__ringVerts":5,"id":394,"catalogFloorId":9},"geometry":{"type":"Polygon","coordinates":[[[19.061773075,47.474488963],[19.061789168,47.474542447],[19.061722113,47.474551965],[19.061705349,47.474498481],[19.061773075,47.474488963]]]}},{"type":"Feature","id":372,"properties":{"buildingId":2,"floorId":9,"roomNumber":"405","roomName":"4.405 Labor","scope":"budapest/lagymanyos/eszaki/4/LK-4-405-01-14","roomCode":"LK-4-405-01-14","roomType":"educational","__tile":"16/36238/22923","__layer":"rooms","__zoom":16,"__mvtId":372,"__building":"eszaki","__ringVerts":5,"id":372,"catalogFloorId":9},"geometry":{"type":"Polygon","coordinates":[[[19.061568077,47.474784512],[19.06158417,47.474837994],[19.061518456,47.474847966],[19.061501021,47.474793577],[19.061568077,47.474784512]]]}},{"type":"Feature","id":368,"properties":{"buildingId":2,"floorId":9,"roomNumber":"401","roomName":"4.401 Labor","scope":"budapest/lagymanyos/eszaki/4/LK-4-401-01-14","roomCode":"LK-4-401-01-14","roomType":"educational","__tile":"16/36238/22923","__layer":"rooms","__zoom":16,"__mvtId":368,"__building":"eszaki","__ringVerts":5,"id":368,"catalogFloorId":9},"geometry":{"type":"Polygon","coordinates":[[[19.061629146,47.474586597],[19.06164658,47.474642798],[19.061578184,47.474648237],[19.06156209,47.474595661],[19.061629146,47.474586597]]]}},{"type":"Feature","id":877,"properties":{"buildingId":2,"floorId":9,"roomNumber":"4-K5","roomName":"4.K5 Közlekedő Keleti lift előtt","scope":"budapest/lagymanyos/eszaki/4/LÉ-4-K5-04-63","roomCode":"LÉ-4-K5-04-63","roomType":"corridor","__tile":"17/72476/45847","__layer":"rooms","__zoom":17,"__mvtId":877,"__building":"eszaki","__ringVerts":19,"id":877,"catalogFloorId":9},"geometry":{"type":"Polygon","coordinates":[[[19.062374454,47.474406669],[19.062379148,47.474422533],[19.062389206,47.474421173],[19.062391889,47.474431598],[19.06238183,47.474432958],[19.062404629,47.474506838],[19.062414687,47.474505478],[19.06241804,47.474515903],[19.062407982,47.474517716],[19.062420722,47.474559869],[19.062389877,47.474564401],[19.062387865,47.474559416],[19.062388536,47.474564401],[19.062375795,47.474517716],[19.06235702,47.474520436],[19.062330868,47.474433864],[19.062348973,47.474431145],[19.062340927,47.474406669],[19.062374454,47.474406669]]]}},{"type":"Feature","id":818,"properties":{"buildingId":2,"floorId":9,"roomNumber":"4.105","roomName":"4.105 Peptidszintetikus labor","scope":"budapest/lagymanyos/eszaki/4/LÉ-4-105-01-14","roomCode":"LÉ-4-105-01-14","roomType":"educational","__tile":"16/36238/22923","__layer":"rooms","__zoom":16,"__mvtId":818,"__building":"eszaki","__ringVerts":6,"id":818,"catalogFloorId":9},"geometry":{"type":"Polygon","coordinates":[[[19.062352993,47.474889681],[19.062359699,47.474916875],[19.062285938,47.474926847],[19.062277891,47.474900559],[19.062322148,47.474894213],[19.062352993,47.474889681]]]}},{"type":"Feature","id":819,"properties":{"buildingId":2,"floorId":9,"roomNumber":"4.106","roomName":"4.106 Kutató laboratórium","scope":"budapest/lagymanyos/eszaki/4/LÉ-4-106-01-14","roomCode":"LÉ-4-106-01-14","roomType":"educational","__tile":"16/36238/22923","__layer":"rooms","__zoom":16,"__mvtId":819,"__building":"eszaki","__ringVerts":6,"id":819,"catalogFloorId":9},"geometry":{"type":"Polygon","coordinates":[[[19.062354529,47.47486186],[19.062357211,47.474867299],[19.062363917,47.474889054],[19.062290156,47.474899026],[19.062282109,47.474871831],[19.062354529,47.47486186]]]}},{"type":"Feature","id":821,"properties":{"buildingId":2,"floorId":9,"roomNumber":"4.108","roomName":"4.108-4.110 Hallgatói Laboratórium","scope":"budapest/lagymanyos/eszaki/4/LÉ-4-108-01-14","roomCode":"LÉ-4-108-01-14","roomType":"educational","__tile":"16/36238/22923","__layer":"rooms","__zoom":16,"__mvtId":821,"__building":"eszaki","__ringVerts":13,"id":821,"catalogFloorId":9},"geometry":{"type":"Polygon","coordinates":[[[19.062398812,47.47474424],[19.062401494,47.474749679],[19.062424293,47.474827636],[19.062350533,47.474837608],[19.062349191,47.474832169],[19.062339804,47.474833075],[19.06233578,47.474820384],[19.062345168,47.474818571],[19.062337121,47.474789564],[19.062318346,47.474764183],[19.062327734,47.47476237],[19.062325052,47.474754211],[19.062398812,47.47474424]]]}},{"type":"Feature","id":823,"properties":{"buildingId":2,"floorId":9,"roomNumber":"4.112","roomName":"4.112 HPLC laboratórium","scope":"budapest/lagymanyos/eszaki/4/LÉ-4-112-01-14","roomCode":"LÉ-4-112-01-14","roomType":"educational","__tile":"17/72476/45847","__layer":"rooms","__zoom":17,"__mvtId":823,"__building":"eszaki","__ringVerts":5,"id":823,"catalogFloorId":9},"geometry":{"type":"Polygon","coordinates":[[[19.062459711,47.474535469],[19.062467758,47.474559944],[19.062394667,47.474570369],[19.062383268,47.474535469],[19.062459711,47.474535469]]]}},{"type":"Feature","id":876,"properties":{"buildingId":2,"floorId":9,"roomNumber":"4-K4","roomName":"4.K4 Közlekedő (Keleti lifttől balra)","scope":"budapest/lagymanyos/eszaki/4/LÉ-4-K4-04-63","roomCode":"LÉ-4-K4-04-63","roomType":"corridor","__tile":"16/36238/22923","__layer":"rooms","__zoom":16,"__mvtId":876,"__building":"eszaki","__ringVerts":50,"id":876,"catalogFloorId":9},"geometry":{"type":"Polygon","coordinates":[[[19.062269876,47.474573536],[19.062271217,47.474581695],[19.062281945,47.474580788],[19.062284628,47.47459076],[19.06227524,47.474592573],[19.062280604,47.474609796],[19.062289992,47.474608889],[19.062294015,47.474618861],[19.062283287,47.474620674],[19.062288651,47.474637897],[19.06229938,47.47463699],[19.062302062,47.474646962],[19.062292674,47.474648774],[19.062306085,47.474694099],[19.062316814,47.474693192],[19.062319496,47.474703163],[19.062310109,47.474704976],[19.062314132,47.474721293],[19.06232352,47.4747503],[19.062332907,47.474749394],[19.062336931,47.474759365],[19.062326202,47.474761178],[19.062340954,47.474806502],[19.062350342,47.474805596],[19.062354365,47.474815567],[19.062343636,47.47481738],[19.062366435,47.474890805],[19.062377164,47.474889898],[19.062379846,47.474899869],[19.062370458,47.474901682],[19.062374482,47.47491256],[19.062340954,47.474917093],[19.062338272,47.474906215],[19.062328884,47.474907121],[19.062324861,47.47489715],[19.06233559,47.474895337],[19.062312791,47.474821912],[19.062302062,47.474822819],[19.06229938,47.474812848],[19.062310109,47.474811035],[19.06228731,47.47473761],[19.062276581,47.474738516],[19.062273899,47.474728545],[19.062283287,47.474726732],[19.062277922,47.474709509],[19.062268534,47.474710415],[19.062264511,47.474700444],[19.06227524,47.474698631],[19.062237689,47.474578069],[19.062269876,47.474573536]]]}},{"type":"Feature","id":882,"properties":{"buildingId":2,"floorId":9,"roomNumber":"4-L3","roomName":"4.L3 Lépcsőház ÉK","scope":"budapest/lagymanyos/eszaki/4/LÉ-4-L3-04-64","roomCode":"LÉ-4-L3-04-64","roomType":"corridor","__tile":"16/36238/22923","__layer":"rooms","__zoom":16,"__mvtId":882,"__building":"eszaki","__ringVerts":5,"id":882,"catalogFloorId":9},"geometry":{"type":"Polygon","coordinates":[[[19.062258713,47.474785753],[19.062258713,47.474810228],[19.062180929,47.474821105],[19.062172882,47.474797537],[19.062258713,47.474785753]]]}},{"type":"Feature","id":816,"properties":{"buildingId":2,"floorId":9,"roomNumber":"4.103","roomName":"4.103 Oktató","scope":"budapest/lagymanyos/eszaki/4/LÉ-4-103-01-13","roomCode":"LÉ-4-103-01-13","roomType":"educational","__tile":"16/36238/22923","__layer":"rooms","__zoom":16,"__mvtId":816,"__building":"eszaki","__ringVerts":6,"id":816,"catalogFloorId":9},"geometry":{"type":"Polygon","coordinates":[[[19.062196198,47.474845707],[19.062212291,47.474898283],[19.062173399,47.474906442],[19.062158647,47.474858398],[19.062155964,47.474851146],[19.062196198,47.474845707]]]}},{"type":"Feature","id":817,"properties":{"buildingId":2,"floorId":9,"roomNumber":"4.104","roomName":"4.104 Oktató","scope":"budapest/lagymanyos/eszaki/4/LÉ-4-104-01-13","roomCode":"LÉ-4-104-01-13","roomType":"educational","__tile":"16/36238/22923","__layer":"rooms","__zoom":16,"__mvtId":817,"__building":"eszaki","__ringVerts":6,"id":817,"catalogFloorId":9},"geometry":{"type":"Polygon","coordinates":[[[19.062240749,47.474851317],[19.062258183,47.474906613],[19.062213927,47.474912958],[19.062199174,47.474863102],[19.062204539,47.474854943],[19.062240749,47.474851317]]]}},{"type":"Feature","id":56,"properties":{"buildingId":2,"floorId":9,"roomNumber":"4.70","roomName":"4.70 Tanácsterem","scope":"budapest/lagymanyos/eszaki/4/LÉ-4-70-01-12","roomCode":"LÉ-4-70-01-12","roomType":"educational","__tile":"17/72476/45847","__layer":"rooms","__zoom":17,"__mvtId":56,"__building":"eszaki","__ringVerts":6,"id":56,"catalogFloorId":9},"geometry":{"type":"Polygon","coordinates":[[[19.062483882,47.474056533],[19.062501316,47.474113189],[19.062415486,47.474124974],[19.062398722,47.474071037],[19.062400734,47.474068318],[19.062483882,47.474056533]]]}},{"type":"Feature","id":829,"properties":{"buildingId":2,"floorId":9,"roomNumber":"4.118","roomName":"4.118 Anyagtechnológia laboratórium","scope":"budapest/lagymanyos/eszaki/4/LÉ-4-118-01-14","roomCode":"LÉ-4-118-01-14","roomType":"educational","__tile":"17/72476/45847","__layer":"rooms","__zoom":17,"__mvtId":829,"__building":"eszaki","__ringVerts":5,"id":829,"catalogFloorId":9},"geometry":{"type":"Polygon","coordinates":[[[19.062559464,47.474184134],[19.062576227,47.474239431],[19.062503137,47.474249856],[19.062486373,47.474194559],[19.062559464,47.474184134]]]}},{"type":"Feature","id":831,"properties":{"buildingId":2,"floorId":9,"roomNumber":"4.121","roomName":"4.121 Mechanikai anyagvizsgáló laboratórium ","scope":"budapest/lagymanyos/eszaki/4/LÉ-4-121-01-14","roomCode":"LÉ-4-121-01-14","roomType":"educational","__tile":"17/72476/45847","__layer":"rooms","__zoom":17,"__mvtId":831,"__building":"eszaki","__ringVerts":10,"id":831,"catalogFloorId":9},"geometry":{"type":"Polygon","coordinates":[[[19.062424041,47.474171371],[19.062426053,47.474177263],[19.062436111,47.474175903],[19.062440134,47.474188594],[19.062430076,47.474189954],[19.062440805,47.474226214],[19.062365703,47.474236639],[19.062358997,47.474213976],[19.062348939,47.474181795],[19.062424041,47.474171371]]]}},{"type":"Feature","id":832,"properties":{"buildingId":2,"floorId":9,"roomNumber":"4.122","roomName":"4.122 Előkészítő","scope":"budapest/lagymanyos/eszaki/4/LÉ-4-122-01-14","roomCode":"LÉ-4-122-01-14","roomType":"educational","__tile":"17/72476/45847","__layer":"rooms","__zoom":17,"__mvtId":832,"__building":"eszaki","__ringVerts":8,"id":832,"catalogFloorId":9},"geometry":{"type":"Polygon","coordinates":[[[19.062410519,47.474218506],[19.062413201,47.474226212],[19.062417895,47.474241622],[19.062413201,47.474242075],[19.062414542,47.474246155],[19.062343463,47.474256126],[19.062337429,47.474228478],[19.062410519,47.474218506]]]}},{"type":"Feature","id":833,"properties":{"buildingId":2,"floorId":9,"roomNumber":"4.123","roomName":"4.123 Röntgen laboratórium","scope":"budapest/lagymanyos/eszaki/4/LÉ-4-123-01-14","roomCode":"LÉ-4-123-01-14","roomType":"educational","__tile":"17/72476/45847","__layer":"rooms","__zoom":17,"__mvtId":833,"__building":"eszaki","__ringVerts":11,"id":833,"catalogFloorId":9},"geometry":{"type":"Polygon","coordinates":[[[19.062392127,47.474242963],[19.062402185,47.474276957],[19.062412243,47.474275597],[19.062413584,47.474279223],[19.062416266,47.474288288],[19.062406208,47.474289648],[19.06240889,47.474297806],[19.06233513,47.474308231],[19.062327083,47.474286928],[19.062317025,47.474254294],[19.062392127,47.474242963]]]}},{"type":"Feature","id":851,"properties":{"buildingId":2,"floorId":9,"roomNumber":"4.68","roomName":"4.68 Tanszékvezető","scope":"budapest/lagymanyos/eszaki/4/LÉ-4-68-01-13","roomCode":"LÉ-4-68-01-13","roomType":"educational","__tile":"17/72476/45847","__layer":"rooms","__zoom":17,"__mvtId":851,"__building":"eszaki","__ringVerts":6,"id":851,"catalogFloorId":9},"geometry":{"type":"Polygon","coordinates":[[[19.062354832,47.474044855],[19.062370925,47.474101512],[19.062332703,47.474106951],[19.06231594,47.474053014],[19.062317951,47.474049841],[19.062354832,47.474044855]]]}},{"type":"Feature","id":71,"properties":{"buildingId":2,"floorId":9,"roomNumber":"415","roomName":"415 Hajóorr IV.","scope":"budapest/lagymanyos/eszaki/4/LK-4-415-01-12","roomCode":"LK-4-415-01-12","roomType":"educational","__tile":"16/36238/22923","__layer":"rooms","__zoom":16,"__mvtId":71,"__building":"eszaki","__ringVerts":5,"id":71,"catalogFloorId":9},"geometry":{"type":"Polygon","coordinates":[[[19.061538489,47.475260133],[19.06156397,47.475341717],[19.061484845,47.475353501],[19.061462046,47.475338997],[19.061538489,47.475260133]]]}},{"type":"Feature","id":367,"properties":{"buildingId":2,"floorId":9,"roomNumber":"400/4","roomName":"4.400/4 Menekülő lépcsőház L1","scope":"budapest/lagymanyos/eszaki/4/LK-4-400-4-04-64","roomCode":"LK-4-400/4-04-64","roomType":"corridor","__tile":"16/36238/22923","__layer":"rooms","__zoom":16,"__mvtId":367,"__building":"eszaki","__ringVerts":6,"id":367,"catalogFloorId":9},"geometry":{"type":"Polygon","coordinates":[[[19.061450318,47.47521107],[19.061467752,47.475264553],[19.061391309,47.475275431],[19.061377898,47.475272712],[19.061364487,47.475226481],[19.061450318,47.47521107]]]}},{"type":"Feature","id":375,"properties":{"buildingId":2,"floorId":9,"roomNumber":"409","roomName":"4.409 HF Labor","scope":"budapest/lagymanyos/eszaki/4/LK-4-409-01-14","roomCode":"LK-4-409-01-14","roomType":"educational","__tile":"16/36238/22923","__layer":"rooms","__zoom":16,"__mvtId":375,"__building":"eszaki","__ringVerts":5,"id":375,"catalogFloorId":9},"geometry":{"type":"Polygon","coordinates":[[[19.06151319,47.474983],[19.061521237,47.475008382],[19.061454182,47.475018353],[19.061446135,47.474992065],[19.06151319,47.474983]]]}},{"type":"Feature","id":377,"properties":{"buildingId":2,"floorId":9,"roomNumber":"411","roomName":"4.411 HPLC labor","scope":"budapest/lagymanyos/eszaki/4/LK-4-411-01-14","roomCode":"LK-4-411-01-14","roomType":"educational","__tile":"16/36238/22923","__layer":"rooms","__zoom":16,"__mvtId":377,"__building":"eszaki","__ringVerts":5,"id":377,"catalogFloorId":9},"geometry":{"type":"Polygon","coordinates":[[[19.061496123,47.475038868],[19.06150417,47.475065156],[19.061437115,47.475074221],[19.061429068,47.475047933],[19.061496123,47.475038868]]]}},{"type":"Feature","id":379,"properties":{"buildingId":2,"floorId":9,"roomNumber":"413","roomName":"4.413 Előkészítő","scope":"budapest/lagymanyos/eszaki/4/LK-4-413-01-14","roomCode":"LK-4-413-01-14","roomType":"educational","__tile":"16/36238/22923","__layer":"rooms","__zoom":16,"__mvtId":379,"__building":"eszaki","__ringVerts":5,"id":379,"catalogFloorId":9},"geometry":{"type":"Polygon","coordinates":[[[19.061471573,47.475097685],[19.061487666,47.475152075],[19.061420611,47.475161139],[19.061404518,47.47510675],[19.061471573,47.475097685]]]}},{"type":"Feature","id":378,"properties":{"buildingId":2,"floorId":9,"roomNumber":"412","roomName":"4.412 Oldószer desztilláló labor","scope":"budapest/lagymanyos/eszaki/4/LK-4-412-01-14","roomCode":"LK-4-412-01-14","roomType":"educational","__tile":"16/36238/22923","__layer":"rooms","__zoom":16,"__mvtId":378,"__building":"eszaki","__ringVerts":5,"id":378,"catalogFloorId":9},"geometry":{"type":"Polygon","coordinates":[[[19.06148759,47.475066892],[19.061495637,47.47509318],[19.061428582,47.475102245],[19.061420535,47.475075957],[19.06148759,47.475066892]]]}},{"type":"Feature","id":366,"properties":{"buildingId":2,"floorId":9,"roomNumber":"400/3","roomName":"4.400/3 Közl. Hosszú laborfoly. Tanári WC","scope":"budapest/lagymanyos/eszaki/4/LK-4-400-3-04-63","roomCode":"LK-4-400/3-04-63","roomType":"corridor","__tile":"16/36238/22923","__layer":"rooms","__zoom":16,"__mvtId":366,"__building":"eszaki","__ringVerts":92,"id":366,"catalogFloorId":9},"geometry":{"type":"Polygon","coordinates":[[[19.061456122,47.474917594],[19.06147758,47.474927565],[19.061478921,47.474933911],[19.061490991,47.474933004],[19.061496355,47.474952041],[19.061485626,47.474953853],[19.061490991,47.474971077],[19.061501719,47.474969264],[19.061505743,47.474980142],[19.061493673,47.474981955],[19.061499037,47.474999178],[19.061511107,47.474997365],[19.061513789,47.475008243],[19.061501719,47.475010056],[19.061507084,47.475027279],[19.061519154,47.475025466],[19.061523177,47.475036344],[19.061511107,47.475038157],[19.061516472,47.47505538],[19.061528541,47.475053567],[19.061531224,47.475064445],[19.061519154,47.475066258],[19.061524518,47.475083481],[19.061536588,47.475081668],[19.06153927,47.475092546],[19.061528541,47.475094359],[19.061533906,47.475111582],[19.061544635,47.475109769],[19.061548658,47.475120647],[19.061536588,47.47512246],[19.061541953,47.475139683],[19.061554022,47.475137871],[19.061556705,47.475148748],[19.061544635,47.475150561],[19.061549999,47.475167785],[19.061562069,47.475165972],[19.061566092,47.475176849],[19.061554022,47.475178662],[19.061559387,47.475195886],[19.061571457,47.475194073],[19.061574139,47.47520495],[19.061562069,47.475206763],[19.061566092,47.475217641],[19.061576821,47.475215828],[19.061579503,47.475223987],[19.061567434,47.4752258],[19.061579503,47.475262059],[19.061590232,47.475260246],[19.061592914,47.475269311],[19.06155134,47.47527475],[19.061549999,47.475266591],[19.061537929,47.475268404],[19.061535247,47.475258433],[19.061545976,47.47525662],[19.061540611,47.47523849],[19.061529883,47.475240303],[19.061525859,47.475230332],[19.061537929,47.475228519],[19.061532565,47.475210389],[19.061520495,47.475212202],[19.061517813,47.475202231],[19.061529883,47.475200418],[19.061524518,47.475182288],[19.061512448,47.475184101],[19.061508425,47.475173223],[19.061520495,47.475172317],[19.06151513,47.475154187],[19.06150306,47.475156],[19.061500378,47.475145122],[19.061512448,47.475144216],[19.061507084,47.475126086],[19.061495014,47.475127899],[19.061492332,47.475117021],[19.06150306,47.475116115],[19.061497696,47.475097985],[19.061486967,47.475099798],[19.061482944,47.47508892],[19.061495014,47.475088014],[19.061489649,47.475069884],[19.06147758,47.475071697],[19.061474897,47.475060819],[19.061486967,47.475059913],[19.061481603,47.475041783],[19.061469533,47.475043596],[19.06146551,47.475032718],[19.06147758,47.475031812],[19.061472215,47.475013682],[19.061460145,47.475015495],[19.061452099,47.474986487],[19.06146551,47.474984674],[19.061445393,47.474931191],[19.061456122,47.474917594]]]}},{"type":"Feature","id":374,"properties":{"buildingId":2,"floorId":9,"roomNumber":"407","roomName":"4.407 Labor","scope":"budapest/lagymanyos/eszaki/4/LK-4-407-01-14","roomCode":"LK-4-407-01-14","roomType":"educational","__tile":"16/36238/22923","__layer":"rooms","__zoom":16,"__mvtId":374,"__building":"eszaki","__ringVerts":5,"id":374,"catalogFloorId":9},"geometry":{"type":"Polygon","coordinates":[[[19.061542133,47.474868961],[19.061558226,47.47492335],[19.061491171,47.474932415],[19.061475078,47.474878932],[19.061542133,47.474868961]]]}},{"type":"Feature","id":380,"properties":{"buildingId":2,"floorId":9,"roomNumber":"414","roomName":"4.414 HPLC labor","scope":"budapest/lagymanyos/eszaki/4/LK-4-414-01-14","roomCode":"LK-4-414-01-14","roomType":"educational","__tile":"16/36238/22923","__layer":"rooms","__zoom":16,"__mvtId":380,"__building":"eszaki","__ringVerts":5,"id":380,"catalogFloorId":9},"geometry":{"type":"Polygon","coordinates":[[[19.061454037,47.475153333],[19.061470131,47.475207722],[19.061404416,47.475216787],[19.061388323,47.475164211],[19.061454037,47.475153333]]]}},{"type":"Feature","id":381,"properties":{"buildingId":2,"floorId":9,"roomNumber":"416","roomName":"416-os labor","scope":"budapest/lagymanyos/eszaki/4/LK-4-416-01-14","roomCode":"LK-4-416-01-14","roomType":"educational","__tile":"16/36238/22923","__layer":"rooms","__zoom":16,"__mvtId":381,"__building":"eszaki","__ringVerts":6,"id":381,"catalogFloorId":9},"geometry":{"type":"Polygon","coordinates":[[[19.061565093,47.475145787],[19.061608009,47.47528448],[19.061539612,47.475293545],[19.061523519,47.475237343],[19.061498038,47.475155759],[19.061565093,47.475145787]]]}},{"type":"Feature","id":376,"properties":{"buildingId":2,"floorId":9,"roomNumber":"410","roomName":"4.410 Labor","scope":"budapest/lagymanyos/eszaki/4/LK-4-410-01-14","roomCode":"LK-4-410-01-14","roomType":"educational","__tile":"16/36238/22923","__layer":"rooms","__zoom":16,"__mvtId":376,"__building":"eszaki","__ringVerts":5,"id":376,"catalogFloorId":9},"geometry":{"type":"Polygon","coordinates":[[[19.061504121,47.475011024],[19.061512168,47.475036406],[19.061446454,47.475046377],[19.061438407,47.475020089],[19.061504121,47.475011024]]]}},{"type":"Feature","id":860,"properties":{"buildingId":2,"floorId":9,"roomNumber":"4.80","roomName":"4.80 Oktató","scope":"budapest/lagymanyos/eszaki/4/LÉ-4-80-01-13","roomCode":"LÉ-4-80-01-13","roomType":"educational","__tile":"17/72476/45847","__layer":"rooms","__zoom":17,"__mvtId":860,"__building":"eszaki","__ringVerts":11,"id":860,"catalogFloorId":9},"geometry":{"type":"Polygon","coordinates":[[[19.062120212,47.474343315],[19.062132282,47.474382295],[19.062124236,47.474383201],[19.062124906,47.474385921],[19.062100766,47.474389547],[19.062100096,47.474386827],[19.06209272,47.474386374],[19.062050475,47.474393626],[19.062043769,47.474372323],[19.062038405,47.474354646],[19.062120212,47.474343315]]]}},{"type":"Feature","id":861,"properties":{"buildingId":2,"floorId":9,"roomNumber":"4.81","roomName":"4.81 Oktató","scope":"budapest/lagymanyos/eszaki/4/LÉ-4-81-01-13","roomCode":"LÉ-4-81-01-13","roomType":"educational","__tile":"17/72476/45847","__layer":"rooms","__zoom":17,"__mvtId":861,"__building":"eszaki","__ringVerts":11,"id":861,"catalogFloorId":9},"geometry":{"type":"Polygon","coordinates":[[[19.06221743,47.474351019],[19.0622295,47.474389999],[19.062186585,47.474394531],[19.062179879,47.474396798],[19.06218055,47.47439997],[19.06215641,47.474403143],[19.06215574,47.474400424],[19.062147693,47.47440133],[19.062147022,47.474397704],[19.062135623,47.47436235],[19.06221743,47.474351019]]]}},{"type":"Feature","id":878,"properties":{"buildingId":2,"floorId":9,"roomNumber":"4-K6","roomName":"4.K6 Közlekedő (Keleti lifttől jobbra)","scope":"budapest/lagymanyos/eszaki/4/LÉ-4-K6-04-63","roomCode":"LÉ-4-K6-04-63","roomType":"corridor","__tile":"17/72476/45847","__layer":"rooms","__zoom":17,"__mvtId":878,"__building":"eszaki","__ringVerts":53,"id":878,"catalogFloorId":9},"geometry":{"type":"Polygon","coordinates":[[[19.062435204,47.474091516],[19.062444592,47.474121884],[19.06245465,47.474120524],[19.062458003,47.474131402],[19.062447945,47.474132762],[19.062462026,47.474178541],[19.062472084,47.474176728],[19.062474767,47.474187606],[19.062464708,47.474188965],[19.062470073,47.474206642],[19.062480131,47.474204829],[19.062483484,47.474214801],[19.062473425,47.474217067],[19.06247879,47.474234744],[19.062488848,47.474233384],[19.062492201,47.474243809],[19.062482143,47.474245169],[19.062487507,47.474262846],[19.062497565,47.474261939],[19.062500918,47.474271911],[19.06249086,47.47427327],[19.062513659,47.47434715],[19.062523717,47.474345791],[19.06252707,47.474356215],[19.062517011,47.474357575],[19.062522376,47.474375252],[19.062532434,47.474373892],[19.062535116,47.474384317],[19.062525058,47.474385677],[19.062536457,47.474421483],[19.062504941,47.474426016],[19.062468061,47.474305904],[19.062458003,47.474307264],[19.06245465,47.474296386],[19.062464708,47.474295026],[19.062451297,47.474249701],[19.062441239,47.474251061],[19.062437886,47.474240183],[19.062447945,47.474238823],[19.062433863,47.474193045],[19.062423805,47.474194858],[19.062420452,47.47418398],[19.06243051,47.47418262],[19.062425146,47.474164943],[19.062415087,47.474166756],[19.062411735,47.474155878],[19.062421793,47.474154518],[19.062417099,47.474138654],[19.062407711,47.47410874],[19.062397653,47.474110099],[19.0623943,47.474099675],[19.062407711,47.474095142],[19.062435204,47.474091516]]]}},{"type":"Feature","id":883,"properties":{"buildingId":2,"floorId":9,"roomNumber":"4-L5","roomName":"4.L5 Lépcsőház DK","scope":"budapest/lagymanyos/eszaki/4/LÉ-4-L5-04-64","roomCode":"LÉ-4-L5-04-64","roomType":"corridor","__tile":"17/72476/45847","__layer":"rooms","__zoom":17,"__mvtId":883,"__building":"eszaki","__ringVerts":5,"id":883,"catalogFloorId":9},"geometry":{"type":"Polygon","coordinates":[[[19.062455592,47.474138722],[19.062464979,47.474161838],[19.062379149,47.474172262],[19.062372443,47.474150506],[19.062455592,47.474138722]]]}},{"type":"Feature","id":828,"properties":{"buildingId":2,"floorId":9,"roomNumber":"4.117","roomName":"4.117 Oktatói","scope":"budapest/lagymanyos/eszaki/4/LÉ-4-117-01-13","roomCode":"LÉ-4-117-01-13","roomType":"educational","__tile":"17/72476/45847","__layer":"rooms","__zoom":17,"__mvtId":828,"__building":"eszaki","__ringVerts":5,"id":828,"catalogFloorId":9},"geometry":{"type":"Polygon","coordinates":[[[19.062550198,47.474237747],[19.062558245,47.474264942],[19.062485155,47.474274913],[19.062477108,47.474248171],[19.062550198,47.474237747]]]}},{"type":"Feature","id":825,"properties":{"buildingId":2,"floorId":9,"roomNumber":"4.114","roomName":"4.114 Fizikai tulajdonságok laboratórium","scope":"budapest/lagymanyos/eszaki/4/LÉ-4-114-01-14","roomCode":"LÉ-4-114-01-14","roomType":"educational","__tile":"17/72476/45847","__layer":"rooms","__zoom":17,"__mvtId":825,"__building":"eszaki","__ringVerts":7,"id":825,"catalogFloorId":9},"geometry":{"type":"Polygon","coordinates":[[[19.062528073,47.474349451],[19.062536119,47.474376647],[19.062463029,47.474386618],[19.062456994,47.474367582],[19.062461688,47.474367128],[19.062459006,47.47435897],[19.062528073,47.474349451]]]}},{"type":"Feature","id":827,"properties":{"buildingId":2,"floorId":9,"roomNumber":"4.116","roomName":"4.116 Optika laboratórium","scope":"budapest/lagymanyos/eszaki/4/LÉ-4-116-01-14","roomCode":"LÉ-4-116-01-14","roomType":"educational","__tile":"17/72476/45847","__layer":"rooms","__zoom":17,"__mvtId":827,"__building":"eszaki","__ringVerts":5,"id":827,"catalogFloorId":9},"geometry":{"type":"Polygon","coordinates":[[[19.062541598,47.474265875],[19.062549645,47.47429307],[19.062476555,47.474303041],[19.062468508,47.474276299],[19.062541598,47.474265875]]]}},{"type":"Feature","id":824,"properties":{"buildingId":2,"floorId":9,"roomNumber":"4.113","roomName":"4.113 Fizika alapmérések Laboratórium","scope":"budapest/lagymanyos/eszaki/4/LÉ-4-113-01-14","roomCode":"LÉ-4-113-01-14","roomType":"educational","__tile":"17/72476/45847","__layer":"rooms","__zoom":17,"__mvtId":824,"__building":"eszaki","__ringVerts":5,"id":824,"catalogFloorId":9},"geometry":{"type":"Polygon","coordinates":[[[19.06249108,47.474384308],[19.062517232,47.474469519],[19.062444142,47.474479491],[19.06241799,47.474394279],[19.06249108,47.474384308]]]}},{"type":"Feature","id":1203,"properties":{"buildingId":2,"floorId":9,"roomNumber":"4.124","roomName":"4.124 Előkészítő ","scope":"budapest/lagymanyos/eszaki/4/LÉ-4-124-01-12","roomCode":"LÉ-4-124-01-12","roomType":"educational","__tile":"17/72476/45847","__layer":"rooms","__zoom":17,"__mvtId":1203,"__building":"eszaki","__ringVerts":5,"id":1203,"catalogFloorId":9},"geometry":{"type":"Polygon","coordinates":[[[19.062396057,47.474304159],[19.062404103,47.474330901],[19.062331013,47.474341326],[19.062320955,47.474314584],[19.062396057,47.474304159]]]}},{"type":"Feature","id":1202,"properties":{"buildingId":2,"floorId":9,"roomNumber":"4.120","roomName":"4.120 Számítógép szoba","scope":"budapest/lagymanyos/eszaki/4/LÉ-4-120-01-12","roomCode":"LÉ-4-120-01-12","roomType":"educational","__tile":"17/72476/45847","__layer":"rooms","__zoom":17,"__mvtId":1202,"__building":"eszaki","__ringVerts":9,"id":1202,"catalogFloorId":9},"geometry":{"type":"Polygon","coordinates":[[[19.062611553,47.474059368],[19.062628317,47.474114212],[19.062555227,47.474124183],[19.062553886,47.474118744],[19.062543827,47.474120104],[19.062539804,47.47410696],[19.062549862,47.4741056],[19.062538463,47.47406934],[19.062611553,47.474059368]]]}},{"type":"Feature","id":826,"properties":{"buildingId":2,"floorId":9,"roomNumber":"4.115","roomName":"4.115 Fizikai tulajdonságok laboratórium","scope":"budapest/lagymanyos/eszaki/4/LÉ-4-115-01-14","roomCode":"LÉ-4-115-01-14","roomType":"educational","__tile":"17/72476/45847","__layer":"rooms","__zoom":17,"__mvtId":826,"__building":"eszaki","__ringVerts":9,"id":826,"catalogFloorId":9},"geometry":{"type":"Polygon","coordinates":[[[19.062546559,47.474298365],[19.062563993,47.474353662],[19.062490903,47.474363633],[19.062479503,47.474327373],[19.062469445,47.474328733],[19.062465422,47.474316042],[19.06247548,47.474314682],[19.062473468,47.47430879],[19.062546559,47.474298365]]]}},{"type":"Feature","id":830,"properties":{"buildingId":2,"floorId":9,"roomNumber":"4.119","roomName":"4.119 Kaloriméter laboratórium","scope":"budapest/lagymanyos/eszaki/4/LÉ-4-119-01-14","roomCode":"LÉ-4-119-01-14","roomType":"educational","__tile":"17/72476/45847","__layer":"rooms","__zoom":17,"__mvtId":830,"__building":"eszaki","__ringVerts":9,"id":830,"catalogFloorId":9},"geometry":{"type":"Polygon","coordinates":[[[19.062598218,47.474129534],[19.062614982,47.474184831],[19.062542562,47.474195256],[19.062531163,47.474158543],[19.062521105,47.474160356],[19.062517081,47.474147211],[19.062527139,47.474145852],[19.062525128,47.474139959],[19.062598218,47.474129534]]]}},{"type":"Feature","id":408,"properties":{"buildingId":2,"floorId":9,"roomNumber":"444","roomName":"4.444 Oktató","scope":"budapest/lagymanyos/eszaki/4/LK-4-444-01-13","roomCode":"LK-4-444-01-13","roomType":"educational","__tile":"16/36238/22923","__layer":"rooms","__zoom":16,"__mvtId":408,"__building":"eszaki","__ringVerts":5,"id":408,"catalogFloorId":9},"geometry":{"type":"Polygon","coordinates":[[[19.062036005,47.474762192],[19.062045393,47.474794825],[19.062011865,47.474799357],[19.062002477,47.474766724],[19.062036005,47.474762192]]]}},{"type":"Feature","id":411,"properties":{"buildingId":2,"floorId":9,"roomNumber":"447","roomName":"4.447 Oktató","scope":"budapest/lagymanyos/eszaki/4/LK-4-447-01-13","roomCode":"LK-4-447-01-13","roomType":"educational","__tile":"16/36238/22923","__layer":"rooms","__zoom":16,"__mvtId":411,"__building":"eszaki","__ringVerts":5,"id":411,"catalogFloorId":9},"geometry":{"type":"Polygon","coordinates":[[[19.061931369,47.474747786],[19.061940757,47.474780419],[19.061907229,47.474784951],[19.061897841,47.474752318],[19.061931369,47.474747786]]]}},{"type":"Feature","id":407,"properties":{"buildingId":2,"floorId":9,"roomNumber":"443","roomName":"4.443 Oktató","scope":"budapest/lagymanyos/eszaki/4/LK-4-443-01-13","roomCode":"LK-4-443-01-13","roomType":"educational","__tile":"16/36238/22923","__layer":"rooms","__zoom":16,"__mvtId":407,"__building":"eszaki","__ringVerts":5,"id":407,"catalogFloorId":9},"geometry":{"type":"Polygon","coordinates":[[[19.062070885,47.474766993],[19.062080273,47.474799626],[19.062046745,47.474804158],[19.062037357,47.474771525],[19.062070885,47.474766993]]]}},{"type":"Feature","id":412,"properties":{"buildingId":2,"floorId":9,"roomNumber":"448","roomName":"4.448 Oktató","scope":"budapest/lagymanyos/eszaki/4/LK-4-448-01-13","roomCode":"LK-4-448-01-13","roomType":"educational","__tile":"16/36238/22923","__layer":"rooms","__zoom":16,"__mvtId":412,"__building":"eszaki","__ringVerts":5,"id":412,"catalogFloorId":9},"geometry":{"type":"Polygon","coordinates":[[[19.061896566,47.474743358],[19.061905954,47.474775085],[19.061872426,47.474779618],[19.061863038,47.474747891],[19.061896566,47.474743358]]]}},{"type":"Feature","id":413,"properties":{"buildingId":2,"floorId":9,"roomNumber":"449","roomName":"4.449 Oktató","scope":"budapest/lagymanyos/eszaki/4/LK-4-449-01-13","roomCode":"LK-4-449-01-13","roomType":"educational","__tile":"16/36238/22923","__layer":"rooms","__zoom":16,"__mvtId":413,"__building":"eszaki","__ringVerts":5,"id":413,"catalogFloorId":9},"geometry":{"type":"Polygon","coordinates":[[[19.061860618,47.474738304],[19.061870005,47.474770937],[19.061837819,47.474774563],[19.061828431,47.474742836],[19.061860618,47.474738304]]]}},{"type":"Feature","id":393,"properties":{"buildingId":2,"floorId":9,"roomNumber":"430","roomName":"4.430 Preparatív labor","scope":"budapest/lagymanyos/eszaki/4/LK-4-430-01-14","roomCode":"LK-4-430-01-14","roomType":"educational","__tile":"17/72476/45847","__layer":"rooms","__zoom":17,"__mvtId":393,"__building":"eszaki","__ringVerts":5,"id":393,"catalogFloorId":9},"geometry":{"type":"Polygon","coordinates":[[[19.061895296,47.474512743],[19.061908037,47.474553083],[19.061840982,47.474562601],[19.061825559,47.474512743],[19.061895296,47.474512743]]]}},{"type":"Feature","id":391,"properties":{"buildingId":2,"floorId":9,"roomNumber":"428","roomName":"4.428 Műszeres labor","scope":"budapest/lagymanyos/eszaki/4/LK-4-428-01-14","roomCode":"LK-4-428-01-14","roomType":"educational","__tile":"16/36238/22923","__layer":"rooms","__zoom":16,"__mvtId":391,"__building":"eszaki","__ringVerts":5,"id":391,"catalogFloorId":9},"geometry":{"type":"Polygon","coordinates":[[[19.061857874,47.474619274],[19.061875309,47.474673662],[19.061808253,47.474682727],[19.061790819,47.474628338],[19.061857874,47.474619274]]]}},{"type":"Feature","id":814,"properties":{"buildingId":2,"floorId":9,"roomNumber":"4.101","roomName":"4.101 Oktató","scope":"budapest/lagymanyos/eszaki/4/LÉ-4-101-01-13","roomCode":"LÉ-4-101-01-13","roomType":"educational","__tile":"16/36238/22923","__layer":"rooms","__zoom":16,"__mvtId":814,"__building":"eszaki","__ringVerts":5,"id":814,"catalogFloorId":9},"geometry":{"type":"Polygon","coordinates":[[[19.062170414,47.474777665],[19.062179802,47.47481755],[19.062131522,47.474826615],[19.062119452,47.474784916],[19.062170414,47.474777665]]]}},{"type":"Feature","id":875,"properties":{"buildingId":2,"floorId":9,"roomNumber":"4-K3","roomName":"4.K3 Közlekedő (átjáró KTCS dolgozó szobák felé)","scope":"budapest/lagymanyos/eszaki/4/LÉ-4-K3-04-63","roomCode":"LÉ-4-K3-04-63","roomType":"corridor","__tile":"16/36238/22923","__layer":"rooms","__zoom":16,"__mvtId":875,"__building":"eszaki","__ringVerts":5,"id":875,"catalogFloorId":9},"geometry":{"type":"Polygon","coordinates":[[[19.062244189,47.474817492],[19.062248213,47.474830183],[19.062103373,47.474851032],[19.06209935,47.474838341],[19.062244189,47.474817492]]]}},{"type":"Feature","id":820,"properties":{"buildingId":2,"floorId":9,"roomNumber":"4.107","roomName":"4.107 Előkészítő laboratórium","scope":"budapest/lagymanyos/eszaki/4/LÉ-4-107-01-14","roomCode":"LÉ-4-107-01-14","roomType":"educational","__tile":"16/36238/22923","__layer":"rooms","__zoom":16,"__mvtId":820,"__building":"eszaki","__ringVerts":6,"id":820,"catalogFloorId":9},"geometry":{"type":"Polygon","coordinates":[[[19.06236381,47.474833734],[19.062366492,47.474839173],[19.062371856,47.474860928],[19.062298096,47.4748709],[19.062290049,47.474843705],[19.06236381,47.474833734]]]}},{"type":"Feature","id":815,"properties":{"buildingId":2,"floorId":9,"roomNumber":"4.102","roomName":"4.102 Oktató","scope":"budapest/lagymanyos/eszaki/4/LÉ-4-102-01-13","roomCode":"LÉ-4-102-01-13","roomType":"educational","__tile":"16/36238/22923","__layer":"rooms","__zoom":16,"__mvtId":815,"__building":"eszaki","__ringVerts":6,"id":815,"catalogFloorId":9},"geometry":{"type":"Polygon","coordinates":[[[19.06215227,47.474831001],[19.062171045,47.47488539],[19.062117401,47.474892642],[19.06211606,47.474887203],[19.062101308,47.474837347],[19.06215227,47.474831001]]]}},{"type":"Feature","id":822,"properties":{"buildingId":2,"floorId":9,"roomNumber":"4.111","roomName":"4.111 Oldatkinetikai laboratórium","scope":"budapest/lagymanyos/eszaki/4/LÉ-4-111-01-14","roomCode":"LÉ-4-111-01-14","roomType":"educational","__tile":"16/36238/22923","__layer":"rooms","__zoom":16,"__mvtId":822,"__building":"eszaki","__ringVerts":10,"id":822,"catalogFloorId":9},"geometry":{"type":"Polygon","coordinates":[[[19.06245474,47.474585221],[19.062457423,47.47459066],[19.062472175,47.474640517],[19.062398414,47.474650488],[19.062387685,47.474614229],[19.062376956,47.474616042],[19.062372933,47.474603351],[19.062383662,47.474601538],[19.062382321,47.474595193],[19.06245474,47.474585221]]]}},{"type":"Feature","id":872,"properties":{"buildingId":2,"floorId":9,"roomNumber":"4.97","roomName":"4.97 Hallgatói Laboratórium","scope":"budapest/lagymanyos/eszaki/4/LÉ-4-97-01-14","roomCode":"LÉ-4-97-01-14","roomType":"educational","__tile":"16/36238/22923","__layer":"rooms","__zoom":16,"__mvtId":872,"__building":"eszaki","__ringVerts":21,"id":872,"catalogFloorId":9},"geometry":{"type":"Polygon","coordinates":[[[19.062257377,47.474655966],[19.062250672,47.474655059],[19.062247989,47.474626052],[19.062242625,47.474626958],[19.062234578,47.47460339],[19.062239943,47.474597951],[19.062233237,47.474598858],[19.062226532,47.474576196],[19.062231896,47.47457257],[19.062304316,47.474562598],[19.062306998,47.474570757],[19.062317727,47.474568944],[19.06232175,47.474582541],[19.062311021,47.474583448],[19.062315045,47.474597045],[19.062325773,47.474595232],[19.062327114,47.474599764],[19.062329797,47.474607922],[19.062319068,47.474609735],[19.062329797,47.474645994],[19.062257377,47.474655966]]]}},{"type":"Feature","id":61,"properties":{"buildingId":2,"floorId":9,"roomNumber":"4.52","roomName":"4.52 Előadó Sas Elemér terem","scope":"budapest/lagymanyos/eszaki/4/LÉ-4-52-01-12","roomCode":"LÉ-4-52-01-12","roomType":"educational","__tile":"17/72476/45847","__layer":"rooms","__zoom":17,"__mvtId":61,"__building":"eszaki","__ringVerts":6,"id":61,"catalogFloorId":9},"geometry":{"type":"Polygon","coordinates":[[[19.061815773,47.474286228],[19.061835219,47.474350137],[19.061841924,47.474370987],[19.061766152,47.474380958],[19.061740671,47.474296653],[19.061815773,47.474286228]]]}},{"type":"Feature","id":836,"properties":{"buildingId":2,"floorId":9,"roomNumber":"4.53","roomName":"4.53 Előkészítő","scope":"budapest/lagymanyos/eszaki/4/LÉ-4-53-01-14","roomCode":"LÉ-4-53-01-14","roomType":"educational","__tile":"17/72476/45847","__layer":"rooms","__zoom":17,"__mvtId":836,"__building":"eszaki","__ringVerts":6,"id":836,"catalogFloorId":9},"geometry":{"type":"Polygon","coordinates":[[[19.061844051,47.47425861],[19.061852098,47.474285352],[19.061776326,47.47429623],[19.061768279,47.474269942],[19.061836005,47.474259517],[19.061844051,47.47425861]]]}},{"type":"Feature","id":838,"properties":{"buildingId":2,"floorId":9,"roomNumber":"4.55","roomName":"4.55 Előkészítő","scope":"budapest/lagymanyos/eszaki/4/LÉ-4-55-01-14","roomCode":"LÉ-4-55-01-14","roomType":"educational","__tile":"17/72476/45847","__layer":"rooms","__zoom":17,"__mvtId":838,"__building":"eszaki","__ringVerts":6,"id":838,"catalogFloorId":9},"geometry":{"type":"Polygon","coordinates":[[[19.061871924,47.474174205],[19.061879971,47.474200947],[19.061804869,47.474210918],[19.061796822,47.47418463],[19.061850466,47.474177378],[19.061871924,47.474174205]]]}},{"type":"Feature","id":842,"properties":{"buildingId":2,"floorId":9,"roomNumber":"4.58","roomName":"4.58 Mikrokeménység labor","scope":"budapest/lagymanyos/eszaki/4/LÉ-4-58-01-14","roomCode":"LÉ-4-58-01-14","roomType":"educational","__tile":"17/72476/45847","__layer":"rooms","__zoom":17,"__mvtId":842,"__building":"eszaki","__ringVerts":6,"id":842,"catalogFloorId":9},"geometry":{"type":"Polygon","coordinates":[[[19.06191598,47.474033197],[19.061932743,47.474088494],[19.061856971,47.474098919],[19.061846913,47.474065378],[19.061840207,47.474043622],[19.06191598,47.474033197]]]}},{"type":"Feature","id":840,"properties":{"buildingId":2,"floorId":9,"roomNumber":"4.57","roomName":"4.57 Metallográfiai labor","scope":"budapest/lagymanyos/eszaki/4/LÉ-4-57-01-14 (1)","roomCode":"LÉ-4-57-01-14 (1)","roomType":"educational","__tile":"17/72476/45847","__layer":"rooms","__zoom":17,"__mvtId":840,"__building":"eszaki","__ringVerts":6,"id":840,"catalogFloorId":9},"geometry":{"type":"Polygon","coordinates":[[[19.061897951,47.474088301],[19.061914715,47.474143598],[19.061839613,47.474154023],[19.061832908,47.474127281],[19.061822179,47.474098726],[19.061897951,47.474088301]]]}},{"type":"Feature","id":846,"properties":{"buildingId":2,"floorId":9,"roomNumber":"4.62","roomName":"4.62 Oktató","scope":"budapest/lagymanyos/eszaki/4/LÉ-4-62-01-13","roomCode":"LÉ-4-62-01-13","roomType":"educational","__tile":"17/72476/45847","__layer":"rooms","__zoom":17,"__mvtId":846,"__building":"eszaki","__ringVerts":5,"id":846,"catalogFloorId":9},"geometry":{"type":"Polygon","coordinates":[[[19.062101034,47.47400733],[19.062117127,47.474063533],[19.062078235,47.474068972],[19.06205946,47.474013222],[19.062101034,47.47400733]]]}},{"type":"Feature","id":880,"properties":{"buildingId":2,"floorId":9,"roomNumber":"4-K8","roomName":"4.K8 Közlekedő (Nyugati lifttől balra)","scope":"budapest/lagymanyos/eszaki/4/LÉ-4-K8-04-63","roomCode":"LÉ-4-K8-04-63","roomType":"corridor","__tile":"17/72476/45847","__layer":"rooms","__zoom":17,"__mvtId":880,"__building":"eszaki","__ringVerts":43,"id":880,"catalogFloorId":9},"geometry":{"type":"Polygon","coordinates":[[[19.061911148,47.473999785],[19.0619145,47.474010663],[19.061904442,47.474012023],[19.061944675,47.474142107],[19.061954733,47.474140747],[19.061958086,47.474151172],[19.061948028,47.474152531],[19.061953392,47.474170208],[19.061963451,47.474168848],[19.061966133,47.474179273],[19.061956075,47.474180633],[19.062001002,47.474328846],[19.061970827,47.474332925],[19.061959427,47.474297572],[19.061949369,47.474298931],[19.061946016,47.474288507],[19.061956075,47.474287147],[19.06195071,47.47426947],[19.061940652,47.47427083],[19.06193797,47.474260858],[19.061948028,47.474259045],[19.061925229,47.474185165],[19.061915171,47.474186525],[19.061911818,47.4741761],[19.061921876,47.474174741],[19.061916512,47.474157064],[19.061906454,47.474158424],[19.061903101,47.474148452],[19.061913159,47.474146186],[19.061907795,47.474128962],[19.061897736,47.474130322],[19.061895054,47.47412035],[19.061904442,47.474118084],[19.061899078,47.474100861],[19.061889019,47.474101314],[19.061885667,47.474091342],[19.061895725,47.474089983],[19.061882314,47.474044657],[19.061872255,47.474046017],[19.061868903,47.474035139],[19.061878961,47.474033779],[19.061869573,47.474003411],[19.061911148,47.473999785]]]}},{"type":"Feature","id":843,"properties":{"buildingId":2,"floorId":9,"roomNumber":"4.59","roomName":"4.59 Magashőm. Mech.labor","scope":"budapest/lagymanyos/eszaki/4/LÉ-4-59-01-14","roomCode":"LÉ-4-59-01-14","roomType":"educational","__tile":"17/72476/45847","__layer":"rooms","__zoom":17,"__mvtId":843,"__building":"eszaki","__ringVerts":9,"id":843,"catalogFloorId":9},"geometry":{"type":"Polygon","coordinates":[[[19.061908131,47.473971315],[19.061919531,47.474007575],[19.061929589,47.474006215],[19.061933612,47.474018906],[19.061923554,47.474020719],[19.061924895,47.474025705],[19.061849793,47.474036129],[19.06183303,47.47398174],[19.061908131,47.473971315]]]}},{"type":"Feature","id":390,"properties":{"buildingId":2,"floorId":9,"roomNumber":"427","roomName":"4.427-427A Tanszékvezető (Szerves)","scope":"budapest/lagymanyos/eszaki/4/LK-4-427-01-13","roomCode":"LK-4-427-01-13","roomType":"educational","__tile":"16/36238/22923","__layer":"rooms","__zoom":16,"__mvtId":390,"__building":"eszaki","__ringVerts":5,"id":390,"catalogFloorId":9},"geometry":{"type":"Polygon","coordinates":[[[19.061841538,47.474674863],[19.061857631,47.474729252],[19.061790576,47.474739223],[19.061773142,47.474683928],[19.061841538,47.474674863]]]}},{"type":"Feature","id":406,"properties":{"buildingId":2,"floorId":9,"roomNumber":"442","roomName":"4.442 Oktató","scope":"budapest/lagymanyos/eszaki/4/LK-4-442-01-13","roomCode":"LK-4-442-01-13","roomType":"educational","__tile":"16/36238/22923","__layer":"rooms","__zoom":16,"__mvtId":406,"__building":"eszaki","__ringVerts":5,"id":406,"catalogFloorId":9},"geometry":{"type":"Polygon","coordinates":[[[19.062111713,47.474771892],[19.062121101,47.474804525],[19.062082209,47.474809964],[19.06207148,47.474777331],[19.062111713,47.474771892]]]}},{"type":"Feature","id":409,"properties":{"buildingId":2,"floorId":9,"roomNumber":"445","roomName":"4.445 Oktató","scope":"budapest/lagymanyos/eszaki/4/LK-4-445-01-13","roomCode":"LK-4-445-01-13","roomType":"educational","__tile":"16/36238/22923","__layer":"rooms","__zoom":16,"__mvtId":409,"__building":"eszaki","__ringVerts":5,"id":409,"catalogFloorId":9},"geometry":{"type":"Polygon","coordinates":[[[19.062001065,47.474757813],[19.062010452,47.47478954],[19.061978266,47.474794073],[19.061968878,47.474762346],[19.062001065,47.474757813]]]}},{"type":"Feature","id":410,"properties":{"buildingId":2,"floorId":9,"roomNumber":"446","roomName":"4.446 Oktató","scope":"budapest/lagymanyos/eszaki/4/LK-4-446-01-13","roomCode":"LK-4-446-01-13","roomType":"educational","__tile":"16/36238/22923","__layer":"rooms","__zoom":16,"__mvtId":410,"__building":"eszaki","__ringVerts":5,"id":410,"catalogFloorId":9},"geometry":{"type":"Polygon","coordinates":[[[19.061965152,47.474752546],[19.061975881,47.474785179],[19.061942354,47.474789711],[19.061932966,47.474757078],[19.061965152,47.474752546]]]}},{"type":"Feature","id":859,"properties":{"buildingId":2,"floorId":9,"roomNumber":"4.79","roomName":"4.79 Oktató","scope":"budapest/lagymanyos/eszaki/4/LÉ-4-79-01-13","roomCode":"LÉ-4-79-01-13","roomType":"educational","__tile":"17/72476/45847","__layer":"rooms","__zoom":17,"__mvtId":859,"__building":"eszaki","__ringVerts":6,"id":859,"catalogFloorId":9},"geometry":{"type":"Polygon","coordinates":[[[19.062046472,47.474339531],[19.062058542,47.474378057],[19.061981429,47.474388935],[19.061980088,47.474385762],[19.061969359,47.474350409],[19.062046472,47.474339531]]]}},{"type":"Feature","id":834,"properties":{"buildingId":2,"floorId":9,"roomNumber":"4.125","roomName":"4.125 Röntgen laboratórium","scope":"budapest/lagymanyos/eszaki/4/LÉ-4-125-01-14","roomCode":"LÉ-4-125-01-14","roomType":"educational","__tile":"17/72476/45847","__layer":"rooms","__zoom":17,"__mvtId":834,"__building":"eszaki","__ringVerts":9,"id":834,"catalogFloorId":9},"geometry":{"type":"Polygon","coordinates":[[[19.062363762,47.474327628],[19.062374491,47.474363435],[19.062384549,47.474362075],[19.06238589,47.474375219],[19.062378514,47.474376126],[19.062379855,47.474382018],[19.062304753,47.474392443],[19.06228799,47.474338506],[19.062363762,47.474327628]]]}},{"type":"Feature","id":84,"properties":{"buildingId":2,"floorId":9,"roomNumber":"4.95","roomName":"4.95-4.96 Előadó","scope":"budapest/lagymanyos/eszaki/4/LÉ-4-95-01-12","roomCode":"LÉ-4-95-01-12","roomType":"educational","__tile":"17/72476/45847","__layer":"rooms","__zoom":17,"__mvtId":84,"__building":"eszaki","__ringVerts":12,"id":84,"catalogFloorId":9},"geometry":{"type":"Polygon","coordinates":[[[19.062097334,47.474512217],[19.062133543,47.474507231],[19.062134884,47.47451131],[19.062138237,47.474510857],[19.062136896,47.474506324],[19.062177129,47.474500885],[19.062173106,47.474501792],[19.062177129,47.474504058],[19.062188529,47.474542131],[19.062107392,47.474553916],[19.062098675,47.474526267],[19.062097334,47.474512217]]]}},{"type":"Feature","id":857,"properties":{"buildingId":2,"floorId":9,"roomNumber":"4.75","roomName":"4.75 Optikai laboratórium","scope":"budapest/lagymanyos/eszaki/4/LÉ-4-75-01-14","roomCode":"LÉ-4-75-01-14","roomType":"educational","__tile":"17/72476/45847","__layer":"rooms","__zoom":17,"__mvtId":857,"__building":"eszaki","__ringVerts":10,"id":857,"catalogFloorId":9},"geometry":{"type":"Polygon","coordinates":[[[19.062041603,47.474095499],[19.062058367,47.474150342],[19.061982595,47.474160767],[19.061981254,47.474155328],[19.061971195,47.474156688],[19.061967172,47.474143543],[19.06197723,47.474142184],[19.061975889,47.474138558],[19.061965831,47.474105924],[19.062041603,47.474095499]]]}},{"type":"Feature","id":871,"properties":{"buildingId":2,"floorId":9,"roomNumber":"4.94","roomName":"4.94 Oktató","scope":"budapest/lagymanyos/eszaki/4/LÉ-4-94-01-13","roomCode":"LÉ-4-94-01-13","roomType":"educational","__tile":"17/72476/45847","__layer":"rooms","__zoom":17,"__mvtId":871,"__building":"eszaki","__ringVerts":11,"id":871,"catalogFloorId":9},"geometry":{"type":"Polygon","coordinates":[[[19.062086586,47.47448952],[19.062090609,47.474491787],[19.062102009,47.474530313],[19.062020872,47.474541645],[19.062012155,47.474514449],[19.062010814,47.474500399],[19.062047023,47.47449496],[19.062047694,47.474499492],[19.062051717,47.474498586],[19.062050376,47.474494506],[19.062086586,47.47448952]]]}},{"type":"Feature","id":863,"properties":{"buildingId":2,"floorId":9,"roomNumber":"4.84","roomName":"4.84 Teakonyha","scope":"budapest/lagymanyos/eszaki/4/LÉ-4-84-05-77","roomCode":"LÉ-4-84-05-77","roomType":"social","__tile":"17/72476/45847","__layer":"rooms","__zoom":17,"__mvtId":863,"__building":"eszaki","__ringVerts":6,"id":863,"catalogFloorId":9},"geometry":{"type":"Polygon","coordinates":[[[19.062174326,47.474427118],[19.062182372,47.474453407],[19.062153539,47.474457486],[19.062145492,47.474431197],[19.062162256,47.474428931],[19.062174326,47.474427118]]]}},{"type":"Feature","id":854,"properties":{"buildingId":2,"floorId":9,"roomNumber":"4.72","roomName":"4.72 Oktató","scope":"budapest/lagymanyos/eszaki/4/LÉ-4-72-01-13","roomCode":"LÉ-4-72-01-13","roomType":"educational","__tile":"17/72476/45847","__layer":"rooms","__zoom":17,"__mvtId":854,"__building":"eszaki","__ringVerts":6,"id":854,"catalogFloorId":9},"geometry":{"type":"Polygon","coordinates":[[[19.062295112,47.474100325],[19.062306512,47.474137492],[19.062224704,47.474148823],[19.06222001,47.474132959],[19.062213305,47.474111656],[19.062295112,47.474100325]]]}},{"type":"Feature","id":862,"properties":{"buildingId":2,"floorId":9,"roomNumber":"4.82","roomName":"4.82 Oktató","scope":"budapest/lagymanyos/eszaki/4/LÉ-4-82-01-13","roomCode":"LÉ-4-82-01-13","roomType":"educational","__tile":"17/72476/45847","__layer":"rooms","__zoom":17,"__mvtId":862,"__building":"eszaki","__ringVerts":6,"id":862,"catalogFloorId":9},"geometry":{"type":"Polygon","coordinates":[[[19.062279949,47.474378421],[19.062285313,47.474396551],[19.062291348,47.474417401],[19.062214235,47.474428279],[19.062202835,47.474389299],[19.062279949,47.474378421]]]}},{"type":"Feature","id":873,"properties":{"buildingId":2,"floorId":9,"roomNumber":"4-K11","roomName":"4.K11 Közlekedő(közép)","scope":"budapest/lagymanyos/eszaki/4/LÉ-4-K11-04-63","roomCode":"LÉ-4-K11-04-63","roomType":"corridor","__tile":"17/72476/45847","__layer":"rooms","__zoom":17,"__mvtId":873,"__building":"eszaki","__ringVerts":6,"id":873,"catalogFloorId":9},"geometry":{"type":"Polygon","coordinates":[[[19.062360839,47.474371449],[19.062365532,47.474386859],[19.061893464,47.474453034],[19.06188877,47.474437624],[19.061899499,47.474435811],[19.062360839,47.474371449]]]}},{"type":"Feature","id":371,"properties":{"buildingId":2,"floorId":9,"roomNumber":"404","roomName":"4.404 Labor","scope":"budapest/lagymanyos/eszaki/4/LK-4-404-01-14","roomCode":"LK-4-404-01-14","roomType":"educational","__tile":"16/36238/22923","__layer":"rooms","__zoom":16,"__mvtId":371,"__building":"eszaki","__ringVerts":5,"id":371,"catalogFloorId":9},"geometry":{"type":"Polygon","coordinates":[[[19.061585506,47.474726492],[19.061602941,47.474780881],[19.061535885,47.474789946],[19.061518451,47.474736464],[19.061585506,47.474726492]]]}},{"type":"Feature","id":370,"properties":{"buildingId":2,"floorId":9,"roomNumber":"403","roomName":"4.403 Labor","scope":"budapest/lagymanyos/eszaki/4/LK-4-403-01-14","roomCode":"LK-4-403-01-14","roomType":"educational","__tile":"16/36238/22923","__layer":"rooms","__zoom":16,"__mvtId":370,"__building":"eszaki","__ringVerts":5,"id":370,"catalogFloorId":9},"geometry":{"type":"Polygon","coordinates":[[[19.061603143,47.474671224],[19.061619236,47.474725613],[19.061552181,47.474734678],[19.061536088,47.474681196],[19.061603143,47.474671224]]]}},{"type":"Feature","id":881,"properties":{"buildingId":2,"floorId":9,"roomNumber":"4-K9","roomName":"4.K9 Közlekedő (Ny-i lift előtt)","scope":"budapest/lagymanyos/eszaki/4/LÉ-4-K9-04-63","roomCode":"LÉ-4-K9-04-63","roomType":"corridor","__tile":"17/72476/45847","__layer":"rooms","__zoom":17,"__mvtId":881,"__building":"eszaki","__ringVerts":20,"id":881,"catalogFloorId":9},"geometry":{"type":"Polygon","coordinates":[[[19.061842747,47.474317169],[19.061855488,47.474358868],[19.061874934,47.474356149],[19.061901085,47.47444272],[19.061881639,47.47444544],[19.061897733,47.474491671],[19.06189505,47.474487139],[19.061896392,47.474491671],[19.061864876,47.474496204],[19.061852135,47.474453598],[19.061842077,47.474455411],[19.061838724,47.474444533],[19.061848782,47.474443173],[19.061825984,47.474369293],[19.061815925,47.474370653],[19.061813243,47.474360228],[19.061823301,47.474358868],[19.061815255,47.474333939],[19.061811902,47.474321701],[19.061842747,47.474317169]]]}},{"type":"Feature","id":392,"properties":{"buildingId":2,"floorId":9,"roomNumber":"429","roomName":"4.429 Műszeres labor","scope":"budapest/lagymanyos/eszaki/4/LK-4-429-01-14","roomCode":"LK-4-429-01-14","roomType":"educational","__tile":"16/36238/22923","__layer":"rooms","__zoom":16,"__mvtId":392,"__building":"eszaki","__ringVerts":5,"id":392,"catalogFloorId":9},"geometry":{"type":"Polygon","coordinates":[[[19.061875218,47.474562059],[19.061892653,47.474617355],[19.061825597,47.474627326],[19.061808163,47.474572031],[19.061875218,47.474562059]]]}},{"type":"Feature","id":853,"properties":{"buildingId":2,"floorId":9,"roomNumber":"4.71","roomName":"4.71 Oktató","scope":"budapest/lagymanyos/eszaki/4/LÉ-4-71-01-13","roomCode":"LÉ-4-71-01-13","roomType":"educational","__tile":"17/72476/45847","__layer":"rooms","__zoom":17,"__mvtId":853,"__building":"eszaki","__ringVerts":6,"id":853,"catalogFloorId":9},"geometry":{"type":"Polygon","coordinates":[[[19.062377853,47.474112176],[19.062389252,47.474149342],[19.062308115,47.474160674],[19.062302751,47.47414345],[19.062296716,47.474123507],[19.062377853,47.474112176]]]}},{"type":"Feature","id":848,"properties":{"buildingId":2,"floorId":9,"roomNumber":"4.64","roomName":"4.64 Oktató","scope":"budapest/lagymanyos/eszaki/4/LÉ-4-64-01-13","roomCode":"LÉ-4-64-01-13","roomType":"educational","__tile":"17/72476/45847","__layer":"rooms","__zoom":17,"__mvtId":848,"__building":"eszaki","__ringVerts":5,"id":848,"catalogFloorId":9},"geometry":{"type":"Polygon","coordinates":[[[19.062184227,47.474019041],[19.06220032,47.474075244],[19.062161428,47.474080683],[19.062142653,47.47402448],[19.062184227,47.474019041]]]}},{"type":"Feature","id":855,"properties":{"buildingId":2,"floorId":9,"roomNumber":"4.73","roomName":"4.73 Oktató","scope":"budapest/lagymanyos/eszaki/4/LÉ-4-73-01-13","roomCode":"LÉ-4-73-01-13","roomType":"educational","__tile":"17/72476/45847","__layer":"rooms","__zoom":17,"__mvtId":855,"__building":"eszaki","__ringVerts":6,"id":855,"catalogFloorId":9},"geometry":{"type":"Polygon","coordinates":[[[19.062211671,47.474088742],[19.06222307,47.474125908],[19.062141933,47.474137239],[19.062136569,47.474120922],[19.062130534,47.474100073],[19.062211671,47.474088742]]]}},{"type":"Feature","id":849,"properties":{"buildingId":2,"floorId":9,"roomNumber":"4.65","roomName":"4.65 Oktató","scope":"budapest/lagymanyos/eszaki/4/LÉ-4-65-01-13","roomCode":"LÉ-4-65-01-13","roomType":"educational","__tile":"17/72476/45847","__layer":"rooms","__zoom":17,"__mvtId":849,"__building":"eszaki","__ringVerts":6,"id":849,"catalogFloorId":9},"geometry":{"type":"Polygon","coordinates":[[[19.062221821,47.474028891],[19.062225174,47.474030704],[19.062241938,47.474084641],[19.062201704,47.474089173],[19.062184941,47.474033877],[19.062221821,47.474028891]]]}},{"type":"Feature","id":395,"properties":{"buildingId":2,"floorId":9,"roomNumber":"432","roomName":"4.432 Preparatív labor","scope":"budapest/lagymanyos/eszaki/4/LK-4-432-01-14","roomCode":"LK-4-432-01-14","roomType":"educational","__tile":"16/36238/22923","__layer":"rooms","__zoom":16,"__mvtId":395,"__building":"eszaki","__ringVerts":5,"id":395,"catalogFloorId":9},"geometry":{"type":"Polygon","coordinates":[[[19.061755529,47.474545318],[19.061771622,47.474599707],[19.061704567,47.474609678],[19.061688474,47.474554383],[19.061755529,47.474545318]]]}},{"type":"Feature","id":885,"properties":{"buildingId":2,"floorId":9,"roomNumber":"4-L7","roomName":"4.L7 Lépcsőház Háromkarú","scope":"budapest/lagymanyos/eszaki/4/LÉ-4-L7-04-64","roomCode":"LÉ-4-L7-04-64","roomType":"corridor","__tile":"17/72476/45847","__layer":"rooms","__zoom":17,"__mvtId":885,"__building":"eszaki","__ringVerts":5,"id":885,"catalogFloorId":9},"geometry":{"type":"Polygon","coordinates":[[[19.062272864,47.474442158],[19.062284934,47.474481137],[19.062197762,47.474492922],[19.062186362,47.474454395],[19.062272864,47.474442158]]]}},{"type":"Feature","id":869,"properties":{"buildingId":2,"floorId":9,"roomNumber":"4.93","roomName":"4.93 Oktató","scope":"budapest/lagymanyos/eszaki/4/LÉ-4-93-01-13","roomCode":"LÉ-4-93-01-13","roomType":"educational","__tile":"17/72476/45847","__layer":"rooms","__zoom":17,"__mvtId":869,"__building":"eszaki","__ringVerts":11,"id":869,"catalogFloorId":9},"geometry":{"type":"Polygon","coordinates":[[[19.062000995,47.474471012],[19.062005018,47.474473278],[19.062016418,47.474511804],[19.062003677,47.474513617],[19.062001666,47.474508632],[19.061987584,47.474510445],[19.061988925,47.47451543],[19.061975514,47.474517244],[19.061967467,47.474490048],[19.061963444,47.474475997],[19.062000995,47.474471012]]]}}],"meta":{"building":"eszaki","floorId":9,"polygonCount":116}}