{"type":"FeatureCollection","features":[{"type":"Feature","id":1037,"properties":{"buildingId":2,"floorId":11,"roomNumber":"6.65","roomName":"6.65 Dolgozó","scope":"budapest/lagymanyos/eszaki/6/LÉ-6-65-01-13","roomCode":"LÉ-6-65-01-13","roomType":"educational","__tile":"17/72476/45847","__layer":"rooms","__zoom":17,"__mvtId":1037,"__building":"eszaki","__ringVerts":10,"id":1037,"catalogFloorId":11},"geometry":{"type":"Polygon","coordinates":[[[19.062058509,47.474008419],[19.062059179,47.474010686],[19.062063873,47.474010232],[19.062078625,47.474064622],[19.062039733,47.474069608],[19.062027663,47.474034255],[19.062022969,47.474018844],[19.06203638,47.474017031],[19.062035039,47.474011592],[19.062058509,47.474008419]]]}},{"type":"Feature","id":1051,"properties":{"buildingId":2,"floorId":11,"roomNumber":"6.78/B","roomName":"6.78/B Titkárság","scope":"budapest/lagymanyos/eszaki/6/LÉ-6-78-B-02-33","roomCode":"LÉ-6-78/B-02-33","roomType":"administrative","__tile":"17/72476/45847","__layer":"rooms","__zoom":17,"__mvtId":1051,"__building":"eszaki","__ringVerts":5,"id":1051,"catalogFloorId":11},"geometry":{"type":"Polygon","coordinates":[[[19.062122567,47.474084341],[19.062133966,47.474121507],[19.062095074,47.474126946],[19.062083675,47.47409114],[19.062122567,47.474084341]]]}},{"type":"Feature","id":1033,"properties":{"buildingId":2,"floorId":11,"roomNumber":"6.61","roomName":"6.61 F6 Tanszékvezető","scope":"budapest/lagymanyos/eszaki/6/LÉ-6-61-01-13","roomCode":"LÉ-6-61-01-13","roomType":"educational","__tile":"17/72476/45847","__layer":"rooms","__zoom":17,"__mvtId":1033,"__building":"eszaki","__ringVerts":6,"id":1033,"catalogFloorId":11},"geometry":{"type":"Polygon","coordinates":[[[19.061891255,47.474089921],[19.061892596,47.474093547],[19.061899302,47.474116663],[19.0618242,47.474127088],[19.061818165,47.474099893],[19.061891255,47.474089921]]]}},{"type":"Feature","id":1043,"properties":{"buildingId":2,"floorId":11,"roomNumber":"6.71","roomName":"6.71 D12 Oktató","scope":"budapest/lagymanyos/eszaki/6/LÉ-6-71-01-13","roomCode":"LÉ-6-71-01-13","roomType":"educational","__tile":"17/72476/45847","__layer":"rooms","__zoom":17,"__mvtId":1043,"__building":"eszaki","__ringVerts":7,"id":1043,"catalogFloorId":11},"geometry":{"type":"Polygon","coordinates":[[[19.062355294,47.474043946],[19.062370717,47.474100149],[19.062332495,47.474105588],[19.062321766,47.474071595],[19.062315731,47.474051651],[19.062318413,47.474048932],[19.062355294,47.474043946]]]}},{"type":"Feature","id":1039,"properties":{"buildingId":2,"floorId":11,"roomNumber":"6.67","roomName":"6.67 Dolgozó","scope":"budapest/lagymanyos/eszaki/6/LÉ-6-67-01-13","roomCode":"LÉ-6-67-01-13","roomType":"educational","__tile":"17/72476/45847","__layer":"rooms","__zoom":17,"__mvtId":1039,"__building":"eszaki","__ringVerts":7,"id":1039,"catalogFloorId":11},"geometry":{"type":"Polygon","coordinates":[[[19.062139473,47.474015814],[19.062142825,47.47401808],[19.062159589,47.474072017],[19.062120697,47.474077456],[19.062108627,47.474042556],[19.062102592,47.474021253],[19.062139473,47.474015814]]]}},{"type":"Feature","id":1041,"properties":{"buildingId":2,"floorId":11,"roomNumber":"6.69","roomName":"6.69 D12 Oktató","scope":"budapest/lagymanyos/eszaki/6/LÉ-6-69-01-13","roomCode":"LÉ-6-69-01-13","roomType":"educational","__tile":"17/72476/45847","__layer":"rooms","__zoom":17,"__mvtId":1041,"__building":"eszaki","__ringVerts":7,"id":1041,"catalogFloorId":11},"geometry":{"type":"Polygon","coordinates":[[[19.062271813,47.474032361],[19.062287907,47.474089018],[19.062249685,47.474094457],[19.062238286,47.47405865],[19.062232921,47.47404052],[19.062234933,47.474037347],[19.062271813,47.474032361]]]}},{"type":"Feature","id":474,"properties":{"buildingId":2,"floorId":11,"roomNumber":"617","roomName":"6.617 terem","scope":"budapest/lagymanyos/eszaki/6/LK-6-617-01-14","roomCode":"LK-6-617-01-14","roomType":"educational","__tile":"16/36238/22923","__layer":"rooms","__zoom":16,"__mvtId":474,"__building":"eszaki","__ringVerts":5,"id":474,"catalogFloorId":11},"geometry":{"type":"Polygon","coordinates":[[[19.061661988,47.474885739],[19.061678081,47.474940128],[19.061612367,47.474949193],[19.061594932,47.474894804],[19.061661988,47.474885739]]]}},{"type":"Feature","id":470,"properties":{"buildingId":2,"floorId":11,"roomNumber":"611","roomName":"611-es labor","scope":"budapest/lagymanyos/eszaki/6/LK-6-611-01-14","roomCode":"LK-6-611-01-14","roomType":"educational","__tile":"16/36238/22923","__layer":"rooms","__zoom":16,"__mvtId":470,"__building":"eszaki","__ringVerts":6,"id":470,"catalogFloorId":11},"geometry":{"type":"Polygon","coordinates":[[[19.061566458,47.475122106],[19.06161742,47.4752889],[19.061550365,47.475297965],[19.061524884,47.475215474],[19.061499403,47.475132077],[19.061566458,47.475122106]]]}},{"type":"Feature","id":471,"properties":{"buildingId":2,"floorId":11,"roomNumber":"612","roomName":"6.612 oktatói","scope":"budapest/lagymanyos/eszaki/6/LK-6-612-01-13","roomCode":"LK-6-612-01-13","roomType":"educational","__tile":"16/36238/22923","__layer":"rooms","__zoom":16,"__mvtId":471,"__building":"eszaki","__ringVerts":5,"id":471,"catalogFloorId":11},"geometry":{"type":"Polygon","coordinates":[[[19.061607664,47.475084398],[19.061615711,47.47510978],[19.061548656,47.475119751],[19.061540609,47.475093463],[19.061607664,47.475084398]]]}},{"type":"Feature","id":476,"properties":{"buildingId":2,"floorId":11,"roomNumber":"619","roomName":"6.619 Előkészítő","scope":"budapest/lagymanyos/eszaki/6/LK-6-619-01-14","roomCode":"LK-6-619-01-14","roomType":"educational","__tile":"16/36238/22923","__layer":"rooms","__zoom":16,"__mvtId":476,"__building":"eszaki","__ringVerts":5,"id":476,"catalogFloorId":11},"geometry":{"type":"Polygon","coordinates":[[[19.061686632,47.474825993],[19.061694679,47.474852281],[19.061628965,47.474861345],[19.061620918,47.474835964],[19.061686632,47.474825993]]]}},{"type":"Feature","id":473,"properties":{"buildingId":2,"floorId":11,"roomNumber":"614","roomName":"6.614 Labor","scope":"budapest/lagymanyos/eszaki/6/LK-6-614-01-14","roomCode":"LK-6-614-01-14","roomType":"educational","__tile":"16/36238/22923","__layer":"rooms","__zoom":16,"__mvtId":473,"__building":"eszaki","__ringVerts":6,"id":473,"catalogFloorId":11},"geometry":{"type":"Polygon","coordinates":[[[19.061632237,47.475001106],[19.06164833,47.475054589],[19.061581275,47.47506456],[19.061573228,47.475038272],[19.061565182,47.475010171],[19.061632237,47.475001106]]]}},{"type":"Feature","id":472,"properties":{"buildingId":2,"floorId":11,"roomNumber":"613","roomName":"6.613 mérlegszoba","scope":"budapest/lagymanyos/eszaki/6/LK-6-613-01-14","roomCode":"LK-6-613-01-14","roomType":"educational","__tile":"16/36238/22923","__layer":"rooms","__zoom":16,"__mvtId":472,"__building":"eszaki","__ringVerts":5,"id":472,"catalogFloorId":11},"geometry":{"type":"Polygon","coordinates":[[[19.061616206,47.475056375],[19.061624253,47.475081757],[19.061557198,47.475091728],[19.061549151,47.47506544],[19.061616206,47.475056375]]]}},{"type":"Feature","id":491,"properties":{"buildingId":2,"floorId":11,"roomNumber":"638","roomName":"6.638 oktató","scope":"budapest/lagymanyos/eszaki/6/LK-6-638-01-13","roomCode":"LK-6-638-01-13","roomType":"educational","__tile":"16/36238/22923","__layer":"rooms","__zoom":16,"__mvtId":491,"__building":"eszaki","__ringVerts":5,"id":491,"catalogFloorId":11},"geometry":{"type":"Polygon","coordinates":[[[19.061942213,47.474814149],[19.061958306,47.474866725],[19.061924778,47.474871257],[19.061908685,47.474818681],[19.061942213,47.474814149]]]}},{"type":"Feature","id":477,"properties":{"buildingId":2,"floorId":11,"roomNumber":"622","roomName":"6,622","scope":"budapest/lagymanyos/eszaki/6/LK-6-622-01-17","roomCode":"LK-6-622-01-17","roomType":"educational","__tile":"16/36238/22923","__layer":"rooms","__zoom":16,"__mvtId":477,"__building":"eszaki","__ringVerts":5,"id":477,"catalogFloorId":11},"geometry":{"type":"Polygon","coordinates":[[[19.061799119,47.474791242],[19.061815213,47.474844724],[19.061756204,47.474852882],[19.06173877,47.4747994],[19.061799119,47.474791242]]]}},{"type":"Feature","id":489,"properties":{"buildingId":2,"floorId":11,"roomNumber":"636","roomName":"6.636 oktató","scope":"budapest/lagymanyos/eszaki/6/LK-6-636-01-13","roomCode":"LK-6-636-01-13","roomType":"educational","__tile":"16/36238/22923","__layer":"rooms","__zoom":16,"__mvtId":489,"__building":"eszaki","__ringVerts":5,"id":489,"catalogFloorId":11},"geometry":{"type":"Polygon","coordinates":[[[19.061872133,47.474804496],[19.061888226,47.474857072],[19.061854698,47.474861604],[19.061838605,47.474809028],[19.061872133,47.474804496]]]}},{"type":"Feature","id":492,"properties":{"buildingId":2,"floorId":11,"roomNumber":"639","roomName":"6.639 oktató","scope":"budapest/lagymanyos/eszaki/6/LK-6-639-01-13","roomCode":"LK-6-639-01-13","roomType":"educational","__tile":"16/36238/22923","__layer":"rooms","__zoom":16,"__mvtId":492,"__building":"eszaki","__ringVerts":5,"id":492,"catalogFloorId":11},"geometry":{"type":"Polygon","coordinates":[[[19.061977431,47.474819189],[19.061993524,47.474870858],[19.061959996,47.474876297],[19.061943903,47.474823721],[19.061977431,47.474819189]]]}},{"type":"Feature","id":490,"properties":{"buildingId":2,"floorId":11,"roomNumber":"637","roomName":"6.637 oktató","scope":"budapest/lagymanyos/eszaki/6/LK-6-637-01-13","roomCode":"LK-6-637-01-13","roomType":"educational","__tile":"16/36238/22923","__layer":"rooms","__zoom":16,"__mvtId":490,"__building":"eszaki","__ringVerts":5,"id":490,"catalogFloorId":11},"geometry":{"type":"Polygon","coordinates":[[[19.061906849,47.474809122],[19.061924283,47.474861698],[19.061889414,47.474867137],[19.061873321,47.474813655],[19.061906849,47.474809122]]]}},{"type":"Feature","id":493,"properties":{"buildingId":2,"floorId":11,"roomNumber":"640","roomName":"6.640 oktató","scope":"budapest/lagymanyos/eszaki/6/LK-6-640-01-13","roomCode":"LK-6-640-01-13","roomType":"educational","__tile":"16/36238/22923","__layer":"rooms","__zoom":16,"__mvtId":493,"__building":"eszaki","__ringVerts":5,"id":493,"catalogFloorId":11},"geometry":{"type":"Polygon","coordinates":[[[19.062012309,47.47482418],[19.062028402,47.47487585],[19.061994874,47.474880382],[19.061978781,47.474828713],[19.062012309,47.47482418]]]}},{"type":"Feature","id":494,"properties":{"buildingId":2,"floorId":11,"roomNumber":"641","roomName":"6.641 oktató","scope":"budapest/lagymanyos/eszaki/6/LK-6-641-01-13","roomCode":"LK-6-641-01-13","roomType":"educational","__tile":"16/36238/22923","__layer":"rooms","__zoom":16,"__mvtId":494,"__building":"eszaki","__ringVerts":5,"id":494,"catalogFloorId":11},"geometry":{"type":"Polygon","coordinates":[[[19.062047394,47.474828453],[19.062063487,47.474881029],[19.062029959,47.474885562],[19.062013866,47.474833892],[19.062047394,47.474828453]]]}},{"type":"Feature","id":488,"properties":{"buildingId":2,"floorId":11,"roomNumber":"635","roomName":"6.635 oktató","scope":"budapest/lagymanyos/eszaki/6/LK-6-635-01-13","roomCode":"LK-6-635-01-13","roomType":"educational","__tile":"16/36238/22923","__layer":"rooms","__zoom":16,"__mvtId":488,"__building":"eszaki","__ringVerts":5,"id":488,"catalogFloorId":11},"geometry":{"type":"Polygon","coordinates":[[[19.061837082,47.474799657],[19.061853175,47.474852233],[19.061819647,47.474856765],[19.061803554,47.474804189],[19.061837082,47.474799657]]]}},{"type":"Feature","id":1053,"properties":{"buildingId":2,"floorId":11,"roomNumber":"6.81/B","roomName":"6.81/B ","scope":"budapest/lagymanyos/eszaki/6/LÉ-6-81-B-01-13","roomCode":"LÉ-6-81/B-01-13","roomType":"educational","__tile":"17/72476/45847","__layer":"rooms","__zoom":17,"__mvtId":1053,"__building":"eszaki","__ringVerts":9,"id":1053,"catalogFloorId":11},"geometry":{"type":"Polygon","coordinates":[[[19.062002811,47.474242755],[19.062010857,47.474269043],[19.061935756,47.474279922],[19.061933073,47.474272216],[19.061923015,47.474273576],[19.061918992,47.474260885],[19.06192905,47.474259525],[19.061927709,47.474253633],[19.062002811,47.474242755]]]}},{"type":"Feature","id":1056,"properties":{"buildingId":2,"floorId":11,"roomNumber":"6.84/B","roomName":"6.84/B Női wc","scope":"budapest/lagymanyos/eszaki/6/LÉ-6-84-B-05-71","roomCode":"LÉ-6-84/B-05-71","roomType":"social","__tile":"17/72476/45847","__layer":"rooms","__zoom":17,"__mvtId":1056,"__building":"eszaki","__ringVerts":17,"id":1056,"catalogFloorId":11},"geometry":{"type":"Polygon","coordinates":[[[19.061970679,47.474336265],[19.061977385,47.474359381],[19.061930446,47.474367086],[19.061921729,47.474343064],[19.061933128,47.474341704],[19.061934469,47.474352129],[19.061939163,47.474351222],[19.061933799,47.474341704],[19.061945869,47.474339891],[19.06194721,47.474350316],[19.061951233,47.474349409],[19.061946539,47.474339891],[19.061957939,47.474338078],[19.06195928,47.474348503],[19.061963974,47.474348049],[19.061958609,47.474338078],[19.061970679,47.474336265]]]}},{"type":"Feature","id":1068,"properties":{"buildingId":2,"floorId":11,"roomNumber":"6.95/B","roomName":"6.95/B WC","scope":"budapest/lagymanyos/eszaki/6/LÉ-6-95-B-05-71","roomCode":"LÉ-6-95/B-05-71","roomType":"social","__tile":"17/72476/45847","__layer":"rooms","__zoom":17,"__mvtId":1068,"__building":"eszaki","__ringVerts":9,"id":1068,"catalogFloorId":11},"geometry":{"type":"Polygon","coordinates":[[[19.062046761,47.474435058],[19.062054808,47.474460894],[19.062036703,47.474463613],[19.062035362,47.474457721],[19.062042738,47.474454095],[19.062032009,47.474455455],[19.062027315,47.474440497],[19.062029327,47.474436871],[19.062046761,47.474435058]]]}},{"type":"Feature","id":1036,"properties":{"buildingId":2,"floorId":11,"roomNumber":"6.64","roomName":"6.64 Dolgozó","scope":"budapest/lagymanyos/eszaki/6/LÉ-6-64-02-33","roomCode":"LÉ-6-64-02-33","roomType":"administrative","__tile":"17/72476/45847","__layer":"rooms","__zoom":17,"__mvtId":1036,"__building":"eszaki","__ringVerts":8,"id":1036,"catalogFloorId":11},"geometry":{"type":"Polygon","coordinates":[[[19.062024419,47.473999059],[19.062040513,47.474055716],[19.061997597,47.474061608],[19.061986869,47.474025801],[19.061980834,47.474007671],[19.06198821,47.474006311],[19.061987539,47.474004045],[19.062024419,47.473999059]]]}},{"type":"Feature","id":1028,"properties":{"buildingId":2,"floorId":11,"roomNumber":"6.56","roomName":"6.56 F6 vezető","scope":"budapest/lagymanyos/eszaki/6/LÉ-6-56-02-33","roomCode":"LÉ-6-56-02-33","roomType":"administrative","__tile":"17/72476/45847","__layer":"rooms","__zoom":17,"__mvtId":1028,"__building":"eszaki","__ringVerts":5,"id":1028,"catalogFloorId":11},"geometry":{"type":"Polygon","coordinates":[[[19.061853073,47.474228425],[19.06186179,47.474255621],[19.061788029,47.474266045],[19.061777971,47.474239303],[19.061853073,47.474228425]]]}},{"type":"Feature","id":1029,"properties":{"buildingId":2,"floorId":11,"roomNumber":"6.57","roomName":"6.57 F6 Oktató","scope":"budapest/lagymanyos/eszaki/6/LÉ-6-57-01-13","roomCode":"LÉ-6-57-01-13","roomType":"educational","__tile":"17/72476/45847","__layer":"rooms","__zoom":17,"__mvtId":1029,"__building":"eszaki","__ringVerts":6,"id":1029,"catalogFloorId":11},"geometry":{"type":"Polygon","coordinates":[[[19.061856576,47.474199446],[19.061862611,47.474218483],[19.061864623,47.474226641],[19.061789521,47.474237066],[19.061781474,47.474210777],[19.061856576,47.474199446]]]}},{"type":"Feature","id":1030,"properties":{"buildingId":2,"floorId":11,"roomNumber":"6.58","roomName":"6.58 F6 Oktató","scope":"budapest/lagymanyos/eszaki/6/LÉ-6-58-01-13","roomCode":"LÉ-6-58-01-13","roomType":"educational","__tile":"17/72476/45847","__layer":"rooms","__zoom":17,"__mvtId":1030,"__building":"eszaki","__ringVerts":6,"id":1030,"catalogFloorId":11},"geometry":{"type":"Polygon","coordinates":[[[19.061878217,47.474171878],[19.061886263,47.474199073],[19.061813173,47.474209498],[19.061804456,47.474188195],[19.061802444,47.474182756],[19.061878217,47.474171878]]]}},{"type":"Feature","id":1052,"properties":{"buildingId":2,"floorId":11,"roomNumber":"6.81/A","roomName":"6.81/A Dolgozó","scope":"budapest/lagymanyos/eszaki/6/LÉ-6-81-A-01-13","roomCode":"LÉ-6-81/A-01-13","roomType":"educational","__tile":"17/72476/45847","__layer":"rooms","__zoom":17,"__mvtId":1052,"__building":"eszaki","__ringVerts":5,"id":1052,"catalogFloorId":11},"geometry":{"type":"Polygon","coordinates":[[[19.061990519,47.474218572],[19.062000577,47.474244407],[19.061925476,47.474254832],[19.061917429,47.474228543],[19.061990519,47.474218572]]]}},{"type":"Feature","id":76,"properties":{"buildingId":2,"floorId":11,"roomNumber":"6.53","roomName":"6.53 F5 Szeminárium","scope":"budapest/lagymanyos/eszaki/6/LÉ-6-53-01-12","roomCode":"LÉ-6-53-01-12","roomType":"educational","__tile":"17/72476/45847","__layer":"rooms","__zoom":17,"__mvtId":76,"__building":"eszaki","__ringVerts":6,"id":76,"catalogFloorId":11},"geometry":{"type":"Polygon","coordinates":[[[19.061759648,47.474419893],[19.061777082,47.474477003],[19.061756295,47.474480629],[19.061728802,47.474483802],[19.061712039,47.474426692],[19.061759648,47.474419893]]]}},{"type":"Feature","id":464,"properties":{"buildingId":2,"floorId":11,"roomNumber":"603","roomName":"603-as labor","scope":"budapest/lagymanyos/eszaki/6/LK-6-603-01-14","roomCode":"LK-6-603-01-14","roomType":"educational","__tile":"16/36238/22923","__layer":"rooms","__zoom":16,"__mvtId":464,"__building":"eszaki","__ringVerts":5,"id":464,"catalogFloorId":11},"geometry":{"type":"Polygon","coordinates":[[[19.061569783,47.474732184],[19.061604651,47.474843681],[19.061537596,47.474852746],[19.061502727,47.474742155],[19.061569783,47.474732184]]]}},{"type":"Feature","id":475,"properties":{"buildingId":2,"floorId":11,"roomNumber":"618","roomName":"6.618 előkészítő","scope":"budapest/lagymanyos/eszaki/6/LK-6-618-01-14","roomCode":"LK-6-618-01-14","roomType":"educational","__tile":"16/36238/22923","__layer":"rooms","__zoom":16,"__mvtId":475,"__building":"eszaki","__ringVerts":5,"id":475,"catalogFloorId":11},"geometry":{"type":"Polygon","coordinates":[[[19.061678319,47.474855208],[19.061686366,47.47488059],[19.061619311,47.474890561],[19.061611264,47.474864273],[19.061678319,47.474855208]]]}},{"type":"Feature","id":484,"properties":{"buildingId":2,"floorId":11,"roomNumber":"630","roomName":"6.630 labor","scope":"budapest/lagymanyos/eszaki/6/LK-6-630-01-14","roomCode":"LK-6-630-01-14","roomType":"educational","__tile":"17/72476/45847","__layer":"rooms","__zoom":17,"__mvtId":484,"__building":"eszaki","__ringVerts":5,"id":484,"catalogFloorId":11},"geometry":{"type":"Polygon","coordinates":[[[19.061772181,47.47451366],[19.061780227,47.474539949],[19.061712502,47.474549014],[19.061704455,47.474523178],[19.061772181,47.47451366]]]}},{"type":"Feature","id":483,"properties":{"buildingId":2,"floorId":11,"roomNumber":"629","roomName":"6.629 Labor","scope":"budapest/lagymanyos/eszaki/6/LK-6-629-01-14","roomCode":"LK-6-629-01-14","roomType":"educational","__tile":"17/72476/45847","__layer":"rooms","__zoom":17,"__mvtId":483,"__building":"eszaki","__ringVerts":5,"id":483,"catalogFloorId":11},"geometry":{"type":"Polygon","coordinates":[[[19.061780411,47.474486364],[19.061788458,47.4745122],[19.061721403,47.474521718],[19.061713356,47.474495429],[19.061780411,47.474486364]]]}},{"type":"Feature","id":1013,"properties":{"buildingId":2,"floorId":11,"roomNumber":"6.122","roomName":"6.122 D12 labor","scope":"budapest/lagymanyos/eszaki/6/LÉ-6-122-01-14","roomCode":"LÉ-6-122-01-14","roomType":"educational","__tile":"16/36238/22923","__layer":"rooms","__zoom":16,"__mvtId":1013,"__building":"eszaki","__ringVerts":9,"id":1013,"catalogFloorId":11},"geometry":{"type":"Polygon","coordinates":[[[19.062474135,47.474542362],[19.062482181,47.47456865],[19.062413785,47.474580434],[19.062404397,47.474572276],[19.06239501,47.474573182],[19.062390986,47.474560492],[19.062400374,47.474559585],[19.062399033,47.47455324],[19.062474135,47.474542362]]]}},{"type":"Feature","id":1011,"properties":{"buildingId":2,"floorId":11,"roomNumber":"6.120","roomName":"6.120 D12 labor","scope":"budapest/lagymanyos/eszaki/6/LÉ-6-120-01-13","roomCode":"LÉ-6-120-01-13","roomType":"educational","__tile":"16/36238/22923","__layer":"rooms","__zoom":16,"__mvtId":1011,"__building":"eszaki","__ringVerts":6,"id":1011,"catalogFloorId":11},"geometry":{"type":"Polygon","coordinates":[[[19.062426464,47.474662978],[19.06243451,47.474689266],[19.062362091,47.474700144],[19.062355385,47.474679295],[19.062352703,47.474672949],[19.062426464,47.474662978]]]}},{"type":"Feature","id":1006,"properties":{"buildingId":2,"floorId":11,"roomNumber":"6.115","roomName":"6.115 Met dolgozó","scope":"budapest/lagymanyos/eszaki/6/LÉ-6-115-01-13","roomCode":"LÉ-6-115-01-13","roomType":"educational","__tile":"16/36238/22923","__layer":"rooms","__zoom":16,"__mvtId":1006,"__building":"eszaki","__ringVerts":5,"id":1006,"catalogFloorId":11},"geometry":{"type":"Polygon","coordinates":[[[19.062375835,47.474803829],[19.062383882,47.474830117],[19.062311462,47.474840995],[19.062303416,47.4748138],[19.062375835,47.474803829]]]}},{"type":"Feature","id":1009,"properties":{"buildingId":2,"floorId":11,"roomNumber":"6.118","roomName":"6.118 D12 labor","scope":"budapest/lagymanyos/eszaki/6/LÉ-6-118-01-13","roomCode":"LÉ-6-118-01-13","roomType":"educational","__tile":"16/36238/22923","__layer":"rooms","__zoom":16,"__mvtId":1009,"__building":"eszaki","__ringVerts":6,"id":1009,"catalogFloorId":11},"geometry":{"type":"Polygon","coordinates":[[[19.062400831,47.474721476],[19.062410219,47.474747764],[19.062336458,47.474758642],[19.062328411,47.474731448],[19.062378032,47.474724196],[19.062400831,47.474721476]]]}},{"type":"Feature","id":1012,"properties":{"buildingId":2,"floorId":11,"roomNumber":"6.121","roomName":"6.121 D12 labor","scope":"budapest/lagymanyos/eszaki/6/LÉ-6-121-01-13","roomCode":"LÉ-6-121-01-13","roomType":"educational","__tile":"16/36238/22923","__layer":"rooms","__zoom":16,"__mvtId":1012,"__building":"eszaki","__ringVerts":5,"id":1012,"catalogFloorId":11},"geometry":{"type":"Polygon","coordinates":[[[19.062426987,47.474635135],[19.062436375,47.474661423],[19.062362614,47.474672301],[19.062354567,47.474645106],[19.062426987,47.474635135]]]}},{"type":"Feature","id":495,"properties":{"buildingId":2,"floorId":11,"roomNumber":"642","roomName":"6.642 oktató","scope":"budapest/lagymanyos/eszaki/6/LK-6-642-01-13","roomCode":"LK-6-642-01-13","roomType":"educational","__tile":"16/36238/22923","__layer":"rooms","__zoom":16,"__mvtId":495,"__building":"eszaki","__ringVerts":5,"id":495,"catalogFloorId":11},"geometry":{"type":"Polygon","coordinates":[[[19.06209052,47.474834057],[19.062105272,47.474885726],[19.062063698,47.474891165],[19.062047605,47.474839496],[19.06209052,47.474834057]]]}},{"type":"Feature","id":999,"properties":{"buildingId":2,"floorId":11,"roomNumber":"6.107","roomName":"6.107 Hallgatói Labor","scope":"budapest/lagymanyos/eszaki/6/LÉ-6-107-01-14","roomCode":"LÉ-6-107-01-14","roomType":"educational","__tile":"16/36238/22923","__layer":"rooms","__zoom":16,"__mvtId":999,"__building":"eszaki","__ringVerts":5,"id":999,"catalogFloorId":11},"geometry":{"type":"Polygon","coordinates":[[[19.062280461,47.474673161],[19.062289849,47.474700355],[19.062209383,47.47470942],[19.062208041,47.474683132],[19.062280461,47.474673161]]]}},{"type":"Feature","id":496,"properties":{"buildingId":2,"floorId":11,"roomNumber":"643","roomName":"6.643 oktató","scope":"budapest/lagymanyos/eszaki/6/LK-6-643-01-13","roomCode":"LK-6-643-01-13","roomType":"educational","__tile":"16/36238/22923","__layer":"rooms","__zoom":16,"__mvtId":496,"__building":"eszaki","__ringVerts":5,"id":496,"catalogFloorId":11},"geometry":{"type":"Polygon","coordinates":[[[19.062111723,47.47477182],[19.062121111,47.474804453],[19.062082219,47.474809892],[19.06207149,47.474777259],[19.062111723,47.47477182]]]}},{"type":"Feature","id":497,"properties":{"buildingId":2,"floorId":11,"roomNumber":"644","roomName":"6.644 oktató","scope":"budapest/lagymanyos/eszaki/6/LK-6-644-01-13","roomCode":"LK-6-644-01-13","roomType":"educational","__tile":"16/36238/22923","__layer":"rooms","__zoom":16,"__mvtId":497,"__building":"eszaki","__ringVerts":5,"id":497,"catalogFloorId":11},"geometry":{"type":"Polygon","coordinates":[[[19.062070908,47.474766935],[19.062080296,47.474799568],[19.062046768,47.4748041],[19.06203738,47.474771467],[19.062070908,47.474766935]]]}},{"type":"Feature","id":1003,"properties":{"buildingId":2,"floorId":11,"roomNumber":"6.112","roomName":"6.112 Met tanszékvezető","scope":"budapest/lagymanyos/eszaki/6/LÉ-6-112-02-33","roomCode":"LÉ-6-112-02-33","roomType":"administrative","__tile":"16/36238/22923","__layer":"rooms","__zoom":16,"__mvtId":1003,"__building":"eszaki","__ringVerts":7,"id":1003,"catalogFloorId":11},"geometry":{"type":"Polygon","coordinates":[[[19.062237009,47.474847501],[19.062253102,47.474900984],[19.062246396,47.474903703],[19.062208845,47.474909142],[19.062191411,47.474853847],[19.062199458,47.474851127],[19.062237009,47.474847501]]]}},{"type":"Feature","id":1000,"properties":{"buildingId":2,"floorId":11,"roomNumber":"6.109","roomName":"6.109 Met dolgozó","scope":"budapest/lagymanyos/eszaki/6/LÉ-6-109-01-13","roomCode":"LÉ-6-109-01-13","roomType":"educational","__tile":"16/36238/22923","__layer":"rooms","__zoom":16,"__mvtId":1000,"__building":"eszaki","__ringVerts":5,"id":1000,"catalogFloorId":11},"geometry":{"type":"Polygon","coordinates":[[[19.062169134,47.474777425],[19.062178522,47.474818216],[19.062130242,47.474825468],[19.062118172,47.474784676],[19.062169134,47.474777425]]]}},{"type":"Feature","id":1002,"properties":{"buildingId":2,"floorId":11,"roomNumber":"6.111","roomName":"6.111 Met titkárság","scope":"budapest/lagymanyos/eszaki/6/LÉ-6-111-02-33","roomCode":"LÉ-6-111-02-33","roomType":"administrative","__tile":"16/36238/22923","__layer":"rooms","__zoom":16,"__mvtId":1002,"__building":"eszaki","__ringVerts":6,"id":1002,"catalogFloorId":11},"geometry":{"type":"Polygon","coordinates":[[[19.062194484,47.474847327],[19.062210577,47.47490081],[19.062170344,47.474906249],[19.062154251,47.474853673],[19.062162298,47.474850047],[19.062194484,47.474847327]]]}},{"type":"Feature","id":997,"properties":{"buildingId":2,"floorId":11,"roomNumber":"6.105","roomName":"6.105 Hallgatói Labor","scope":"budapest/lagymanyos/eszaki/6/LÉ-6-105-01-14","roomCode":"LÉ-6-105-01-14","roomType":"educational","__tile":"16/36238/22923","__layer":"rooms","__zoom":16,"__mvtId":997,"__building":"eszaki","__ringVerts":11,"id":997,"catalogFloorId":11},"geometry":{"type":"Polygon","coordinates":[[[19.062305499,47.474566115],[19.06230684,47.47457246],[19.062316228,47.474570647],[19.062320251,47.474583338],[19.062310864,47.474585151],[19.062321592,47.47462141],[19.062242467,47.474630475],[19.062235762,47.474607813],[19.062241126,47.474606906],[19.062226374,47.474579712],[19.062305499,47.474566115]]]}},{"type":"Feature","id":998,"properties":{"buildingId":2,"floorId":11,"roomNumber":"6.106","roomName":"6.106 A2 Előkészítő","scope":"budapest/lagymanyos/eszaki/6/LÉ-6-106-01-14","roomCode":"LÉ-6-106-01-14","roomType":"educational","__tile":"16/36238/22923","__layer":"rooms","__zoom":16,"__mvtId":998,"__building":"eszaki","__ringVerts":11,"id":998,"catalogFloorId":11},"geometry":{"type":"Polygon","coordinates":[[[19.062284984,47.474610481],[19.062295712,47.474646741],[19.062306441,47.474645834],[19.062309123,47.474658525],[19.062299736,47.474659431],[19.062301077,47.474665777],[19.062221952,47.474674841],[19.062215246,47.474652179],[19.062220611,47.474651273],[19.0622072,47.474624079],[19.062284984,47.474610481]]]}},{"type":"Feature","id":1022,"properties":{"buildingId":2,"floorId":11,"roomNumber":"6.132","roomName":"6.132 Met labor","scope":"budapest/lagymanyos/eszaki/6/LÉ-6-132-01-14","roomCode":"LÉ-6-132-01-14","roomType":"educational","__tile":"17/72476/45847","__layer":"rooms","__zoom":17,"__mvtId":1022,"__building":"eszaki","__ringVerts":6,"id":1022,"catalogFloorId":11},"geometry":{"type":"Polygon","coordinates":[[[19.062418766,47.47424726],[19.062427483,47.474274455],[19.062353723,47.474284879],[19.062345005,47.474263123],[19.062343664,47.474258138],[19.062418766,47.47424726]]]}},{"type":"Feature","id":1018,"properties":{"buildingId":2,"floorId":11,"roomNumber":"6.127","roomName":"6.127 Rendszergazdák","scope":"budapest/lagymanyos/eszaki/6/LÉ-6-127-02-33","roomCode":"LÉ-6-127-02-33","roomType":"administrative","__tile":"17/72476/45847","__layer":"rooms","__zoom":17,"__mvtId":1018,"__building":"eszaki","__ringVerts":6,"id":1018,"catalogFloorId":11},"geometry":{"type":"Polygon","coordinates":[[[19.06260033,47.474067975],[19.062617093,47.474122819],[19.062541321,47.474133243],[19.062536627,47.474117833],[19.062524557,47.4740784],[19.06260033,47.474067975]]]}},{"type":"Feature","id":1021,"properties":{"buildingId":2,"floorId":11,"roomNumber":"6.131","roomName":"6.131 Met labor","scope":"budapest/lagymanyos/eszaki/6/LÉ-6-131-01-13","roomCode":"LÉ-6-131-01-13","roomType":"educational","__tile":"17/72476/45847","__layer":"rooms","__zoom":17,"__mvtId":1021,"__building":"eszaki","__ringVerts":6,"id":1021,"catalogFloorId":11},"geometry":{"type":"Polygon","coordinates":[[[19.062414824,47.474220484],[19.062417506,47.474228643],[19.062422871,47.474247679],[19.062347769,47.474258104],[19.062341063,47.474230909],[19.062414824,47.474220484]]]}},{"type":"Feature","id":469,"properties":{"buildingId":2,"floorId":11,"roomNumber":"610","roomName":"6.610 terem","scope":"budapest/lagymanyos/eszaki/6/LK-6-610-01-13","roomCode":"LK-6-610-01-13","roomType":"educational","__tile":"16/36238/22923","__layer":"rooms","__zoom":16,"__mvtId":469,"__building":"eszaki","__ringVerts":5,"id":469,"catalogFloorId":11},"geometry":{"type":"Polygon","coordinates":[[[19.061538489,47.475260133],[19.06156397,47.475341717],[19.061484845,47.475353501],[19.061462046,47.475338997],[19.061538489,47.475260133]]]}},{"type":"Feature","id":466,"properties":{"buildingId":2,"floorId":11,"roomNumber":"607","roomName":"6.607 Hallgatói labor","scope":"budapest/lagymanyos/eszaki/6/LK-6-607-01-14","roomCode":"LK-6-607-01-14","roomType":"educational","__tile":"16/36238/22923","__layer":"rooms","__zoom":16,"__mvtId":466,"__building":"eszaki","__ringVerts":5,"id":466,"catalogFloorId":11},"geometry":{"type":"Polygon","coordinates":[[[19.061497685,47.474988539],[19.061523166,47.475070123],[19.06145611,47.475080094],[19.061430629,47.474997604],[19.061497685,47.474988539]]]}},{"type":"Feature","id":468,"properties":{"buildingId":2,"floorId":11,"roomNumber":"609","roomName":"609-es labor","scope":"budapest/lagymanyos/eszaki/6/LK-6-609-01-14","roomCode":"LK-6-609-01-14","roomType":"educational","__tile":"16/36238/22923","__layer":"rooms","__zoom":16,"__mvtId":468,"__building":"eszaki","__ringVerts":5,"id":468,"catalogFloorId":11},"geometry":{"type":"Polygon","coordinates":[[[19.06145584,47.475102816],[19.061489367,47.475213407],[19.061422312,47.475222472],[19.061390126,47.475113694],[19.06145584,47.475102816]]]}},{"type":"Feature","id":465,"properties":{"buildingId":2,"floorId":11,"roomNumber":"606","roomName":"6.606 Preparatív labor","scope":"budapest/lagymanyos/eszaki/6/LK-6-606-01-14","roomCode":"LK-6-606-01-14","roomType":"educational","__tile":"16/36238/22923","__layer":"rooms","__zoom":16,"__mvtId":465,"__building":"eszaki","__ringVerts":5,"id":465,"catalogFloorId":11},"geometry":{"type":"Polygon","coordinates":[[[19.061522504,47.474929903],[19.061538597,47.474983386],[19.061472883,47.47499245],[19.061455448,47.474938968],[19.061522504,47.474929903]]]}},{"type":"Feature","id":467,"properties":{"buildingId":2,"floorId":11,"roomNumber":"608","roomName":"6.608 oktatói","scope":"budapest/lagymanyos/eszaki/6/LK-6-608-01-13","roomCode":"LK-6-608-01-13","roomType":"educational","__tile":"16/36238/22923","__layer":"rooms","__zoom":16,"__mvtId":467,"__building":"eszaki","__ringVerts":5,"id":467,"catalogFloorId":11},"geometry":{"type":"Polygon","coordinates":[[[19.06148759,47.475066892],[19.061495637,47.47509318],[19.061428582,47.475102245],[19.061420535,47.475075957],[19.06148759,47.475066892]]]}},{"type":"Feature","id":548,"properties":{"buildingId":2,"floorId":11,"roomNumber":"6.88","roomName":"6.88 Detre László Terem","scope":"budapest/lagymanyos/eszaki/6/LÉ-6-88-01-12","roomCode":"LÉ-6-88-01-12","roomType":"educational","__tile":"17/72476/45847","__layer":"rooms","__zoom":17,"__mvtId":548,"__building":"eszaki","__ringVerts":6,"id":548,"catalogFloorId":11},"geometry":{"type":"Polygon","coordinates":[[[19.06228048,47.474380991],[19.062291879,47.474419971],[19.062214766,47.474430849],[19.062203367,47.474391869],[19.062270422,47.474382351],[19.06228048,47.474380991]]]}},{"type":"Feature","id":1059,"properties":{"buildingId":2,"floorId":11,"roomNumber":"6.91","roomName":"6.91 Férfi mosdó","scope":"budapest/lagymanyos/eszaki/6/LÉ-6-91-05-71","roomCode":"LÉ-6-91-05-71","roomType":"social","__tile":"17/72476/45847","__layer":"rooms","__zoom":17,"__mvtId":1059,"__building":"eszaki","__ringVerts":5,"id":1059,"catalogFloorId":11},"geometry":{"type":"Polygon","coordinates":[[[19.062141489,47.474421747],[19.062149536,47.474447583],[19.062126737,47.474450755],[19.062116679,47.474425373],[19.062141489,47.474421747]]]}},{"type":"Feature","id":1058,"properties":{"buildingId":2,"floorId":11,"roomNumber":"6.90","roomName":"6.90 Teakonyha","scope":"budapest/lagymanyos/eszaki/6/LÉ-6-90-05-77","roomCode":"LÉ-6-90-05-77","roomType":"social","__tile":"17/72476/45847","__layer":"rooms","__zoom":17,"__mvtId":1058,"__building":"eszaki","__ringVerts":6,"id":1058,"catalogFloorId":11},"geometry":{"type":"Polygon","coordinates":[[[19.062171607,47.474422722],[19.062179654,47.474448557],[19.062164231,47.474450824],[19.06215082,47.474452637],[19.062142774,47.474426801],[19.062171607,47.474422722]]]}},{"type":"Feature","id":57,"properties":{"buildingId":2,"floorId":11,"roomNumber":"6.133","roomName":"6.133 F2 labor","scope":"budapest/lagymanyos/eszaki/6/LÉ-6-133-01-12","roomCode":"LÉ-6-133-01-12","roomType":"educational","__tile":"17/72476/45847","__layer":"rooms","__zoom":17,"__mvtId":57,"__building":"eszaki","__ringVerts":19,"id":57,"catalogFloorId":11},"geometry":{"type":"Polygon","coordinates":[[[19.062363958,47.474278403],[19.06236597,47.474283388],[19.062376028,47.474282029],[19.062380051,47.474295173],[19.062369993,47.474296533],[19.062380722,47.474332793],[19.062369993,47.474334153],[19.062381392,47.4743337],[19.062392121,47.47436996],[19.06240218,47.4743686],[19.062406203,47.474381744],[19.062396145,47.474383104],[19.062398156,47.474388996],[19.062322384,47.474399421],[19.06230562,47.474344124],[19.062357253,47.474337326],[19.06230562,47.474343218],[19.062288856,47.474288827],[19.062363958,47.474278403]]]}},{"type":"Feature","id":1019,"properties":{"buildingId":2,"floorId":11,"roomNumber":"6.129","roomName":"6.129 Szinoptikus meteorológia labor","scope":"budapest/lagymanyos/eszaki/6/LÉ-6-129-01-14","roomCode":"LÉ-6-129-01-14","roomType":"educational","__tile":"17/72476/45847","__layer":"rooms","__zoom":17,"__mvtId":1019,"__building":"eszaki","__ringVerts":6,"id":1019,"catalogFloorId":11},"geometry":{"type":"Polygon","coordinates":[[[19.062435603,47.474165325],[19.06244365,47.474192067],[19.062367877,47.474202491],[19.062359831,47.474176656],[19.062418839,47.474168044],[19.062435603,47.474165325]]]}},{"type":"Feature","id":1020,"properties":{"buildingId":2,"floorId":11,"roomNumber":"6.130","roomName":"6.130 Met labor","scope":"budapest/lagymanyos/eszaki/6/LÉ-6-130-01-13","roomCode":"LÉ-6-130-01-13","roomType":"educational","__tile":"17/72476/45847","__layer":"rooms","__zoom":17,"__mvtId":1020,"__building":"eszaki","__ringVerts":5,"id":1020,"catalogFloorId":11},"geometry":{"type":"Polygon","coordinates":[[[19.062428391,47.474191342],[19.062436438,47.474218537],[19.062362677,47.474228055],[19.062352619,47.47420222],[19.062428391,47.474191342]]]}},{"type":"Feature","id":1017,"properties":{"buildingId":2,"floorId":11,"roomNumber":"6.126","roomName":"6.126 Ügyféltámogató iroda","scope":"budapest/lagymanyos/eszaki/6/LÉ-6-126-02-33","roomCode":"LÉ-6-126-02-33","roomType":"administrative","__tile":"17/72476/45847","__layer":"rooms","__zoom":17,"__mvtId":1017,"__building":"eszaki","__ringVerts":10,"id":1017,"catalogFloorId":11},"geometry":{"type":"Polygon","coordinates":[[[19.062593231,47.47412906],[19.062599937,47.474158068],[19.062609995,47.474183903],[19.062534893,47.474194328],[19.062523494,47.474158068],[19.062513436,47.474159427],[19.062509412,47.474146736],[19.062519471,47.474145377],[19.062518129,47.474139484],[19.062593231,47.47412906]]]}},{"type":"Feature","id":1014,"properties":{"buildingId":2,"floorId":11,"roomNumber":"6.123","roomName":"6.123 Met dolgozó","scope":"budapest/lagymanyos/eszaki/6/LÉ-6-123-01-13","roomCode":"LÉ-6-123-01-13","roomType":"educational","__tile":"17/72476/45847","__layer":"rooms","__zoom":17,"__mvtId":1014,"__building":"eszaki","__ringVerts":13,"id":1014,"catalogFloorId":11},"geometry":{"type":"Polygon","coordinates":[[[19.062487146,47.47451182],[19.062496533,47.474536749],[19.062421432,47.474547174],[19.062420761,47.474544454],[19.062418749,47.474547627],[19.062418079,47.474544907],[19.062410703,47.474545814],[19.062408691,47.474539468],[19.062418749,47.474538108],[19.062413385,47.474521338],[19.062412714,47.474518165],[19.062458982,47.47451182],[19.062487146,47.47451182]]]}},{"type":"Feature","id":482,"properties":{"buildingId":2,"floorId":11,"roomNumber":"628","roomName":"6.628 Oktatói","scope":"budapest/lagymanyos/eszaki/6/LK-6-628-01-13","roomCode":"LK-6-628-01-13","roomType":"educational","__tile":"17/72476/45847","__layer":"rooms","__zoom":17,"__mvtId":482,"__building":"eszaki","__ringVerts":5,"id":482,"catalogFloorId":11},"geometry":{"type":"Polygon","coordinates":[[[19.061895291,47.47451274],[19.061908032,47.47455308],[19.061840977,47.474562598],[19.061825554,47.47451274],[19.061895291,47.47451274]]]}},{"type":"Feature","id":479,"properties":{"buildingId":2,"floorId":11,"roomNumber":"625","roomName":"6.625 Elméleti kémiai laboratórium","scope":"budapest/lagymanyos/eszaki/6/LK-6-625-01-13","roomCode":"LK-6-625-01-13","roomType":"educational","__tile":"16/36238/22923","__layer":"rooms","__zoom":16,"__mvtId":479,"__building":"eszaki","__ringVerts":5,"id":479,"catalogFloorId":11},"geometry":{"type":"Polygon","coordinates":[[[19.061848871,47.474671963],[19.061856918,47.474698251],[19.061789863,47.474708222],[19.061781816,47.474681027],[19.061848871,47.474671963]]]}},{"type":"Feature","id":501,"properties":{"buildingId":2,"floorId":11,"roomNumber":"648","roomName":"6.648 Doktoranduszok","scope":"budapest/lagymanyos/eszaki/6/LK-6-648-01-13","roomCode":"LK-6-648-01-13","roomType":"educational","__tile":"16/36238/22923","__layer":"rooms","__zoom":16,"__mvtId":501,"__building":"eszaki","__ringVerts":5,"id":501,"catalogFloorId":11},"geometry":{"type":"Polygon","coordinates":[[[19.061931431,47.474747958],[19.061940819,47.474779685],[19.061907291,47.474784218],[19.061897903,47.474752491],[19.061931431,47.474747958]]]}},{"type":"Feature","id":502,"properties":{"buildingId":2,"floorId":11,"roomNumber":"649","roomName":"6.649 oktató","scope":"budapest/lagymanyos/eszaki/6/LK-6-649-01-13","roomCode":"LK-6-649-01-13","roomType":"educational","__tile":"16/36238/22923","__layer":"rooms","__zoom":16,"__mvtId":502,"__building":"eszaki","__ringVerts":5,"id":502,"catalogFloorId":11},"geometry":{"type":"Polygon","coordinates":[[[19.061896637,47.474743135],[19.061906025,47.474774862],[19.061872497,47.474779395],[19.061863109,47.474747668],[19.061896637,47.474743135]]]}},{"type":"Feature","id":498,"properties":{"buildingId":2,"floorId":11,"roomNumber":"645","roomName":"6.645 tanszéki","scope":"budapest/lagymanyos/eszaki/6/LK-6-645-02-33","roomCode":"LK-6-645-02-33","roomType":"administrative","__tile":"16/36238/22923","__layer":"rooms","__zoom":16,"__mvtId":498,"__building":"eszaki","__ringVerts":5,"id":498,"catalogFloorId":11},"geometry":{"type":"Polygon","coordinates":[[[19.062036038,47.4747621],[19.062045426,47.474794733],[19.062011898,47.474799265],[19.06200251,47.474766632],[19.062036038,47.4747621]]]}},{"type":"Feature","id":500,"properties":{"buildingId":2,"floorId":11,"roomNumber":"647","roomName":"6.647 oktató","scope":"budapest/lagymanyos/eszaki/6/LK-6-647-01-13","roomCode":"LK-6-647-01-13","roomType":"educational","__tile":"16/36238/22923","__layer":"rooms","__zoom":16,"__mvtId":500,"__building":"eszaki","__ringVerts":5,"id":500,"catalogFloorId":11},"geometry":{"type":"Polygon","coordinates":[[[19.061965203,47.474752389],[19.061975932,47.474785022],[19.061942405,47.474789554],[19.061933017,47.474756921],[19.061965203,47.474752389]]]}},{"type":"Feature","id":1001,"properties":{"buildingId":2,"floorId":11,"roomNumber":"6.110","roomName":"6.110 Met oktató","scope":"budapest/lagymanyos/eszaki/6/LÉ-6-110-01-13","roomCode":"LÉ-6-110-01-13","roomType":"educational","__tile":"16/36238/22923","__layer":"rooms","__zoom":16,"__mvtId":1001,"__building":"eszaki","__ringVerts":5,"id":1001,"catalogFloorId":11},"geometry":{"type":"Polygon","coordinates":[[[19.06214756,47.474836503],[19.062160972,47.474891798],[19.062112692,47.47489905],[19.062099281,47.474841035],[19.06214756,47.474836503]]]}},{"type":"Feature","id":1004,"properties":{"buildingId":2,"floorId":11,"roomNumber":"6.113","roomName":"6.113 Met tanácsterem","scope":"budapest/lagymanyos/eszaki/6/LÉ-6-113-01-13","roomCode":"LÉ-6-113-01-13","roomType":"educational","__tile":"16/36238/22923","__layer":"rooms","__zoom":16,"__mvtId":1004,"__building":"eszaki","__ringVerts":9,"id":1004,"catalogFloorId":11},"geometry":{"type":"Polygon","coordinates":[[[19.062372855,47.474864622],[19.062390289,47.474919011],[19.062316528,47.474929889],[19.062305799,47.474892723],[19.06229507,47.474892723],[19.062291047,47.474881846],[19.062301776,47.474880033],[19.062299094,47.474874594],[19.062372855,47.474864622]]]}},{"type":"Feature","id":1007,"properties":{"buildingId":2,"floorId":11,"roomNumber":"6.116","roomName":"6.116 Agromet műszer szoba ","scope":"budapest/lagymanyos/eszaki/6/LÉ-6-116-01-13","roomCode":"LÉ-6-116-01-13","roomType":"educational","__tile":"16/36238/22923","__layer":"rooms","__zoom":16,"__mvtId":1007,"__building":"eszaki","__ringVerts":5,"id":1007,"catalogFloorId":11},"geometry":{"type":"Polygon","coordinates":[[[19.062384943,47.474775713],[19.062392989,47.474802001],[19.062319229,47.474812879],[19.062311182,47.474785684],[19.062384943,47.474775713]]]}},{"type":"Feature","id":1010,"properties":{"buildingId":2,"floorId":11,"roomNumber":"6.119","roomName":"6.119 D12 dolgozó","scope":"budapest/lagymanyos/eszaki/6/LÉ-6-119-01-13","roomCode":"LÉ-6-119-01-13","roomType":"educational","__tile":"16/36238/22923","__layer":"rooms","__zoom":16,"__mvtId":1010,"__building":"eszaki","__ringVerts":6,"id":1010,"catalogFloorId":11},"geometry":{"type":"Polygon","coordinates":[[[19.062416409,47.474688857],[19.062424455,47.474715145],[19.0623574,47.474726023],[19.062348012,47.474717864],[19.062342648,47.474698828],[19.062416409,47.474688857]]]}},{"type":"Feature","id":1005,"properties":{"buildingId":2,"floorId":11,"roomNumber":"6.114","roomName":"6.114 Met dolgozó","scope":"budapest/lagymanyos/eszaki/6/LÉ-6-114-01-13","roomCode":"LÉ-6-114-01-13","roomType":"educational","__tile":"16/36238/22923","__layer":"rooms","__zoom":16,"__mvtId":1005,"__building":"eszaki","__ringVerts":5,"id":1005,"catalogFloorId":11},"geometry":{"type":"Polygon","coordinates":[[[19.062366998,47.474831945],[19.062376386,47.474858233],[19.062302625,47.474869111],[19.062294578,47.474841916],[19.062366998,47.474831945]]]}},{"type":"Feature","id":1008,"properties":{"buildingId":2,"floorId":11,"roomNumber":"6.117","roomName":"6.117 Napfizika labor","scope":"budapest/lagymanyos/eszaki/6/LÉ-6-117-01-13","roomCode":"LÉ-6-117-01-13","roomType":"educational","__tile":"16/36238/22923","__layer":"rooms","__zoom":16,"__mvtId":1008,"__building":"eszaki","__ringVerts":5,"id":1008,"catalogFloorId":11},"geometry":{"type":"Polygon","coordinates":[[[19.062393512,47.474747598],[19.062401558,47.474773886],[19.062327798,47.474784764],[19.062319751,47.474757569],[19.062393512,47.474747598]]]}},{"type":"Feature","id":1050,"properties":{"buildingId":2,"floorId":11,"roomNumber":"6.78/A","roomName":"6.78/A Titkárság","scope":"budapest/lagymanyos/eszaki/6/LÉ-6-78-A-02-33","roomCode":"LÉ-6-78/A-02-33","roomType":"administrative","__tile":"17/72476/45847","__layer":"rooms","__zoom":17,"__mvtId":1050,"__building":"eszaki","__ringVerts":5,"id":1050,"catalogFloorId":11},"geometry":{"type":"Polygon","coordinates":[[[19.06207987,47.474078503],[19.062091269,47.474115669],[19.062053048,47.474121108],[19.062041648,47.474083942],[19.06207987,47.474078503]]]}},{"type":"Feature","id":66,"properties":{"buildingId":2,"floorId":11,"roomNumber":"6.79","roomName":"6.79 Számítógép Terem","scope":"budapest/lagymanyos/eszaki/6/LÉ-6-79-01-12","roomCode":"LÉ-6-79-01-12","roomType":"educational","__tile":"17/72476/45847","__layer":"rooms","__zoom":17,"__mvtId":66,"__building":"eszaki","__ringVerts":9,"id":66,"catalogFloorId":11},"geometry":{"type":"Polygon","coordinates":[[[19.062036631,47.474096198],[19.062053395,47.474151041],[19.061978293,47.474161466],[19.061976282,47.474155574],[19.061966223,47.474156934],[19.0619622,47.474144243],[19.061972258,47.474142883],[19.061962871,47.47410617],[19.062036631,47.474096198]]]}},{"type":"Feature","id":67,"properties":{"buildingId":2,"floorId":11,"roomNumber":"6.80","roomName":"6.80 Számítógép Terem","scope":"budapest/lagymanyos/eszaki/6/LÉ-6-80-01-12","roomCode":"LÉ-6-80-01-12","roomType":"educational","__tile":"17/72476/45847","__layer":"rooms","__zoom":17,"__mvtId":67,"__building":"eszaki","__ringVerts":10,"id":67,"catalogFloorId":11},"geometry":{"type":"Polygon","coordinates":[[[19.062024184,47.474168316],[19.062040948,47.47422316],[19.061965176,47.474233584],[19.061954447,47.474197324],[19.061944389,47.474198684],[19.061940365,47.474185993],[19.061950424,47.474184633],[19.061948412,47.474178741],[19.061971211,47.474175568],[19.062024184,47.474168316]]]}},{"type":"Feature","id":1032,"properties":{"buildingId":2,"floorId":11,"roomNumber":"6.60","roomName":"6.60 F6 Oktató","scope":"budapest/lagymanyos/eszaki/6/LÉ-6-60-01-13","roomCode":"LÉ-6-60-01-13","roomType":"educational","__tile":"17/72476/45847","__layer":"rooms","__zoom":17,"__mvtId":1032,"__building":"eszaki","__ringVerts":5,"id":1032,"catalogFloorId":11},"geometry":{"type":"Polygon","coordinates":[[[19.061887169,47.474116301],[19.061895886,47.474143042],[19.061822125,47.474152561],[19.061812067,47.474126725],[19.061887169,47.474116301]]]}},{"type":"Feature","id":1038,"properties":{"buildingId":2,"floorId":11,"roomNumber":"6.66","roomName":"6.66 Dolgozó","scope":"budapest/lagymanyos/eszaki/6/LÉ-6-66-01-13","roomCode":"LÉ-6-66-01-13","roomType":"educational","__tile":"17/72476/45847","__layer":"rooms","__zoom":17,"__mvtId":1038,"__building":"eszaki","__ringVerts":7,"id":1038,"catalogFloorId":11},"geometry":{"type":"Polygon","coordinates":[[[19.062105523,47.474009061],[19.062121616,47.474065717],[19.062082724,47.474071156],[19.062071996,47.474035803],[19.062066631,47.474017219],[19.062068643,47.4740145],[19.062105523,47.474009061]]]}},{"type":"Feature","id":1035,"properties":{"buildingId":2,"floorId":11,"roomNumber":"6.63","roomName":"6.63 Tárgyaló","scope":"budapest/lagymanyos/eszaki/6/LÉ-6-63-01-17","roomCode":"LÉ-6-63-01-17","roomType":"educational","__tile":"17/72476/45847","__layer":"rooms","__zoom":17,"__mvtId":1035,"__building":"eszaki","__ringVerts":12,"id":1035,"catalogFloorId":11},"geometry":{"type":"Polygon","coordinates":[[[19.061916115,47.473970524],[19.061927515,47.474007237],[19.061937573,47.474005877],[19.061940926,47.474017662],[19.061931538,47.474019928],[19.061932879,47.47402582],[19.061857777,47.474036245],[19.061849731,47.47401041],[19.061911421,47.473999532],[19.06184906,47.47400769],[19.061841013,47.473981402],[19.061916115,47.473970524]]]}},{"type":"Feature","id":503,"properties":{"buildingId":2,"floorId":11,"roomNumber":"650","roomName":"6.650 oktató","scope":"budapest/lagymanyos/eszaki/6/LK-6-650-01-13","roomCode":"LK-6-650-01-13","roomType":"educational","__tile":"16/36238/22923","__layer":"rooms","__zoom":16,"__mvtId":503,"__building":"eszaki","__ringVerts":5,"id":503,"catalogFloorId":11},"geometry":{"type":"Polygon","coordinates":[[[19.0618607,47.474738409],[19.061870087,47.474770135],[19.061837901,47.474773761],[19.061828513,47.474742941],[19.0618607,47.474738409]]]}},{"type":"Feature","id":478,"properties":{"buildingId":2,"floorId":11,"roomNumber":"624","roomName":"6.624 LC-Minta előkészítő","scope":"budapest/lagymanyos/eszaki/6/LK-6-624-01-14","roomCode":"LK-6-624-01-14","roomType":"educational","__tile":"16/36238/22923","__layer":"rooms","__zoom":16,"__mvtId":478,"__building":"eszaki","__ringVerts":5,"id":478,"catalogFloorId":11},"geometry":{"type":"Polygon","coordinates":[[[19.061840374,47.474700245],[19.06184842,47.474726533],[19.061781365,47.474736504],[19.061771977,47.474709309],[19.061840374,47.474700245]]]}},{"type":"Feature","id":480,"properties":{"buildingId":2,"floorId":11,"roomNumber":"626","roomName":"6.626 Oktatói","scope":"budapest/lagymanyos/eszaki/6/LK-6-626-01-13","roomCode":"LK-6-626-01-13","roomType":"educational","__tile":"16/36238/22923","__layer":"rooms","__zoom":16,"__mvtId":480,"__building":"eszaki","__ringVerts":5,"id":480,"catalogFloorId":11},"geometry":{"type":"Polygon","coordinates":[[[19.061857877,47.474618733],[19.061875312,47.474674028],[19.061808256,47.474683093],[19.061790822,47.474628704],[19.061857877,47.474618733]]]}},{"type":"Feature","id":499,"properties":{"buildingId":2,"floorId":11,"roomNumber":"646","roomName":"6.646 oktató","scope":"budapest/lagymanyos/eszaki/6/LK-6-646-01-13","roomCode":"LK-6-646-01-13","roomType":"educational","__tile":"16/36238/22923","__layer":"rooms","__zoom":16,"__mvtId":499,"__building":"eszaki","__ringVerts":5,"id":499,"catalogFloorId":11},"geometry":{"type":"Polygon","coordinates":[[[19.062001105,47.474757692],[19.062010492,47.474789419],[19.061978306,47.474793952],[19.061968918,47.474762225],[19.062001105,47.474757692]]]}},{"type":"Feature","id":1054,"properties":{"buildingId":2,"floorId":11,"roomNumber":"6.82","roomName":"6.82 F6 Tanszékvezető","scope":"budapest/lagymanyos/eszaki/6/LÉ-6-82-01-13","roomCode":"LÉ-6-82-01-13","roomType":"educational","__tile":"17/72476/45847","__layer":"rooms","__zoom":17,"__mvtId":1054,"__building":"eszaki","__ringVerts":5,"id":1054,"catalogFloorId":11},"geometry":{"type":"Polygon","coordinates":[[[19.061973647,47.474274804],[19.061983706,47.474300639],[19.061907933,47.474311064],[19.061899887,47.474284775],[19.061973647,47.474274804]]]}},{"type":"Feature","id":70,"properties":{"buildingId":2,"floorId":11,"roomNumber":"6.87","roomName":"6.87 F6 Szeminárium","scope":"budapest/lagymanyos/eszaki/6/LÉ-6-87-01-12","roomCode":"LÉ-6-87-01-12","roomType":"educational","__tile":"17/72476/45847","__layer":"rooms","__zoom":17,"__mvtId":70,"__building":"eszaki","__ringVerts":6,"id":70,"catalogFloorId":11},"geometry":{"type":"Polygon","coordinates":[[[19.062211442,47.474363667],[19.062223512,47.474402193],[19.062141705,47.474413978],[19.062137682,47.474400833],[19.062129635,47.474374998],[19.062211442,47.474363667]]]}},{"type":"Feature","id":63,"properties":{"buildingId":2,"floorId":11,"roomNumber":"6.85","roomName":"6.85 F6 Szeminárium","scope":"budapest/lagymanyos/eszaki/6/LÉ-6-85-01-12","roomCode":"LÉ-6-85-01-12","roomType":"educational","__tile":"17/72476/45847","__layer":"rooms","__zoom":17,"__mvtId":63,"__building":"eszaki","__ringVerts":6,"id":63,"catalogFloorId":11},"geometry":{"type":"Polygon","coordinates":[[[19.0620458,47.474343826],[19.06205787,47.474382806],[19.061980757,47.474393231],[19.061971369,47.47436377],[19.061968687,47.474354704],[19.0620458,47.474343826]]]}},{"type":"Feature","id":64,"properties":{"buildingId":2,"floorId":11,"roomNumber":"6.86","roomName":"6.86 F6 Szeminárium","scope":"budapest/lagymanyos/eszaki/6/LÉ-6-86-01-12","roomCode":"LÉ-6-86-01-12","roomType":"educational","__tile":"17/72476/45847","__layer":"rooms","__zoom":17,"__mvtId":64,"__building":"eszaki","__ringVerts":6,"id":64,"catalogFloorId":11},"geometry":{"type":"Polygon","coordinates":[[[19.062128138,47.474351855],[19.062140207,47.474390835],[19.0620584,47.474402166],[19.062055047,47.474389928],[19.06204633,47.474363186],[19.062128138,47.474351855]]]}},{"type":"Feature","id":1069,"properties":{"buildingId":2,"floorId":11,"roomNumber":"6.95/C","roomName":"6.95/C zuhanyzó","scope":"budapest/lagymanyos/eszaki/6/LÉ-6-95-C-05-71","roomCode":"LÉ-6-95/C-05-71","roomType":"social","__tile":"17/72476/45847","__layer":"rooms","__zoom":17,"__mvtId":1069,"__building":"eszaki","__ringVerts":8,"id":1069,"catalogFloorId":11},"geometry":{"type":"Polygon","coordinates":[[[19.06210852,47.474445673],[19.062112543,47.474459724],[19.062107178,47.47446063],[19.062109861,47.474468789],[19.06209712,47.474470602],[19.062091756,47.474453378],[19.062090415,47.474447939],[19.06210852,47.474445673]]]}},{"type":"Feature","id":1070,"properties":{"buildingId":2,"floorId":11,"roomNumber":"6.96","roomName":"6.96 mosdó","scope":"budapest/lagymanyos/eszaki/6/LÉ-6-96-05-71","roomCode":"LÉ-6-96-05-71","roomType":"social","__tile":"17/72476/45847","__layer":"rooms","__zoom":17,"__mvtId":1070,"__building":"eszaki","__ringVerts":6,"id":1070,"catalogFloorId":11},"geometry":{"type":"Polygon","coordinates":[[[19.062135636,47.474446132],[19.062143012,47.474472421],[19.062118872,47.474475594],[19.062117531,47.474473328],[19.062110826,47.474449758],[19.062135636,47.474446132]]]}},{"type":"Feature","id":83,"properties":{"buildingId":2,"floorId":11,"roomNumber":"6.101","roomName":"6.101 F4 Szeminárium","scope":"budapest/lagymanyos/eszaki/6/LÉ-6-101-01-12","roomCode":"LÉ-6-101-01-12","roomType":"educational","__tile":"17/72476/45847","__layer":"rooms","__zoom":17,"__mvtId":83,"__building":"eszaki","__ringVerts":12,"id":83,"catalogFloorId":11},"geometry":{"type":"Polygon","coordinates":[[[19.062171886,47.474502003],[19.062175909,47.474504269],[19.062187979,47.474542796],[19.062106172,47.474554127],[19.062094102,47.4745156],[19.062097454,47.474515147],[19.06209276,47.474512881],[19.062132323,47.474507442],[19.062133664,47.474511521],[19.062137687,47.474511068],[19.062136346,47.474506988],[19.062171886,47.474502003]]]}},{"type":"Feature","id":463,"properties":{"buildingId":2,"floorId":11,"roomNumber":"602","roomName":"602","scope":"budapest/lagymanyos/eszaki/6/LK-6-602-01-14","roomCode":"LK-6-602-01-14","roomType":"educational","__tile":"16/36238/22923","__layer":"rooms","__zoom":16,"__mvtId":463,"__building":"eszaki","__ringVerts":5,"id":463,"catalogFloorId":11},"geometry":{"type":"Polygon","coordinates":[[[19.061603624,47.474645621],[19.061629105,47.47472811],[19.061562049,47.474738082],[19.061536568,47.474655592],[19.061603624,47.474645621]]]}},{"type":"Feature","id":481,"properties":{"buildingId":2,"floorId":11,"roomNumber":"627","roomName":" 6.627  Oktatói","scope":"budapest/lagymanyos/eszaki/6/LK-6-627 -01-13","roomCode":"LK-6-627 -01-13","roomType":"educational","__tile":"16/36238/22923","__layer":"rooms","__zoom":16,"__mvtId":481,"__building":"eszaki","__ringVerts":5,"id":481,"catalogFloorId":11},"geometry":{"type":"Polygon","coordinates":[[[19.06187502,47.474562356],[19.061892454,47.474615838],[19.061825399,47.474625809],[19.061809306,47.474571421],[19.06187502,47.474562356]]]}},{"type":"Feature","id":1025,"properties":{"buildingId":2,"floorId":11,"roomNumber":"6.54/A","roomName":"6.54/A ","scope":"budapest/lagymanyos/eszaki/6/LÉ-6-54-A-02-33","roomCode":"LÉ-6-54/A-02-33","roomType":"administrative","__tile":"17/72476/45847","__layer":"rooms","__zoom":17,"__mvtId":1025,"__building":"eszaki","__ringVerts":6,"id":1025,"catalogFloorId":11},"geometry":{"type":"Polygon","coordinates":[[[19.061816316,47.474343364],[19.061824363,47.474370106],[19.061749261,47.474380531],[19.061741214,47.474354242],[19.061806258,47.474345177],[19.061816316,47.474343364]]]}},{"type":"Feature","id":1026,"properties":{"buildingId":2,"floorId":11,"roomNumber":"6.54/B","roomName":"6.54/B ","scope":"budapest/lagymanyos/eszaki/6/LÉ-6-54-B-02-33","roomCode":"LÉ-6-54/B-02-33","roomType":"administrative","__tile":"17/72476/45847","__layer":"rooms","__zoom":17,"__mvtId":1026,"__building":"eszaki","__ringVerts":5,"id":1026,"catalogFloorId":11},"geometry":{"type":"Polygon","coordinates":[[[19.061827609,47.474313465],[19.061835656,47.47434066],[19.061761895,47.474350631],[19.061751837,47.474323889],[19.061827609,47.474313465]]]}},{"type":"Feature","id":1027,"properties":{"buildingId":2,"floorId":11,"roomNumber":"6.55","roomName":"6.55 F6 titkárság","scope":"budapest/lagymanyos/eszaki/6/LÉ-6-55-02-33","roomCode":"LÉ-6-55-02-33","roomType":"administrative","__tile":"17/72476/45847","__layer":"rooms","__zoom":17,"__mvtId":1027,"__building":"eszaki","__ringVerts":6,"id":1027,"catalogFloorId":11},"geometry":{"type":"Polygon","coordinates":[[[19.061842517,47.474258809],[19.061850564,47.474285097],[19.061774792,47.474295522],[19.061766745,47.474269233],[19.061831789,47.474260168],[19.061842517,47.474258809]]]}},{"type":"Feature","id":1031,"properties":{"buildingId":2,"floorId":11,"roomNumber":"6.59","roomName":"6.59 F6 Oktató","scope":"budapest/lagymanyos/eszaki/6/LÉ-6-59-01-13","roomCode":"LÉ-6-59-01-13","roomType":"educational","__tile":"17/72476/45847","__layer":"rooms","__zoom":17,"__mvtId":1031,"__building":"eszaki","__ringVerts":6,"id":1031,"catalogFloorId":11},"geometry":{"type":"Polygon","coordinates":[[[19.061874163,47.474145405],[19.061876845,47.474153563],[19.06188221,47.474172147],[19.061806437,47.474182572],[19.061800402,47.474155376],[19.061874163,47.474145405]]]}},{"type":"Feature","id":1072,"properties":{"buildingId":2,"floorId":11,"roomNumber":"6.99","roomName":"6,99","scope":"budapest/lagymanyos/eszaki/6/LÉ-6-99-02-33","roomCode":"LÉ-6-99-02-33","roomType":"administrative","__tile":"17/72476/45847","__layer":"rooms","__zoom":17,"__mvtId":1072,"__building":"eszaki","__ringVerts":11,"id":1072,"catalogFloorId":11},"geometry":{"type":"Polygon","coordinates":[[[19.061999065,47.4744712],[19.062003088,47.474473466],[19.062014488,47.474511993],[19.062001747,47.474513806],[19.062000406,47.474508367],[19.061984983,47.474510633],[19.061986995,47.474516072],[19.061974255,47.474517885],[19.061964867,47.474488424],[19.061961514,47.474476186],[19.061999065,47.4744712]]]}},{"type":"Feature","id":1071,"properties":{"buildingId":2,"floorId":11,"roomNumber":"6.97","roomName":"6.97 Teakonyha","scope":"budapest/lagymanyos/eszaki/6/LÉ-6-97-05-77","roomCode":"LÉ-6-97-05-77","roomType":"social","__tile":"17/72476/45847","__layer":"rooms","__zoom":17,"__mvtId":1071,"__building":"eszaki","__ringVerts":6,"id":1071,"catalogFloorId":11},"geometry":{"type":"Polygon","coordinates":[[[19.062161553,47.474452335],[19.062165577,47.474465479],[19.062168929,47.47447817],[19.062140766,47.474482249],[19.062132719,47.474456414],[19.062161553,47.474452335]]]}},{"type":"Feature","id":1047,"properties":{"buildingId":2,"floorId":11,"roomNumber":"6.75","roomName":"6.75 D12 tárgyaló","scope":"budapest/lagymanyos/eszaki/6/LÉ-6-75-01-17","roomCode":"LÉ-6-75-01-17","roomType":"educational","__tile":"17/72476/45847","__layer":"rooms","__zoom":17,"__mvtId":1047,"__building":"eszaki","__ringVerts":5,"id":1047,"catalogFloorId":11},"geometry":{"type":"Polygon","coordinates":[[[19.062367369,47.474113774],[19.062378768,47.474150941],[19.062297632,47.474162272],[19.062286232,47.474125559],[19.062367369,47.474113774]]]}},{"type":"Feature","id":1040,"properties":{"buildingId":2,"floorId":11,"roomNumber":"6.68","roomName":"6.68 Dolgozó","scope":"budapest/lagymanyos/eszaki/6/LÉ-6-68-01-13","roomCode":"LÉ-6-68-01-13","roomType":"educational","__tile":"17/72476/45847","__layer":"rooms","__zoom":17,"__mvtId":1040,"__building":"eszaki","__ringVerts":8,"id":1040,"catalogFloorId":11},"geometry":{"type":"Polygon","coordinates":[[[19.062225839,47.4740239],[19.062229862,47.474025713],[19.062245955,47.47407965],[19.062164148,47.474090981],[19.062153419,47.474054721],[19.062148055,47.474037044],[19.062150066,47.474034325],[19.062225839,47.4740239]]]}},{"type":"Feature","id":1042,"properties":{"buildingId":2,"floorId":11,"roomNumber":"6.70","roomName":"6.70 Csill oktató","scope":"budapest/lagymanyos/eszaki/6/LÉ-6-70-01-13","roomCode":"LÉ-6-70-01-13","roomType":"educational","__tile":"17/72476/45847","__layer":"rooms","__zoom":17,"__mvtId":1042,"__building":"eszaki","__ringVerts":7,"id":1042,"catalogFloorId":11},"geometry":{"type":"Polygon","coordinates":[[[19.062305763,47.474039113],[19.062309786,47.47404138],[19.062325879,47.474095317],[19.062286987,47.474100756],[19.062274917,47.474064949],[19.062268882,47.474044552],[19.062305763,47.474039113]]]}},{"type":"Feature","id":1049,"properties":{"buildingId":2,"floorId":11,"roomNumber":"6.77","roomName":"6.77 Oktatói szoba","scope":"budapest/lagymanyos/eszaki/6/LÉ-6-77-01-13","roomCode":"LÉ-6-77-01-13","roomType":"educational","__tile":"17/72476/45847","__layer":"rooms","__zoom":17,"__mvtId":1049,"__building":"eszaki","__ringVerts":6,"id":1049,"catalogFloorId":11},"geometry":{"type":"Polygon","coordinates":[[[19.062205072,47.47409283],[19.062216472,47.474129996],[19.062134664,47.474141328],[19.062123265,47.474104161],[19.062155452,47.474099629],[19.062205072,47.47409283]]]}},{"type":"Feature","id":462,"properties":{"buildingId":2,"floorId":11,"roomNumber":"601","roomName":"601","scope":"budapest/lagymanyos/eszaki/6/LK-6-601-01-14","roomCode":"LK-6-601-01-14","roomType":"educational","__tile":"16/36238/22923","__layer":"rooms","__zoom":16,"__mvtId":462,"__building":"eszaki","__ringVerts":7,"id":462,"catalogFloorId":11},"geometry":{"type":"Polygon","coordinates":[[[19.061635359,47.47457591],[19.061652793,47.474632112],[19.061593785,47.47464027],[19.061592444,47.474636644],[19.061584397,47.47463755],[19.061568304,47.474584975],[19.061635359,47.47457591]]]}},{"type":"Feature","id":486,"properties":{"buildingId":2,"floorId":11,"roomNumber":"632","roomName":"6.632 labor","scope":"budapest/lagymanyos/eszaki/6/LK-6-632-01-14","roomCode":"LK-6-632-01-14","roomType":"educational","__tile":"16/36238/22923","__layer":"rooms","__zoom":16,"__mvtId":486,"__building":"eszaki","__ringVerts":5,"id":486,"catalogFloorId":11},"geometry":{"type":"Polygon","coordinates":[[[19.061753808,47.474570693],[19.061763196,47.474596981],[19.061696141,47.474606952],[19.061686753,47.474579757],[19.061753808,47.474570693]]]}},{"type":"Feature","id":515,"properties":{"buildingId":2,"floorId":11,"roomNumber":"6.100","roomName":"6.100 Szebehely Győző Terem","scope":"budapest/lagymanyos/eszaki/6/LÉ-6-100-01-12","roomCode":"LÉ-6-100-01-12","roomType":"educational","__tile":"17/72476/45847","__layer":"rooms","__zoom":17,"__mvtId":515,"__building":"eszaki","__ringVerts":13,"id":515,"catalogFloorId":11},"geometry":{"type":"Polygon","coordinates":[[[19.062089375,47.474490758],[19.062085352,47.474491664],[19.062089375,47.47449393],[19.062101445,47.474532004],[19.062019638,47.474543788],[19.062007568,47.474505262],[19.06201092,47.474504809],[19.062006227,47.474502542],[19.062045789,47.474497103],[19.06204713,47.474501182],[19.062051154,47.474500729],[19.062049812,47.474496197],[19.062089375,47.474490758]]]}},{"type":"Feature","id":747,"properties":{"buildingId":2,"floorId":11,"roomNumber":"6.102","roomName":"6.102 F4 Szeminárium","scope":"budapest/lagymanyos/eszaki/6/LÉ-6-102-01-12","roomCode":"LÉ-6-102-01-12","roomType":"educational","__tile":"17/72476/45847","__layer":"rooms","__zoom":17,"__mvtId":747,"__building":"eszaki","__ringVerts":14,"id":747,"catalogFloorId":11},"geometry":{"type":"Polygon","coordinates":[[[19.062175572,47.474514791],[19.062211111,47.474509352],[19.062212452,47.474513884],[19.062216475,47.474512978],[19.062215134,47.474508899],[19.062252015,47.474508899],[19.062266096,47.474545159],[19.062252685,47.474546972],[19.062251344,47.474541533],[19.062238603,47.474543346],[19.062239274,47.474548785],[19.062184959,47.474556037],[19.06217356,47.474517964],[19.062175572,47.474514791]]]}},{"type":"Feature","id":1067,"properties":{"buildingId":2,"floorId":11,"roomNumber":"6.95/A","roomName":"6.95/A Előtér","scope":"budapest/lagymanyos/eszaki/6/LÉ-6-95-A-04-63","roomCode":"LÉ-6-95/A-04-63","roomType":"corridor","__tile":"17/72476/45847","__layer":"rooms","__zoom":17,"__mvtId":1067,"__building":"eszaki","__ringVerts":6,"id":1067,"catalogFloorId":11},"geometry":{"type":"Polygon","coordinates":[[[19.062089507,47.474437205],[19.062097554,47.474463494],[19.062054638,47.474469386],[19.062053297,47.474466667],[19.062046592,47.474443551],[19.062089507,47.474437205]]]}}],"meta":{"building":"eszaki","floorId":11,"polygonCount":109}}