{"type":"FeatureCollection","features":[{"type":"Feature","id":36645,"properties":{"buildingId":2,"floorId":2,"roomNumber":"3.00","roomName":"Lépcsőház","scope":"budapest/lagymanyos/eszaki/-3/LÉ--3-L4-04-64","roomCode":"LÉ--3-L4-04-64","roomType":"corridor","__tile":"16/36238/22923","__layer":"rooms","__zoom":16,"__mvtId":36645,"__building":"eszaki","__ringVerts":5,"id":36645,"catalogFloorId":2},"geometry":{"type":"Polygon","coordinates":[[[19.062263741,47.474683724],[19.062278493,47.47473358],[19.062212779,47.474741739],[19.062198027,47.474692789],[19.062263741,47.474683724]],[[19.062251671,47.474696415],[19.062216802,47.474700947],[19.062223508,47.474725422],[19.062258376,47.474721796],[19.062251671,47.474696415]]]}},{"type":"Feature","id":36646,"properties":{"buildingId":2,"floorId":2,"roomNumber":"3.00","roomName":"Folyosó","scope":"budapest/lagymanyos/eszaki/-3/LÉ--3-001-04-63","roomCode":"LÉ--3-001-04-63","roomType":"corridor","__tile":"16/36238/22923","__layer":"rooms","__zoom":16,"__mvtId":36646,"__building":"eszaki","__ringVerts":13,"id":36646,"catalogFloorId":2},"geometry":{"type":"Polygon","coordinates":[[[19.062264504,47.474660783],[19.062271209,47.474682538],[19.062201472,47.474691603],[19.062221589,47.474759589],[19.062205495,47.474761402],[19.062193425,47.474720611],[19.062103571,47.474732395],[19.062111618,47.474759589],[19.062096866,47.474761402],[19.062086137,47.474724237],[19.062193425,47.474709733],[19.062181355,47.474671661],[19.062264504,47.474660783]]]}}],"meta":{"building":"eszaki","floorId":2,"polygonCount":2}}